{"type":"FeatureCollection","bbox":[13.577077650385124,45.58092671614102,13.918853091379857,45.80793968771222], "features": [
{"type":"Feature","geometry":{"type":"Polygon","coordinates":[[[13.583443851649003,45.80105313675069],[13.596289005839877,45.80793968771222],[13.603310467119325,45.80424938663524],[13.604696384464374,45.80387837005357],[13.610668043415886,45.80283590967676],[13.623289531634434,45.79824714277242],[13.637317466608875,45.798208515122724],[13.656494674418273,45.80012728294226],[13.670534642762073,45.79816455723568],[13.678727627092238,45.79376178121198],[13.68431271425035,45.79096290698119],[13.687724919825644,45.78922039441049],[13.689241348330127,45.788212868983706],[13.69209042254009,45.786308851895555],[13.693963578145178,45.7849432975715],[13.694134763705575,45.784810356540596],[13.696568886815877,45.78291992279959],[13.69780799112504,45.78186318377925],[13.69853748747458,45.781241045376845],[13.701063168468163,45.77939064733117],[13.702645542639162,45.77831271384301],[13.704590434929104,45.77705327277852],[13.709058985477183,45.774640924069296],[13.712648571958942,45.772944323977775],[13.721245007436766,45.76921525636736],[13.715169132930008,45.765464322421884],[13.713075052502733,45.76439216834512],[13.712054505120104,45.76365829648028],[13.71071502304398,45.7625879251159],[13.710677168261178,45.7625559937571],[13.70853389238131,45.75972356760716],[13.707112378285643,45.75450968287412],[13.70771198163209,45.75404354517474],[13.708307647073568,45.75358367985971],[13.708623871967061,45.75340544415314],[13.70954014257405,45.752889876355454],[13.710581218934955,45.75234808487238],[13.71423545790592,45.74984630150278],[13.711515019004237,45.74571158072443],[13.706164235640752,45.74248219431906],[13.705292441992212,45.7386298008601],[13.704513560762711,45.73507900261375],[13.70453472033872,45.734858733784904],[13.704404975968176,45.733939181951776],[13.704087957710229,45.73378695717067],[13.703934626765134,45.73371333349071],[13.700567809779345,45.732462142006014],[13.69906958939243,45.73251299780795],[13.698552446254995,45.73254289327782],[13.696764739910222,45.73418990194498],[13.680042050083006,45.744063469800395],[13.679429273096062,45.7444232466018],[13.675704214846357,45.74588341692506],[13.673829639050076,45.74619142533927],[13.673267619327826,45.745751835768765],[13.668395381407281,45.74160254361754],[13.660279320118127,45.74640955269408],[13.65136700860074,45.75203012101079],[13.643601666020574,45.75634786325649],[13.642755647322819,45.757012653341036],[13.641585174907219,45.75795730889886],[13.636503303193859,45.76251826230865],[13.634683465170687,45.7642070194456],[13.634295025989188,45.76481681828204],[13.634288324934401,45.764960425241895],[13.63440593400253,45.76504495651494],[13.633922614433217,45.765999905627694],[13.631006710596429,45.76807174595998],[13.625811751673755,45.76947632187588],[13.616199879816614,45.771033913299014],[13.605558729945253,45.7719110129146],[13.59896269921799,45.7728107440687],[13.593110779101936,45.77501910293435],[13.583250565483695,45.77975457937757],[13.580891372289612,45.7817621992292],[13.579756389364203,45.78713662178027],[13.577077650385124,45.793036597287774],[13.580767517658929,45.796475464605855],[13.581328599233466,45.79646193783842],[13.581887629792417,45.7964529608494],[13.582926360228008,45.79654623288682],[13.583796746490208,45.796763285276974],[13.584313732242537,45.79720156117471],[13.584461607639932,45.797333814035234],[13.584791481952056,45.79763243441261],[13.584651986023026,45.79830343763292],[13.58441531995921,45.799441791890615],[13.584367811859845,45.79967028703542],[13.583607912918701,45.800808000773536],[13.583443851649003,45.80105313675069]]]},"properties":{"name":"Duino Aurisina-Devin Nabrežina","op_id":"3959","minint_elettorale":"1060920010","minint_finloc":"2060920010","prov_name":"Trieste","prov_istat_code":"032","prov_istat_code_num":32,"prov_acr":"TS","prov_iso_3166_2":"IT-TS","reg_name":"Friuli-Venezia Giulia","reg_istat_code":"06","reg_istat_code_num":6,"reg_iso_3166_2":"IT-36","opdm_id":"3810","com_catasto_code":"D383","com_istat_code":"032001","com_istat_code_num":32001}},
{"type":"Feature","geometry":{"type":"Polygon","coordinates":[[[13.832646007963588,45.68956021398677],[13.830779579388008,45.69083322595618],[13.82537652053979,45.6959065584849],[13.81261768790823,45.70072315560521],[13.800944553450122,45.7046128650901],[13.800429022520005,45.70418379630849],[13.799239436699624,45.704202375737786],[13.797091362983855,45.70426863124107],[13.79179480068564,45.70496116920598],[13.787874627084225,45.705578950333404],[13.787991957617729,45.70598758367282],[13.788585313916482,45.70815289476339],[13.788611815249082,45.708268295282195],[13.784695455978845,45.71057910593936],[13.780517179191923,45.71303230656943],[13.774723112885656,45.716888886966316],[13.773429332814821,45.71869057785408],[13.773447268412397,45.718738111231225],[13.773774796264348,45.719606099436625],[13.774696290328349,45.72080407727616],[13.775214526566039,45.72142762825656],[13.785731730357945,45.739820817294365],[13.789256078167588,45.746068564634186],[13.793021309330891,45.74438905632563],[13.796296436878556,45.742703023159024],[13.79798188290483,45.74151062058386],[13.798544289690607,45.741078949556275],[13.799831403304864,45.73973224833511],[13.800395874549336,45.738614803808886],[13.801020383403646,45.737008742296794],[13.80200278344705,45.7349960135645],[13.80394878999573,45.73115589000902],[13.806609196179659,45.72760705943555],[13.80663493567161,45.72758017097053],[13.806916522880337,45.72728607849718],[13.809063277935923,45.72504388474711],[13.809325641952926,45.72476984263931],[13.809422747152116,45.72467295703213],[13.811236857622118,45.72286324954725],[13.811270611744884,45.72283120136289],[13.81874474529627,45.71882484154956],[13.820523323693404,45.71794400160295],[13.821859699327039,45.71722584900563],[13.825111004649072,45.71544998598939],[13.825916410838563,45.71500181444871],[13.827080698026188,45.714263890227386],[13.827587048378518,45.71374736601771],[13.833709717876316,45.70724080841754],[13.834060606299053,45.70649679696731],[13.834924550906726,45.70075317757791],[13.833904441525924,45.69670524132149],[13.832430898647244,45.69581306954722],[13.832401372540797,45.69577876503391],[13.831994074374848,45.69530549912059],[13.831795735140371,45.694860046191984],[13.831712389994475,45.69465582219983],[13.831153385268161,45.693099753338934],[13.831136437922876,45.693052070020194],[13.831046190087337,45.69269472364844],[13.83106481779806,45.692635522633694],[13.831568387429964,45.69159239510792],[13.832646007963588,45.68956021398677]]]},"properties":{"name":"Monrupino-Repentabor","op_id":"3960","minint_elettorale":"1060920020","minint_finloc":"2060920020","prov_name":"Trieste","prov_istat_code":"032","prov_istat_code_num":32,"prov_acr":"TS","prov_iso_3166_2":"IT-TS","reg_name":"Friuli-Venezia Giulia","reg_istat_code":"06","reg_istat_code_num":6,"reg_iso_3166_2":"IT-36","opdm_id":"3811","com_catasto_code":"F378","com_istat_code":"032002","com_istat_code_num":32002}},
{"type":"Feature","geometry":{"type":"Polygon","coordinates":[[[13.807394667364768,45.606854773037995],[13.808698600833448,45.6069752317391],[13.808917948506565,45.60480469711042],[13.809872397799593,45.60404339787203],[13.812462641087247,45.60335794731704],[13.813658500623013,45.603208435909906],[13.813943036626277,45.59466026150916],[13.815348122701147,45.589971929202264],[13.819029625289145,45.58436165820073],[13.821665257083477,45.58171466646029],[13.814327891386696,45.58116227141384],[13.814227523679882,45.58115605126688],[13.810526938229005,45.58092671614102],[13.789719686307828,45.58262449688389],[13.787203316102554,45.58290106404568],[13.782168410871313,45.58383153369499],[13.782112546107987,45.58384573289778],[13.781049571463964,45.58411596435935],[13.77836194313147,45.585063039570464],[13.774462748938035,45.586511964842664],[13.769302848400745,45.588591324208764],[13.768577005538118,45.58892324128519],[13.76650330974273,45.58999116312189],[13.762483890597494,45.59175935526401],[13.749552640977752,45.59669978325211],[13.745957698595541,45.597797764140644],[13.740462178526416,45.59700775720553],[13.72979869050448,45.59535430292046],[13.723064029541876,45.59478023725508],[13.719828484913059,45.600539073095014],[13.71950536375248,45.60288385441003],[13.720112161127412,45.605842383415315],[13.73112061794105,45.60875262493103],[13.739522789512142,45.60960094013089],[13.747806277724669,45.60873418532182],[13.756832033077794,45.60806629078442],[13.76519817858318,45.6062949585403],[13.77289454058001,45.604537435588895],[13.777678422794356,45.60121764025958],[13.777754292050577,45.60107645575499],[13.778374255809428,45.600458292550535],[13.778695877705667,45.60017205836472],[13.778825463367204,45.60006843513438],[13.778885160043881,45.60002070784856],[13.779443951195022,45.5996120513384],[13.779610024205164,45.59953639548135],[13.781415370169256,45.599107770571486],[13.783426988478558,45.59872564979348],[13.785647619984362,45.59894665320145],[13.793941395198926,45.602942299779954],[13.795955945424897,45.60409887776978],[13.796512825204466,45.60493484576181],[13.796508047713441,45.605673370444954],[13.796594927931515,45.60589597391246],[13.797292492751675,45.606525181527026],[13.797421930857668,45.606618805227086],[13.80059665041034,45.608083323885886],[13.802142928151106,45.60879037054974],[13.802673932188208,45.60902779208795],[13.804460938902396,45.609443073496486],[13.807394667364768,45.606854773037995]]]},"properties":{"name":"Muggia","op_id":"3961","minint_elettorale":"1060920030","minint_finloc":"2060920030","prov_name":"Trieste","prov_istat_code":"032","prov_istat_code_num":32,"prov_acr":"TS","prov_iso_3166_2":"IT-TS","reg_name":"Friuli-Venezia Giulia","reg_istat_code":"06","reg_istat_code_num":6,"reg_iso_3166_2":"IT-36","opdm_id":"3812","com_catasto_code":"F795","com_istat_code":"032003","com_istat_code_num":32003}},
{"type":"Feature","geometry":{"type":"Polygon","coordinates":[[[13.821665257083477,45.58171466646029],[13.819029625289145,45.58436165820073],[13.815348122701147,45.589971929202264],[13.813943036626277,45.59466026150916],[13.813658500623013,45.603208435909906],[13.812462641087247,45.60335794731704],[13.809872397799593,45.60404339787203],[13.808917948506565,45.60480469711042],[13.808698600833448,45.6069752317391],[13.816559642861238,45.60777352917965],[13.82122658541621,45.61035018321047],[13.830248174956804,45.61580890357531],[13.831604770799531,45.616698310438],[13.832179486467922,45.617162616917426],[13.833592433698149,45.6188511678414],[13.83440721705147,45.61986525831948],[13.843015216776289,45.63264700210459],[13.843070117464979,45.63253848396119],[13.84325344016499,45.63226439800384],[13.843475567759686,45.63198117325023],[13.843749869581181,45.63180456951058],[13.8447824526564,45.631196438489674],[13.847146981690324,45.63021088391677],[13.849193904861663,45.62936316971133],[13.849372747042588,45.629289361084865],[13.85076686667642,45.62871414903784],[13.852457067031244,45.628417668376585],[13.863080880931822,45.627959830984416],[13.872154536261915,45.62849294693456],[13.874070517007342,45.62933574169351],[13.877387265907897,45.63093253956556],[13.880250208572974,45.63254278664391],[13.885739492316056,45.63567863763261],[13.894798142265286,45.64090695905475],[13.895363236027018,45.641233742347],[13.896674553637984,45.64217487953916],[13.897494223796961,45.6427876512908],[13.898364809943752,45.64349062170137],[13.899582040598055,45.64335914962618],[13.899814720542134,45.643334014156274],[13.900544779142008,45.6431803538999],[13.901313154352492,45.6430186228553],[13.90137337620229,45.64300594198534],[13.903127543702844,45.6425659268321],[13.904424181524913,45.64191152308304],[13.916136099154928,45.63520609866483],[13.918853091379857,45.6335707817738],[13.918066019650006,45.63114280404766],[13.906927965093335,45.625093110999174],[13.902772649235077,45.62310013955701],[13.881530403269485,45.612968670256684],[13.8741158333707,45.610428024821466],[13.86828589969964,45.60509623879112],[13.861591357773504,45.59564228036759],[13.860032852601341,45.59535768914558],[13.859143254107854,45.59496806182579],[13.85468513256672,45.59285364948717],[13.85350688533331,45.592201704871584],[13.852814074786629,45.59154709962354],[13.851583255306286,45.58967314725417],[13.850723635366515,45.587216295588775],[13.84938031471965,45.58477770719721],[13.841083245186832,45.58283288320634],[13.838667471303944,45.582485762341385],[13.821665257083477,45.58171466646029]]]},"properties":{"name":"San Dorligo della Valle-Dolina","op_id":"3962","minint_elettorale":"1060920040","minint_finloc":"2060920040","prov_name":"Trieste","prov_istat_code":"032","prov_istat_code_num":32,"prov_acr":"TS","prov_iso_3166_2":"IT-TS","reg_name":"Friuli-Venezia Giulia","reg_istat_code":"06","reg_istat_code_num":6,"reg_iso_3166_2":"IT-36","opdm_id":"3813","com_catasto_code":"D324","com_istat_code":"032004","com_istat_code_num":32004}},
{"type":"Feature","geometry":{"type":"Polygon","coordinates":[[[13.698552446254995,45.73254289327782],[13.69906958939243,45.73251299780795],[13.700567809779345,45.732462142006014],[13.703934626765134,45.73371333349071],[13.704087957710229,45.73378695717067],[13.704404975968176,45.733939181951776],[13.70453472033872,45.734858733784904],[13.704513560762711,45.73507900261375],[13.705292441992212,45.7386298008601],[13.706164235640752,45.74248219431906],[13.711515019004237,45.74571158072443],[13.71423545790592,45.74984630150278],[13.710581218934955,45.75234808487238],[13.70954014257405,45.752889876355454],[13.708623871967061,45.75340544415314],[13.708307647073568,45.75358367985971],[13.70771198163209,45.75404354517474],[13.707112378285643,45.75450968287412],[13.70853389238131,45.75972356760716],[13.710677168261178,45.7625559937571],[13.71071502304398,45.7625879251159],[13.712054505120104,45.76365829648028],[13.713075052502733,45.76439216834512],[13.715169132930008,45.765464322421884],[13.721245007436766,45.76921525636736],[13.722425193101286,45.76889413932239],[13.72783671010287,45.76731511309744],[13.729338188177577,45.766836105754294],[13.729960985573616,45.766637409804815],[13.733016783616627,45.764593258262565],[13.735420903642401,45.76289904482896],[13.737068622839042,45.7617289951864],[13.736004206288838,45.76158420742912],[13.73589395907163,45.759648963782105],[13.746256244429544,45.7552282096848],[13.755429363446646,45.75546010908697],[13.765453979990884,45.752174500463056],[13.769228241118672,45.75018255793275],[13.774361294797403,45.74879526341851],[13.77854584134084,45.748574507516715],[13.782210937081615,45.74843021062968],[13.783605071607148,45.748232180256366],[13.786753123260246,45.74708286742995],[13.788322331327695,45.746490359365545],[13.789256078167588,45.746068564634186],[13.785731730357945,45.739820817294365],[13.775214526566039,45.72142762825656],[13.774696290328349,45.72080407727616],[13.773774796264348,45.719606099436625],[13.773447268412397,45.718738111231225],[13.773429332814821,45.71869057785408],[13.774723112885656,45.716888886966316],[13.780517179191923,45.71303230656943],[13.784695455978845,45.71057910593936],[13.788611815249082,45.708268295282195],[13.788585313916482,45.70815289476339],[13.787991957617729,45.70598758367282],[13.787874627084225,45.705578950333404],[13.787352652461307,45.70564845797837],[13.786799730919988,45.70571728160508],[13.786675340829877,45.70572976064385],[13.784765034336276,45.70592135692664],[13.782084628270058,45.70613740995972],[13.781098144857324,45.706165299149994],[13.779166379467089,45.70621480640478],[13.77880954513563,45.705948998766324],[13.777513240627316,45.70485317025596],[13.777055811093488,45.704466469333155],[13.777007804984668,45.70442589023364],[13.775732698008959,45.70343773471655],[13.775632081499632,45.70337062263108],[13.771162695899761,45.70105918291081],[13.76860312624913,45.700226715620026],[13.762333448965606,45.70142317568751],[13.76180518958142,45.701525647298574],[13.75999311561981,45.70200148025543],[13.741823525290295,45.70717934240056],[13.735290816064449,45.710713177799484],[13.72885153168853,45.71477237514765],[13.722211910121668,45.71893100255114],[13.71567998216524,45.72255946244216],[13.706751780522907,45.72710842386238],[13.702754725068779,45.72946432053679],[13.700392939333526,45.730972883236845],[13.699116277225604,45.732031133346254],[13.698552446254995,45.73254289327782]]]},"properties":{"name":"Sgonico-Zgonik","op_id":"3963","minint_elettorale":"1060920050","minint_finloc":"2060920050","prov_name":"Trieste","prov_istat_code":"032","prov_istat_code_num":32,"prov_acr":"TS","prov_iso_3166_2":"IT-TS","reg_name":"Friuli-Venezia Giulia","reg_istat_code":"06","reg_istat_code_num":6,"reg_iso_3166_2":"IT-36","opdm_id":"3814","com_catasto_code":"I715","com_istat_code":"032005","com_istat_code_num":32005}},
{"type":"Feature","geometry":{"type":"MultiPolygon","coordinates":[[[[13.758194577931146,45.663135674451325],[13.758227817182364,45.66310137701753],[13.762026338419213,45.65656679947024],[13.761966772136265,45.65621814534481],[13.759589765678772,45.66029931404324],[13.757138483520789,45.663870791152995],[13.757100109472733,45.663905257558895],[13.757062703817613,45.66393963852772],[13.75703344085555,45.663968161669565],[13.757004473157735,45.663998499805906],[13.756975069403184,45.664030809480515],[13.75695396061969,45.66407039731989],[13.756947250961815,45.664112948855994],[13.756973284735839,45.664143475978236],[13.757016415535901,45.66414885921435],[13.757071015749947,45.664151427841816],[13.757123796805441,45.66415298317309],[13.758194577931146,45.663135674451325]]],[[[13.668395381407281,45.74160254361754],[13.673267619327826,45.745751835768765],[13.673829639050076,45.74619142533927],[13.675704214846357,45.74588341692506],[13.679429273096062,45.7444232466018],[13.680042050083006,45.744063469800395],[13.696764739910222,45.73418990194498],[13.698552446254995,45.73254289327782],[13.699116277225604,45.732031133346254],[13.700392939333526,45.730972883236845],[13.702754725068779,45.72946432053679],[13.706751780522907,45.72710842386238],[13.71567998216524,45.72255946244216],[13.722211910121668,45.71893100255114],[13.72885153168853,45.71477237514765],[13.735290816064449,45.710713177799484],[13.741823525290295,45.70717934240056],[13.75999311561981,45.70200148025543],[13.76180518958142,45.701525647298574],[13.762333448965606,45.70142317568751],[13.76860312624913,45.700226715620026],[13.771162695899761,45.70105918291081],[13.775632081499632,45.70337062263108],[13.775732698008959,45.70343773471655],[13.777007804984668,45.70442589023364],[13.777055811093488,45.704466469333155],[13.777513240627316,45.70485317025596],[13.77880954513563,45.705948998766324],[13.779166379467089,45.70621480640478],[13.781098144857324,45.706165299149994],[13.782084628270058,45.70613740995972],[13.784765034336276,45.70592135692664],[13.786675340829877,45.70572976064385],[13.786799730919988,45.70571728160508],[13.787352652461307,45.70564845797837],[13.787874627084225,45.705578950333404],[13.79179480068564,45.70496116920598],[13.797091362983855,45.70426863124107],[13.799239436699624,45.704202375737786],[13.800429022520005,45.70418379630849],[13.800944553450122,45.7046128650901],[13.81261768790823,45.70072315560521],[13.82537652053979,45.6959065584849],[13.830779579388008,45.69083322595618],[13.832646007963588,45.68956021398677],[13.833069796675835,45.68884967195286],[13.835495647382322,45.68613295395278],[13.838617924007835,45.68438352204413],[13.842280419183318,45.682199274338736],[13.843686762444943,45.68135638344326],[13.8448578746984,45.680559472895915],[13.84656372505775,45.67879465201272],[13.851559830354816,45.67314843868126],[13.856032311819142,45.66807132417685],[13.856208849301302,45.667852263906404],[13.857604957851413,45.666248075932344],[13.857637498801614,45.66621144309765],[13.858128814682207,45.66566857769377],[13.858703247662048,45.665194233870146],[13.85922333670918,45.664767671359066],[13.859685520431404,45.664459111493905],[13.867629325765977,45.65919433349721],[13.879222014087627,45.65201147506916],[13.889116234925948,45.64692988465419],[13.891254520429326,45.6458794652922],[13.896302689299322,45.643842151069535],[13.898364809943752,45.64349062170137],[13.897494223796961,45.6427876512908],[13.896674553637984,45.64217487953916],[13.895363236027018,45.641233742347],[13.894798142265286,45.64090695905475],[13.885739492316056,45.63567863763261],[13.880250208572974,45.63254278664391],[13.877387265907897,45.63093253956556],[13.874070517007342,45.62933574169351],[13.872154536261915,45.62849294693456],[13.863080880931822,45.627959830984416],[13.852457067031244,45.628417668376585],[13.85076686667642,45.62871414903784],[13.849372747042588,45.629289361084865],[13.849193904861663,45.62936316971133],[13.847146981690324,45.63021088391677],[13.8447824526564,45.631196438489674],[13.843749869581181,45.63180456951058],[13.843475567759686,45.63198117325023],[13.84325344016499,45.63226439800384],[13.843070117464979,45.63253848396119],[13.843015216776289,45.63264700210459],[13.83440721705147,45.61986525831948],[13.833592433698149,45.6188511678414],[13.832179486467922,45.617162616917426],[13.831604770799531,45.616698310438],[13.830248174956804,45.61580890357531],[13.82122658541621,45.61035018321047],[13.816559642861238,45.60777352917965],[13.808698600833448,45.6069752317391],[13.807394667364768,45.606854773037995],[13.804702575670882,45.60959491211266],[13.807597626468631,45.612576664753426],[13.79697733558692,45.611103778574474],[13.783897864806404,45.61302701481878],[13.779806755217521,45.6158010850636],[13.779451041029882,45.61608765343771],[13.779023076181396,45.61645265686892],[13.778912053073883,45.61654782345562],[13.776246616785697,45.61932801329563],[13.775614892657657,45.62042604635405],[13.773785519501086,45.623800599562934],[13.773746117265867,45.62900591595721],[13.773900874883447,45.629807806793984],[13.778160457055472,45.63117019056385],[13.778144229702544,45.631211128809596],[13.776739541977898,45.63394929541148],[13.776401839091518,45.63411732163176],[13.773639862993605,45.635314685878676],[13.766785445986011,45.63692394082044],[13.766638562149986,45.636938915157515],[13.766553902612255,45.636805793084775],[13.766270834682,45.6345429128848],[13.766013967196224,45.63228422102158],[13.765981550884762,45.63050137545864],[13.762670394839873,45.62953226067762],[13.758391177101364,45.62832116047462],[13.756846830772547,45.627889976437245],[13.756107547697948,45.62916685857072],[13.754926241275808,45.63124381403405],[13.7591715336415,45.63244237402425],[13.756063011569053,45.636328717140515],[13.752163864027503,45.637419588306535],[13.747313019164832,45.63947208420062],[13.748684511321812,45.64404032897573],[13.749750834259709,45.64530673903212],[13.75465567024954,45.64997808605397],[13.75652199331215,45.64907987468969],[13.759980011386515,45.64668093679627],[13.76478356799719,45.649820385471706],[13.767690288294398,45.65150681821186],[13.768127221377656,45.65177903085603],[13.7683358575676,45.65194365577813],[13.768539950171453,45.652114906557415],[13.769256894478781,45.65295830892449],[13.766795997498367,45.65728843012904],[13.766411960933349,45.65792083031617],[13.76580089259319,45.65884808651751],[13.764858000294202,45.66027205205646],[13.762502710233994,45.65961849485977],[13.760325053167742,45.66338934555645],[13.760197432844135,45.663611677009975],[13.759144537672562,45.66562107048031],[13.753007435476047,45.67745308166071],[13.753952092185662,45.67809499020404],[13.753891612826221,45.678759209741536],[13.753869137747635,45.678901850157004],[13.753676203800675,45.67986997031186],[13.753411006619773,45.68047592709619],[13.744463002752756,45.68806381218789],[13.735011562805788,45.695186396966164],[13.734908278714073,45.695261619717066],[13.734810434600146,45.69532507638694],[13.734162314858484,45.69574291642934],[13.733696616684217,45.696040756620256],[13.733643010344698,45.696074146222315],[13.73359042541848,45.696105792084786],[13.733445265049822,45.696192600202586],[13.733391678713234,45.69622228020498],[13.7333514630144,45.69624434773359],[13.733152408967493,45.69634384421672],[13.733006204808204,45.69641406919944],[13.72234935467647,45.70061212037682],[13.718357630384723,45.70146886183844],[13.71196448934559,45.7053081273282],[13.71325949358405,45.70631215108353],[13.713290157250169,45.706338903287346],[13.713314032099131,45.70637732316471],[13.713458608363876,45.706816395093576],[13.713467411377684,45.706846010805805],[13.713609215745965,45.70737146003828],[13.713690285314897,45.70787936056481],[13.713682095016473,45.707904255507664],[13.71349323256148,45.708225220393516],[13.71320966142139,45.708698995751284],[13.712526844465671,45.70971826112633],[13.712121699486518,45.710224955418376],[13.71207982342528,45.71026848520052],[13.711774229980582,45.71051399914321],[13.708805451029797,45.71261849962707],[13.70323077068633,45.71628958828389],[13.701480476008472,45.717379244164555],[13.69274849976631,45.72430502417419],[13.680410912391022,45.734302160213076],[13.676951796246957,45.73698026534873],[13.676828846150391,45.73706254262576],[13.676782311366857,45.73709004307394],[13.675768548669168,45.737644337233576],[13.672256704301645,45.73954564791146],[13.668395381407281,45.74160254361754]]]]},"properties":{"name":"Trieste","op_id":"3964","minint_elettorale":"1060920060","minint_finloc":"2060920060","prov_name":"Trieste","prov_istat_code":"032","prov_istat_code_num":32,"prov_acr":"TS","prov_iso_3166_2":"IT-TS","reg_name":"Friuli-Venezia Giulia","reg_istat_code":"06","reg_istat_code_num":6,"reg_iso_3166_2":"IT-36","opdm_id":"3815","com_catasto_code":"L424","com_istat_code":"032006","com_istat_code_num":32006}}
]}