{"type":"FeatureCollection","bbox":[15.870254521937609,40.897718849024486,16.54226126158003,41.441206253445905], "features": [
{"type":"Feature","geometry":{"type":"Polygon","coordinates":[[[16.3399717852174,41.16651792051263],[16.34136316415591,41.15905550718544],[16.341707021181026,41.15638277477737],[16.3410826273584,41.155459988591396],[16.33974762011487,41.15364325274232],[16.338329362804267,41.1519021621796],[16.337833746460166,41.151515849557384],[16.337758654250525,41.15145731818689],[16.337689783957366,41.151434701492796],[16.340434894986878,41.1430327359883],[16.344142290098226,41.14078079732505],[16.34660014143255,41.13912109785457],[16.34958526501359,41.13660811684461],[16.351660060074,41.13476085383564],[16.35170331441153,41.1347220854865],[16.347665257560614,41.1260460232175],[16.347304538432414,41.125319659448635],[16.34726725538514,41.12525259972808],[16.347159129057765,41.12509738379614],[16.346704562947146,41.12445648012229],[16.346178961538158,41.123801828703],[16.345547203815777,41.123182294386915],[16.34538728912544,41.12302926136544],[16.343697894502508,41.12149990479412],[16.342345464940472,41.120481938546945],[16.335506165097623,41.11559033344004],[16.326733045747982,41.10940064923269],[16.322777232734296,41.10678172592041],[16.314585381113915,41.092333608798064],[16.312996141110965,41.09024982297519],[16.312410449356474,41.0899378449899],[16.30748203344819,41.08737281561248],[16.303091993597917,41.08599642758533],[16.298745036306947,41.08451480185569],[16.29895848702407,41.083072314691115],[16.299986578858515,41.07921086128021],[16.299313502122228,41.07481904604591],[16.299147408769628,41.07410077226533],[16.29868340203622,41.073590433489905],[16.29387505756305,41.06885375777408],[16.293772647393777,41.068758732493684],[16.293462584438682,41.06847104685492],[16.290641212860702,41.06585446741525],[16.278699157264484,41.05402600848263],[16.273814925365684,41.04818289393627],[16.26602976340638,41.03859703569541],[16.26518330662795,41.03725596099149],[16.263162401618622,41.033190849407326],[16.263293375113395,41.032494186732336],[16.265501565898745,41.030379140769206],[16.267117037223176,41.02900349375168],[16.267519627266466,41.02882949993412],[16.267673148302066,41.02809541008144],[16.267528210453634,41.027321754497166],[16.26686406910474,41.02448442823171],[16.26662253377728,41.02389156762112],[16.265831129923892,41.02341612658712],[16.265494210423277,41.023247307321974],[16.264802897138644,41.02290090731602],[16.26354315008395,41.022440839551535],[16.25671435460712,41.01751485921432],[16.254039928160683,41.01478001637118],[16.253658949945116,41.015071737634315],[16.252424235783504,41.01561460262676],[16.252081158091485,41.01576543890915],[16.245829044379814,41.01802789970513],[16.24287658209181,41.01902431064224],[16.24167903655564,41.01926193076929],[16.23978631638758,41.01920150605105],[16.239411776919034,41.01914515904135],[16.238964822509484,41.019077914112245],[16.237997317874374,41.01886905243826],[16.23661096452413,41.018659626949635],[16.235312616792612,41.018467126312466],[16.23398132677205,41.01859612780817],[16.223848400654852,41.01974345618304],[16.222154164624868,41.02013814364247],[16.221608722550243,41.020304570403646],[16.221076433500095,41.020466981624125],[16.219947023307355,41.02097453124627],[16.21903885276644,41.02141414989798],[16.21826244158395,41.02180947238408],[16.21749581528642,41.022348147552265],[16.217041045527353,41.02271986132286],[16.210119339732508,41.022825788539976],[16.207167404578453,41.016082653029926],[16.206183712426864,41.01496569876829],[16.2023129712222,41.01278835657403],[16.200560502255644,41.011809625742345],[16.198857154160155,41.01098075478673],[16.1971031822448,41.01020452663962],[16.19157347203438,41.00876531603257],[16.188485779697295,41.01162696782443],[16.185533125938104,41.01879932082494],[16.1854306788471,41.02013014230795],[16.184509415693338,41.02334919196935],[16.182806098345402,41.02495664951535],[16.182742949078484,41.02501660162955],[16.181959040807627,41.025808081035784],[16.18132860087352,41.02650895629312],[16.181090574626957,41.02715825603507],[16.18358589335047,41.03438012735473],[16.18818974917833,41.04220417507701],[16.194013419105712,41.047927457504564],[16.198846845245527,41.05239195788644],[16.208926604926614,41.06235420621879],[16.2091074608011,41.06294572474126],[16.209038958977505,41.06332346614838],[16.208108755882957,41.064515764189046],[16.2075979139966,41.065033800832744],[16.207104785381798,41.06552372618327],[16.206483243180124,41.06600822693847],[16.200350724455333,41.065732230952406],[16.193929570105126,41.06607691271416],[16.19360237073106,41.066137420898066],[16.19335633270348,41.06618291955306],[16.192493286397386,41.066342514694135],[16.191764990166632,41.06658617661555],[16.19149099611618,41.066680771869606],[16.19143154378308,41.06671379192939],[16.19136957298461,41.066748210854826],[16.190180234014118,41.06745046303604],[16.18935433003751,41.0679701865776],[16.18272888611519,41.07215590291578],[16.18264038542629,41.07226155649368],[16.182263509533502,41.07271147510542],[16.181729654496838,41.07337481758772],[16.178719576905753,41.07751821025372],[16.175683139953346,41.08155969821762],[16.174680833307203,41.08199138049002],[16.172986081008855,41.08242589579949],[16.17118917934033,41.08257882466274],[16.16977945008612,41.082873980289264],[16.168846413393464,41.083368768671775],[16.16765532635019,41.08403266083455],[16.15957895584793,41.08906368800905],[16.158524020984256,41.08990820512854],[16.157850914668725,41.090449409534976],[16.15918718671727,41.09268085766426],[16.160133629740486,41.09425495021252],[16.161070231402007,41.09665072841112],[16.162494644990606,41.10092665799049],[16.16374074062031,41.105064032176266],[16.164498013576342,41.109327004801706],[16.164452622565687,41.11004374270989],[16.16387109328677,41.11170132048072],[16.163499508509226,41.112084489339196],[16.15884821118082,41.114570775838935],[16.15328167499364,41.11704201820301],[16.139599187002613,41.12420967234338],[16.133535611141156,41.13098337502338],[16.12349713830238,41.137016490566815],[16.11235846018899,41.14330502680942],[16.09560020090924,41.15593427408768],[16.09324698040941,41.15821999329586],[16.09123255653192,41.16059603667593],[16.08938265357597,41.163422537002155],[16.086892226123805,41.167357176356596],[16.08513724010529,41.17047040402621],[16.084828950314982,41.1712327678398],[16.084071306620288,41.175116174563804],[16.08797862296202,41.17719317055542],[16.1002955365159,41.18363532626869],[16.108665643944352,41.19129717265495],[16.11270778148675,41.19582820374381],[16.11717317762585,41.20153837378717],[16.121378249076564,41.20757169470414],[16.12669529780711,41.21730855917467],[16.125727961777084,41.22114587434329],[16.125564926599733,41.22301418936144],[16.129400539565292,41.23025350053407],[16.138977777001834,41.23133979432949],[16.144704668288508,41.23190510299602],[16.156972089784908,41.230397236575925],[16.164056202779218,41.22992155398135],[16.17439527875897,41.229524029394135],[16.174444619861042,41.229523101377175],[16.17484961099672,41.22952183309337],[16.175003327003257,41.22952530585652],[16.17573155129055,41.22956754293815],[16.1759595369189,41.229591478052235],[16.176212074451627,41.22961817322959],[16.17684400849512,41.229733941231686],[16.17778779652281,41.230644800311225],[16.177804934117734,41.23066807871422],[16.181351144082125,41.23806313806441],[16.18318408370083,41.24315390725741],[16.184561525881396,41.24808424662339],[16.188405134442743,41.25264076118493],[16.190996248276544,41.25275563855889],[16.194168290062755,41.253298815254354],[16.196182279593742,41.25442309333269],[16.202197516491836,41.25862975779028],[16.203741052005103,41.2598104796865],[16.204241729289812,41.260208508317234],[16.20546417084654,41.26120585833454],[16.206688048513936,41.262476697856705],[16.20991742844829,41.265923280702665],[16.21042975816036,41.26645793502335],[16.21073517609956,41.26676032160416],[16.21089075822396,41.26690583322788],[16.2137945317521,41.269468432423096],[16.215148512138217,41.27043505138571],[16.215544878467565,41.27070253134463],[16.216523712877688,41.27135623818644],[16.21667179811524,41.2714548891265],[16.221294318806592,41.269140917836324],[16.231075597246623,41.26550257926706],[16.245829153679193,41.26282879744252],[16.253025191159985,41.26426942777833],[16.25759447167583,41.265728123013844],[16.260397027177603,41.26840363056026],[16.266039364717404,41.26892243522968],[16.274205580498055,41.26768858301776],[16.27444903833856,41.26755412808923],[16.27453698317832,41.267505558024524],[16.27499023675234,41.26694742691977],[16.27509854707898,41.26669353687063],[16.275144010904597,41.2657340898243],[16.275159606009783,41.265236477219695],[16.27512840892741,41.26428254148493],[16.275094230719695,41.26373580898394],[16.272666043706106,41.26286873137356],[16.270476969639546,41.263877230189905],[16.275848764199456,41.25983528303954],[16.28125967596404,41.25847579489213],[16.283850675185302,41.257838598734],[16.285611482494293,41.25751869415257],[16.28662505946931,41.25750911705688],[16.288873209402695,41.25772597403328],[16.289554241544124,41.25784459269226],[16.287891017253347,41.26006058151708],[16.286837945855364,41.259947631314716],[16.28662559458066,41.260515219096874],[16.286336622384756,41.26130439481223],[16.285649595402514,41.263186181931445],[16.289063917202935,41.26581692804673],[16.2918724252291,41.265803945856874],[16.29765074706612,41.2615716157554],[16.299028573128936,41.25912732308938],[16.300066288765958,41.25819623260034],[16.303415472684218,41.25669140354994],[16.308774473997488,41.25732129496089],[16.308118078806345,41.25783105947052],[16.31464953975454,41.265260594265655],[16.32110176759618,41.26971753087678],[16.325239471647677,41.27120183714876],[16.326062058069617,41.27042934306824],[16.326923482052415,41.26933941776008],[16.32866483720256,41.2690750003211],[16.33343332943229,41.26598246330157],[16.333700838063915,41.26565713882165],[16.33378724891345,41.26520618930698],[16.333773799907,41.26466265486736],[16.33345232335835,41.262838598029816],[16.33542938286111,41.25890888279986],[16.33821536876456,41.25387446172424],[16.342863990933175,41.24983807631316],[16.343292680138404,41.24970042078847],[16.343898420111003,41.24949504051049],[16.345234967558245,41.24892340706502],[16.345719372501875,41.24869887033208],[16.345568236515607,41.24685441620784],[16.34275914634953,41.24351999312674],[16.340547628911175,41.24192290774807],[16.338360698535816,41.242879015009045],[16.337846620305594,41.24216158197892],[16.337427917523826,41.240679974506506],[16.33788114206322,41.23849836370926],[16.338826605794647,41.237240670598545],[16.341727980182153,41.235162024625524],[16.34762234987102,41.2332303123201],[16.34943264605396,41.2300398188764],[16.348328693092785,41.22992313834393],[16.346483038688497,41.22954215784884],[16.345780908537296,41.22930786864423],[16.34032046214175,41.22627956332269],[16.33961699224668,41.22397161704961],[16.340818103958846,41.22034483403815],[16.34608815036202,41.21252939531661],[16.349602721998036,41.20904299359451],[16.355217418871042,41.20720712639277],[16.362899294756513,41.198617592780586],[16.363400813977098,41.19789571269142],[16.35881031053281,41.19405416365074],[16.352627107384507,41.1901677405146],[16.351866600937022,41.18968116930724],[16.350874102875565,41.18601963687432],[16.350159961658843,41.17969477512142],[16.348493488392368,41.17809518302306],[16.344158071880805,41.174634229007445],[16.340866787249492,41.168975553319655],[16.3399717852174,41.16651792051263]]]},"properties":{"name":"Andria","op_id":"6289","minint_elettorale":"3161060010","minint_finloc":"4160090050","prov_name":"Barletta-Andria-Trani","prov_istat_code":"110","prov_istat_code_num":110,"prov_acr":"BT","prov_iso_3166_2":"IT-BT","reg_name":"Puglia","reg_istat_code":"16","reg_istat_code_num":16,"reg_iso_3166_2":"IT-75","opdm_id":"6643","com_catasto_code":"A285","com_istat_code":"110001","com_istat_code_num":110001,"prov_uts_code":"110","prov_tipo_uts":"Provincia"}},
{"type":"Feature","geometry":{"type":"Polygon","coordinates":[[[16.326923482052415,41.26933941776008],[16.326062058069617,41.27042934306824],[16.325239471647677,41.27120183714876],[16.32110176759618,41.26971753087678],[16.31464953975454,41.265260594265655],[16.308118078806345,41.25783105947052],[16.308774473997488,41.25732129496089],[16.303415472684218,41.25669140354994],[16.300066288765958,41.25819623260034],[16.299028573128936,41.25912732308938],[16.29765074706612,41.2615716157554],[16.2918724252291,41.265803945856874],[16.289063917202935,41.26581692804673],[16.285649595402514,41.263186181931445],[16.286336622384756,41.26130439481223],[16.28662559458066,41.260515219096874],[16.286837945855364,41.259947631314716],[16.287891017253347,41.26006058151708],[16.289554241544124,41.25784459269226],[16.288873209402695,41.25772597403328],[16.28662505946931,41.25750911705688],[16.285611482494293,41.25751869415257],[16.283850675185302,41.257838598734],[16.28125967596404,41.25847579489213],[16.275848764199456,41.25983528303954],[16.270476969639546,41.263877230189905],[16.272666043706106,41.26286873137356],[16.275094230719695,41.26373580898394],[16.27512840892741,41.26428254148493],[16.275159606009783,41.265236477219695],[16.275144010904597,41.2657340898243],[16.27509854707898,41.26669353687063],[16.27499023675234,41.26694742691977],[16.27453698317832,41.267505558024524],[16.27444903833856,41.26755412808923],[16.274205580498055,41.26768858301776],[16.266039364717404,41.26892243522968],[16.260397027177603,41.26840363056026],[16.25759447167583,41.265728123013844],[16.253025191159985,41.26426942777833],[16.245829153679193,41.26282879744252],[16.231075597246623,41.26550257926706],[16.221294318806592,41.269140917836324],[16.21667179811524,41.2714548891265],[16.216523712877688,41.27135623818644],[16.215544878467565,41.27070253134463],[16.215148512138217,41.27043505138571],[16.2137945317521,41.269468432423096],[16.21089075822396,41.26690583322788],[16.21073517609956,41.26676032160416],[16.21042975816036,41.26645793502335],[16.20991742844829,41.265923280702665],[16.206688048513936,41.262476697856705],[16.20546417084654,41.26120585833454],[16.204241729289812,41.260208508317234],[16.203741052005103,41.2598104796865],[16.202197516491836,41.25862975779028],[16.196182279593742,41.25442309333269],[16.194168290062755,41.253298815254354],[16.190996248276544,41.25275563855889],[16.188405134442743,41.25264076118493],[16.184561525881396,41.24808424662339],[16.18318408370083,41.24315390725741],[16.181351144082125,41.23806313806441],[16.177804934117734,41.23066807871422],[16.17778779652281,41.230644800311225],[16.17684400849512,41.229733941231686],[16.176212074451627,41.22961817322959],[16.1759595369189,41.229591478052235],[16.17573155129055,41.22956754293815],[16.175003327003257,41.22952530585652],[16.17484961099672,41.22952183309337],[16.174444619861042,41.229523101377175],[16.17439527875897,41.229524029394135],[16.164056202779218,41.22992155398135],[16.156972089784908,41.230397236575925],[16.144704668288508,41.23190510299602],[16.143310649734975,41.234830067646236],[16.132027222581623,41.235066301908695],[16.1241926020217,41.2369261445586],[16.118212663836044,41.242350722957035],[16.11808926715088,41.24282031177645],[16.114748863566824,41.25199666528709],[16.10647165667118,41.260394349496494],[16.099994288289654,41.27076643310096],[16.095197189849827,41.27535113970518],[16.094568559043278,41.27587295932099],[16.093923533664913,41.27630742403345],[16.093420810437035,41.27632271085214],[16.093077876338942,41.27633280282808],[16.092466549252798,41.27604192091535],[16.090692845163147,41.27528363100274],[16.089839896699186,41.27495398039616],[16.087201172010857,41.27399678565304],[16.08467702688094,41.273217203398126],[16.079316570952262,41.27169037440992],[16.078080158122322,41.271370834797544],[16.077197873724803,41.27120937934659],[16.075708290888723,41.27152685541489],[16.067023481922966,41.27508614198412],[16.0678121767689,41.27575598352494],[16.068816691824786,41.27660885600612],[16.06927676242583,41.276875699662064],[16.070226160757677,41.276901155765636],[16.072044789685243,41.276841532139024],[16.07292061612652,41.27673364972257],[16.073176947553765,41.27659028943103],[16.073281522509717,41.276531190931586],[16.073348693747427,41.27622384742649],[16.07335409012942,41.276188799613465],[16.073359161067742,41.276152896295066],[16.073350831262186,41.276124478902744],[16.079703804898752,41.28014341395068],[16.079982718026084,41.28408394146615],[16.084420252967803,41.28306438589951],[16.10056191343341,41.28490392787053],[16.1122628415467,41.285536708698736],[16.11300763881891,41.28569292848175],[16.114844794896577,41.28640220141096],[16.115820793977107,41.28684549802609],[16.11666729478793,41.28741381803445],[16.11742740855968,41.287983000756114],[16.117986818125335,41.28851507935874],[16.11836847358764,41.289170849225634],[16.118688625125237,41.28980786427304],[16.11877162700155,41.29009723195294],[16.118879339628393,41.29051591573213],[16.12655151574658,41.29278337773732],[16.126239240886544,41.2920829058063],[16.125938570460775,41.291161238980145],[16.125807978161166,41.29048545452993],[16.12595999061459,41.289639106515395],[16.126070687560013,41.28909678926722],[16.126260941297765,41.28849102880574],[16.126635726091408,41.28799076983791],[16.126741807064754,41.288020471855475],[16.127380515133634,41.288200885947184],[16.130668650449998,41.289166041071226],[16.132261414638798,41.28979378130769],[16.13230496688141,41.289811211113],[16.13257960166572,41.290060827141296],[16.13270374261643,41.29018215364409],[16.132932204567034,41.29120771695111],[16.13305316735845,41.291820667626695],[16.13316917017608,41.29285280397143],[16.13310010182003,41.293801980617054],[16.132963210868148,41.294341643156216],[16.132919146219812,41.29451462038024],[16.13286634742938,41.294720855214855],[16.13244591224554,41.295264537912615],[16.132173294725025,41.29559680671974],[16.131909031395967,41.295918892559044],[16.131746786432668,41.29620796004327],[16.131625100346135,41.29692194477807],[16.131567046728705,41.29769945663211],[16.131592009800503,41.298417807220794],[16.13184954737003,41.29893636808216],[16.134765710695625,41.30091975672974],[16.13551182639292,41.30119348098301],[16.13633081647216,41.30120918042261],[16.136623225777356,41.30112796573741],[16.136748724608914,41.3010481545037],[16.138729103941948,41.29968288054536],[16.139931649336262,41.29796466251875],[16.14334692193998,41.29887029241438],[16.14816701223254,41.300979375983175],[16.147270161762577,41.30512080021104],[16.148477394913133,41.30928221572526],[16.158301938789826,41.31284553340227],[16.164456092662633,41.314188392636446],[16.16973945332073,41.31358322595165],[16.17514959307056,41.31551043272008],[16.175384163380723,41.3156527127856],[16.17592600686151,41.315992323062794],[16.17606588387971,41.316079993183656],[16.17641926249939,41.31703870467754],[16.17656406446761,41.31751684691539],[16.176595868658975,41.3176395452538],[16.176580397496874,41.31770473210993],[16.176407542404338,41.31842074190365],[16.176007016439748,41.31908507103584],[16.175686375718794,41.319297432369126],[16.17525541665193,41.319554797096735],[16.17438911593702,41.31976226252622],[16.17349929611453,41.31977107150542],[16.173277177569368,41.319773237408114],[16.172244837044754,41.3195235576455],[16.171661301820773,41.31938068851153],[16.168970867290664,41.32393387988533],[16.1748168965296,41.32832453789472],[16.181417508651617,41.32794738807071],[16.190232839615916,41.325742173354584],[16.19113086377401,41.32584774898407],[16.191722134629654,41.32620205348544],[16.192258088000006,41.3267308043881],[16.19495877183765,41.330984049433646],[16.19539953511104,41.33195512170116],[16.195481883756536,41.33267768391257],[16.19550136096742,41.332848591645785],[16.195389247116115,41.33326507857546],[16.195315695929544,41.33413807412881],[16.195374998239085,41.33443130350415],[16.19541008453972,41.33458657490163],[16.19551040082876,41.33498071138442],[16.1960326711692,41.33597823491372],[16.196413111679515,41.33634126512695],[16.196550958746386,41.33645408268017],[16.1967569841527,41.33656261345583],[16.19726833209825,41.3367059426927],[16.19753561601822,41.33677462685402],[16.198011380745022,41.33678520926056],[16.19839770726909,41.33666193333141],[16.198967785957773,41.33631113365494],[16.19923947591224,41.33606908248477],[16.19941482181354,41.33579259483761],[16.200629413878893,41.33295426714192],[16.200658531200542,41.332333125988505],[16.20179842447001,41.33216919008618],[16.202893612481493,41.332059799014715],[16.203712224153712,41.33230974851688],[16.203961221292076,41.33240206421309],[16.204963637299436,41.332775418974926],[16.20675406998703,41.33355595529409],[16.206930501113092,41.333724785114875],[16.207245273360133,41.334026596248535],[16.207518289237605,41.33430861400184],[16.2077947667467,41.334594911592426],[16.20811452722634,41.33508320356861],[16.208110353018107,41.33552562976418],[16.208102935941355,41.335607034023745],[16.207930633357954,41.337340303187815],[16.207539326688394,41.33826894808354],[16.20702718898216,41.339007584472206],[16.206346569450034,41.33976132355274],[16.206201997901346,41.33989429219912],[16.204304154932377,41.354706186397024],[16.202341685614797,41.359763205244406],[16.20349764219772,41.359712966143015],[16.20793207907392,41.358684692373316],[16.212564133854002,41.356980141979605],[16.21673268568448,41.3542487131866],[16.23410599410254,41.34286528946356],[16.236139854545268,41.34153318295101],[16.243178451112737,41.3373783878797],[16.243447861578407,41.337226169553226],[16.25061718600017,41.333806326952285],[16.257813498799887,41.330479366477135],[16.25973448794676,41.32964925057029],[16.263204223807353,41.328333959880595],[16.266517820151748,41.32717728212633],[16.27035205641322,41.32601720626943],[16.274659196460064,41.324850761587136],[16.27679323910772,41.32437585947216],[16.278555271381528,41.32424598769437],[16.28063221572802,41.324107966438724],[16.282809214181096,41.324511140904164],[16.28452891874621,41.3253480429049],[16.28525914630173,41.32486095323751],[16.287432851754822,41.323523234896356],[16.290297178410693,41.322149426822],[16.29097937460691,41.321926011488664],[16.293144823080628,41.32181057058558],[16.294101432148338,41.32179911344032],[16.297618225941026,41.32146699776908],[16.30448022720156,41.31860303712115],[16.305093438750003,41.31835863703559],[16.305390473501745,41.31824025000688],[16.306241474829633,41.31795316440445],[16.30682599892383,41.31777307593737],[16.307899290033742,41.3174501916481],[16.308290644299316,41.3173513119623],[16.310443278856578,41.31681538587061],[16.327738738754007,41.312533162750285],[16.33260542814849,41.31167721573778],[16.340027084739305,41.3106178372826],[16.346638037164084,41.30860432970889],[16.352469972550665,41.30680254997036],[16.354826235963603,41.305846967073265],[16.353656888091134,41.304738819304994],[16.347476354846968,41.29932728791046],[16.342847422347578,41.294470645099885],[16.339999340548992,41.289149043190555],[16.33673976738087,41.28558970234412],[16.33360857043304,41.28285427911304],[16.333545101423717,41.282846710531025],[16.332577785639124,41.28273133784591],[16.332153175350864,41.28238495454554],[16.331875062705873,41.282158075547265],[16.33159594824031,41.28193037454752],[16.330921321998268,41.281248156898634],[16.33088921570054,41.28121527285146],[16.328352642313526,41.27744495942485],[16.327656853651884,41.275810820652],[16.328731843631054,41.27424432110524],[16.330261843646877,41.273359437340986],[16.330429014133394,41.27256588197633],[16.328921504753243,41.27085373214958],[16.328096919284523,41.270096664583534],[16.327202626769793,41.26951501883185],[16.326923482052415,41.26933941776008]]]},"properties":{"name":"Barletta","op_id":"6291","minint_elettorale":"3161060020","minint_finloc":"4160090070","prov_name":"Barletta-Andria-Trani","prov_istat_code":"110","prov_istat_code_num":110,"prov_acr":"BT","prov_iso_3166_2":"IT-BT","reg_name":"Puglia","reg_istat_code":"16","reg_istat_code_num":16,"reg_iso_3166_2":"IT-75","opdm_id":"6644","com_catasto_code":"A669","com_istat_code":"110002","com_istat_code_num":110002,"prov_uts_code":"110","prov_tipo_uts":"Provincia"}},
{"type":"Feature","geometry":{"type":"Polygon","coordinates":[[[16.467893059932937,41.15248134118514],[16.46559695919412,41.15643261097426],[16.46368225770356,41.16359820788523],[16.45992282447793,41.17035759044343],[16.456460004542407,41.17387631727819],[16.443379354984312,41.1798402340885],[16.43711308079732,41.18747047185911],[16.436798011289163,41.18784185179308],[16.43631782184175,41.18820145872095],[16.435642483515302,41.18841627008146],[16.429288761891833,41.19020531953234],[16.429052399316063,41.19025956187115],[16.428783542610514,41.190319075248794],[16.430989005307275,41.196583223651295],[16.435664788854957,41.205441969744214],[16.43337721366652,41.20868275781837],[16.431201963212725,41.212142224331366],[16.431184659282394,41.212170473697185],[16.431073933318704,41.21238839177974],[16.430965233422487,41.212604339993035],[16.43090895680762,41.212724191000554],[16.43022180449593,41.214407804682665],[16.429326743577608,41.21764216914149],[16.428964122659423,41.21902698641166],[16.43081798128997,41.22029816649101],[16.431457274367272,41.22073419173803],[16.43376977088281,41.221654843775454],[16.437217191552715,41.221157915052395],[16.44344811404804,41.218637136729924],[16.443359800832987,41.21826861631669],[16.44331703776063,41.21809493850657],[16.44329096863939,41.217990501383454],[16.44236073549488,41.215814976234],[16.442123904010057,41.21527924510706],[16.44119058308872,41.215434131223994],[16.44114965268852,41.21544243911893],[16.44106552959731,41.21546037791859],[16.43976031056963,41.21581750258311],[16.43927428969848,41.21597055181791],[16.437070777751718,41.21333781960248],[16.434143097702066,41.20879050204586],[16.435387384103738,41.20784140986781],[16.437655600070734,41.20680780839231],[16.44381743611709,41.21111113324441],[16.446600556487024,41.21441008578425],[16.44683655615926,41.214912118388966],[16.446820923063676,41.21521906574238],[16.446687203253447,41.215421616136155],[16.44661334425641,41.215532207244244],[16.446579219456666,41.2155812053361],[16.446334061730994,41.21580859976114],[16.446004575346024,41.21602798125059],[16.455800263585978,41.2265967943808],[16.45020314728399,41.234005461415094],[16.453142427139166,41.238494200032],[16.45676574525015,41.24302330836324],[16.460905042672852,41.24778797908857],[16.465850162859713,41.25268602376333],[16.467587866686426,41.25575632760965],[16.46855347460719,41.25546838827231],[16.47324474143341,41.25510529010834],[16.474985328904364,41.25526305516007],[16.47770250615694,41.255734941870806],[16.485341114268504,41.25123167250319],[16.49323386293594,41.25008232959617],[16.496976744108718,41.24957540247799],[16.50150984174605,41.248189283245104],[16.50501085851199,41.24698272096153],[16.50536700536314,41.24347307793432],[16.515162415485978,41.24344727415066],[16.516173763420962,41.243533839511855],[16.51655674476708,41.24349519645903],[16.517922763546164,41.24329752217691],[16.5196067819502,41.24283375423959],[16.52524608189142,41.24126423520793],[16.53122706784784,41.23896563730831],[16.536662714114325,41.23456603735548],[16.541884838174678,41.229734822432654],[16.54226126158003,41.22947315972181],[16.54076647720262,41.226179070339846],[16.53927154636474,41.22257758439021],[16.53871724840925,41.22013015365886],[16.538876148142386,41.219992069473214],[16.538909396149364,41.219953918694586],[16.539165984118178,41.21952312713014],[16.53918323732107,41.21947250409488],[16.539357335571207,41.218961665315284],[16.539397468180137,41.21855845396867],[16.539477344345627,41.21765359606995],[16.53947734521653,41.21761237719679],[16.539474658789718,41.21732085698461],[16.539254323418337,41.21616116756086],[16.53853388511105,41.21435957907947],[16.537658343032902,41.21237739212964],[16.535853174980623,41.210037657622706],[16.533803639235376,41.20739180403915],[16.530286085170303,41.20490583935232],[16.520864484148788,41.196113537947035],[16.517343124221135,41.192349786293114],[16.510886217764362,41.18301643098294],[16.51417054879007,41.17475602085759],[16.516964849346298,41.17246716533928],[16.516858996378616,41.17223511174145],[16.515986372436767,41.170410407934924],[16.515542700650673,41.16959297841605],[16.510011429280066,41.16219836434263],[16.508092772053512,41.15936816119375],[16.503842503466203,41.15133710382189],[16.49785184607274,41.15179266658459],[16.48271041045256,41.153646712817206],[16.474757305817494,41.15238897889795],[16.47241324940586,41.14940170259669],[16.470458675288846,41.14888586300082],[16.467893059932937,41.15248134118514]]]},"properties":{"name":"Bisceglie","op_id":"6293","minint_elettorale":"3161060030","minint_finloc":"4160090090","prov_name":"Barletta-Andria-Trani","prov_istat_code":"110","prov_istat_code_num":110,"prov_acr":"BT","prov_iso_3166_2":"IT-BT","reg_name":"Puglia","reg_istat_code":"16","reg_istat_code_num":16,"reg_iso_3166_2":"IT-75","opdm_id":"6645","com_catasto_code":"A883","com_istat_code":"110003","com_istat_code_num":110003,"prov_uts_code":"110","prov_tipo_uts":"Provincia"}},
{"type":"Feature","geometry":{"type":"Polygon","coordinates":[[[15.870254521937609,41.13992127113453],[15.870279792501416,41.14000577206159],[15.870425610771575,41.14048697494239],[15.872012867588904,41.14251117839493],[15.873329918906535,41.14374611962781],[15.874123788819714,41.144305973409416],[15.88383909115169,41.15079676964095],[15.892879380762949,41.15400139223268],[15.897752235709856,41.15821240624281],[15.903452292438617,41.16282016481303],[15.910507228815723,41.166101415486814],[15.91337427712681,41.168480270095515],[15.917603103723179,41.174056159100175],[15.927092704404293,41.180835369190866],[15.932025809085902,41.182965241714186],[15.942901138830752,41.18410841115039],[15.950463270071726,41.183389063641556],[15.956911053118487,41.18490565825092],[15.962357099555229,41.18632525974923],[15.968615968100515,41.189445500095566],[15.976979718957578,41.191352037100025],[15.981601728194068,41.19489147384371],[15.988308621491262,41.196692214447665],[15.988606733223506,41.196309288913625],[15.99015801676421,41.19544074951619],[15.99097902890321,41.19529167497926],[15.991101365027239,41.19530958561262],[15.991613273477414,41.195401465177014],[15.992155265148018,41.195818348322106],[15.996480640736618,41.199441929386936],[15.995826559672253,41.20265403323388],[15.995423368647986,41.206005394656565],[16.004620579181744,41.20950387913288],[16.0080249592777,41.208878386556385],[16.012925436402934,41.21179979425486],[16.0204074079631,41.22050301545354],[16.01980974794006,41.229363173109014],[16.02052994447797,41.231011444076124],[16.021819832260523,41.23364501433062],[16.02237234712712,41.23454254726429],[16.02254573381009,41.23476630279141],[16.022808391223776,41.2351052548144],[16.02829473431262,41.238008455225405],[16.032593145905043,41.23820812027913],[16.04021728509072,41.24064377481429],[16.049794600171793,41.24655479635598],[16.060399989004594,41.25611094159554],[16.058583467539556,41.2600485247584],[16.05717124095294,41.26754509900721],[16.057967872992275,41.267966758027505],[16.05818391484189,41.268085632786764],[16.06049076757093,41.269618299906654],[16.06263981845696,41.27126457449732],[16.06579639907682,41.27375357279315],[16.067023481922966,41.27508614198412],[16.075708290888723,41.27152685541489],[16.077197873724803,41.27120937934659],[16.078080158122322,41.271370834797544],[16.079316570952262,41.27169037440992],[16.08467702688094,41.273217203398126],[16.087201172010857,41.27399678565304],[16.089839896699186,41.27495398039616],[16.090692845163147,41.27528363100274],[16.092466549252798,41.27604192091535],[16.093077876338942,41.27633280282808],[16.093420810437035,41.27632271085214],[16.093923533664913,41.27630742403345],[16.094568559043278,41.27587295932099],[16.095197189849827,41.27535113970518],[16.099994288289654,41.27076643310096],[16.10647165667118,41.260394349496494],[16.114748863566824,41.25199666528709],[16.11808926715088,41.24282031177645],[16.118212663836044,41.242350722957035],[16.1241926020217,41.2369261445586],[16.132027222581623,41.235066301908695],[16.143310649734975,41.234830067646236],[16.144704668288508,41.23190510299602],[16.138977777001834,41.23133979432949],[16.129400539565292,41.23025350053407],[16.125564926599733,41.22301418936144],[16.125727961777084,41.22114587434329],[16.12669529780711,41.21730855917467],[16.121378249076564,41.20757169470414],[16.11717317762585,41.20153837378717],[16.11270778148675,41.19582820374381],[16.108665643944352,41.19129717265495],[16.1002955365159,41.18363532626869],[16.08797862296202,41.17719317055542],[16.084071306620288,41.175116174563804],[16.079957388115567,41.17339674966403],[16.077103473362772,41.17201974708445],[16.075779975158582,41.17058851993215],[16.069579874416064,41.1685660280228],[16.04994704326807,41.1629723742575],[16.04382310798934,41.16315030303473],[16.039011045224765,41.163481377598224],[16.03157670737368,41.163669054129095],[16.02322678424945,41.16162114358853],[16.01187168625553,41.15796965720113],[16.008644716517438,41.15657285450417],[16.002176826873075,41.1535488346619],[15.995265141684639,41.14886450020308],[15.988354855804392,41.14850113571337],[15.981037475715363,41.148060929172416],[15.98000345017144,41.14432790091383],[15.978797793449038,41.14041818584959],[15.957830428061133,41.12697689437555],[15.946128720330394,41.119478979472326],[15.937545095796043,41.113577862705846],[15.931784628162953,41.109014516173836],[15.921401543034937,41.11153672190818],[15.912631377598872,41.117389847871415],[15.911135346563448,41.118606125471054],[15.910584524500994,41.119053317059944],[15.910301886136065,41.119267084747385],[15.910210743307989,41.11933600792853],[15.910158206475883,41.11937573588438],[15.906518733079881,41.122123569542495],[15.90405072703428,41.12396981199722],[15.900786617962662,41.12641091629071],[15.894357805253991,41.123252003945105],[15.886729019498409,41.13021859572832],[15.877696202896132,41.137720195629214],[15.87696302425366,41.137332212655046],[15.876113706103915,41.13702388676799],[15.876075482664188,41.13701157153803],[15.875958799554684,41.136976645359184],[15.875647185207875,41.13688342454346],[15.875312384177962,41.136783267158684],[15.874931678753256,41.136833095948504],[15.874466691182608,41.137140032097456],[15.870254521937609,41.13992127113453]]]},"properties":{"name":"Canosa di Puglia","op_id":"6297","minint_elettorale":"3161060040","minint_finloc":"4160090130","prov_name":"Barletta-Andria-Trani","prov_istat_code":"110","prov_istat_code_num":110,"prov_acr":"BT","prov_iso_3166_2":"IT-BT","reg_name":"Puglia","reg_istat_code":"16","reg_istat_code_num":16,"reg_iso_3166_2":"IT-75","opdm_id":"6646","com_catasto_code":"B619","com_istat_code":"110004","com_istat_code_num":110004,"prov_uts_code":"110","prov_tipo_uts":"Provincia"}},
{"type":"Feature","geometry":{"type":"Polygon","coordinates":[[[16.024796397578964,41.42141296054121],[16.02478012510915,41.425760554187995],[16.027054593224108,41.42488152687279],[16.032571400838254,41.422908629864374],[16.038316682295942,41.4212780059022],[16.03860030504746,41.42119952816061],[16.038918620073808,41.421260941025],[16.05007038116549,41.418116325875495],[16.06640102225493,41.41157095048317],[16.082367657900193,41.4051970300478],[16.09730024203012,41.39941326708903],[16.10284109799251,41.39748747256343],[16.11779117981841,41.391365094712064],[16.121288143203977,41.38978676550737],[16.125588873763245,41.38788818224554],[16.126263400869952,41.38763904796999],[16.129332134621283,41.386567274347684],[16.13012674824802,41.386315127311654],[16.13360495238565,41.386153399532816],[16.13505496700081,41.38758114527978],[16.140034739063445,41.38481961053993],[16.145761705718364,41.38118604472743],[16.148165574426997,41.37976214606423],[16.151211930053755,41.37805159129969],[16.156614787288305,41.37523588734641],[16.157530073928392,41.37476437585325],[16.164070857707756,41.371636890390796],[16.165473147131507,41.37102531394739],[16.171300794690143,41.36858058971424],[16.177337402903905,41.36665614973642],[16.190048777836207,41.36278713773832],[16.195949405783573,41.36103583763893],[16.196410370266168,41.36091115391422],[16.197683081564463,41.36056689522985],[16.199917822778104,41.36002563094127],[16.202341685614797,41.359763205244406],[16.204304154932377,41.354706186397024],[16.206201997901346,41.33989429219912],[16.206346569450034,41.33976132355274],[16.20702718898216,41.339007584472206],[16.207539326688394,41.33826894808354],[16.207930633357954,41.337340303187815],[16.208102935941355,41.335607034023745],[16.208110353018107,41.33552562976418],[16.20811452722634,41.33508320356861],[16.2077947667467,41.334594911592426],[16.207518289237605,41.33430861400184],[16.207245273360133,41.334026596248535],[16.206930501113092,41.333724785114875],[16.20675406998703,41.33355595529409],[16.204963637299436,41.332775418974926],[16.203961221292076,41.33240206421309],[16.203712224153712,41.33230974851688],[16.202893612481493,41.332059799014715],[16.20179842447001,41.33216919008618],[16.200658531200542,41.332333125988505],[16.200629413878893,41.33295426714192],[16.200344531666058,41.33537417925538],[16.199815095550285,41.33655030753057],[16.197377893889403,41.3374531805946],[16.19706498057203,41.33751472485871],[16.196512530468187,41.33761732828467],[16.186157029433208,41.33775619835162],[16.169630526748644,41.34011035191121],[16.164656129396658,41.34112751330248],[16.156048781335294,41.34333923109271],[16.15467468096665,41.34601676203921],[16.154824693647544,41.34640333399273],[16.154953910331866,41.34687219427647],[16.154963490131454,41.34744751866773],[16.154948674355214,41.347477990557294],[16.154685968074716,41.348018287917746],[16.153849982091586,41.34918052398061],[16.149923741892973,41.35387705996121],[16.1479943210277,41.356143760708775],[16.14448586732966,41.36000728689465],[16.143259854641233,41.36105436289764],[16.143153085370542,41.36113881757523],[16.139538816615257,41.36368073439253],[16.138784476420614,41.36420995577097],[16.138084226960384,41.36465856743311],[16.137980871140368,41.36472350375189],[16.13008838495349,41.3696495238937],[16.12758817478613,41.3711415484881],[16.126075886342225,41.37202984606331],[16.125080915177936,41.37237974076112],[16.124057325948762,41.37265941605252],[16.11855188359023,41.373820785359314],[16.11323891334243,41.37507791829989],[16.103422023168967,41.37923304952637],[16.097081337258818,41.38191654421221],[16.091535080625594,41.37710833283432],[16.068054696069655,41.388764215313614],[16.05842427681602,41.39360885495654],[16.057920293390726,41.39402953375416],[16.040340299894446,41.40867672737921],[16.032714254512168,41.41502785506648],[16.029908045309874,41.41736451343561],[16.027981785146583,41.418918156390944],[16.024796397578964,41.42141296054121]]]},"properties":{"name":"Margherita di Savoia","op_id":"6250","minint_elettorale":"3161060050","minint_finloc":"4160310290","prov_name":"Barletta-Andria-Trani","prov_istat_code":"110","prov_istat_code_num":110,"prov_acr":"BT","prov_iso_3166_2":"IT-BT","reg_name":"Puglia","reg_istat_code":"16","reg_istat_code_num":16,"reg_iso_3166_2":"IT-75","opdm_id":"6647","com_catasto_code":"E946","com_istat_code":"110005","com_istat_code_num":110005,"prov_uts_code":"110","prov_tipo_uts":"Provincia"}},
{"type":"Feature","geometry":{"type":"Polygon","coordinates":[[[15.954139936428469,41.09312091005561],[15.95731546097298,41.096038086951914],[15.957386165585982,41.09611049528797],[15.958378169939927,41.09713832199052],[15.958648792420568,41.09746205951658],[15.959007849553277,41.09789652033366],[15.959618330271168,41.09888535769605],[15.959689748828819,41.09913203641641],[15.959956307374183,41.10005271642458],[15.959924111084401,41.1004551464187],[15.959915791063821,41.100559123673975],[15.95980163432421,41.100910464452326],[15.95968802094969,41.10125238065378],[15.95846071085007,41.103720633149244],[15.958174540425981,41.10416020500959],[15.957751198350655,41.104807588863764],[15.957665023389831,41.10492051151896],[15.957527965282345,41.10510010916711],[15.957142744487628,41.1056048870181],[15.957038287161451,41.10574176123135],[15.954149670802035,41.109440159329864],[15.952202172780693,41.110561674960195],[15.942178715242761,41.11262243569403],[15.937545095796043,41.113577862705846],[15.946128720330394,41.119478979472326],[15.957830428061133,41.12697689437555],[15.978797793449038,41.14041818584959],[15.98000345017144,41.14432790091383],[15.981037475715363,41.148060929172416],[15.988354855804392,41.14850113571337],[15.995265141684639,41.14886450020308],[16.002176826873075,41.1535488346619],[16.008644716517438,41.15657285450417],[16.01187168625553,41.15796965720113],[16.02322678424945,41.16162114358853],[16.03157670737368,41.163669054129095],[16.039011045224765,41.163481377598224],[16.04382310798934,41.16315030303473],[16.04994704326807,41.1629723742575],[16.069579874416064,41.1685660280228],[16.075779975158582,41.17058851993215],[16.077103473362772,41.17201974708445],[16.079957388115567,41.17339674966403],[16.084071306620288,41.175116174563804],[16.084828950314982,41.1712327678398],[16.08513724010529,41.17047040402621],[16.086892226123805,41.167357176356596],[16.08938265357597,41.163422537002155],[16.09123255653192,41.16059603667593],[16.09324698040941,41.15821999329586],[16.09560020090924,41.15593427408768],[16.11235846018899,41.14330502680942],[16.12349713830238,41.137016490566815],[16.133535611141156,41.13098337502338],[16.139599187002613,41.12420967234338],[16.15328167499364,41.11704201820301],[16.15884821118082,41.114570775838935],[16.163499508509226,41.112084489339196],[16.16387109328677,41.11170132048072],[16.164452622565687,41.11004374270989],[16.164498013576342,41.109327004801706],[16.16374074062031,41.105064032176266],[16.162494644990606,41.10092665799049],[16.161070231402007,41.09665072841112],[16.160133629740486,41.09425495021252],[16.15918718671727,41.09268085766426],[16.157850914668725,41.090449409534976],[16.158524020984256,41.08990820512854],[16.15957895584793,41.08906368800905],[16.16765532635019,41.08403266083455],[16.168846413393464,41.083368768671775],[16.16977945008612,41.082873980289264],[16.17118917934033,41.08257882466274],[16.172986081008855,41.08242589579949],[16.174680833307203,41.08199138049002],[16.175683139953346,41.08155969821762],[16.178719576905753,41.07751821025372],[16.181729654496838,41.07337481758772],[16.182263509533502,41.07271147510542],[16.18264038542629,41.07226155649368],[16.18272888611519,41.07215590291578],[16.18935433003751,41.0679701865776],[16.190180234014118,41.06745046303604],[16.19136957298461,41.066748210854826],[16.19143154378308,41.06671379192939],[16.19149099611618,41.066680771869606],[16.191764990166632,41.06658617661555],[16.192493286397386,41.066342514694135],[16.19335633270348,41.06618291955306],[16.19360237073106,41.066137420898066],[16.193929570105126,41.06607691271416],[16.200350724455333,41.065732230952406],[16.206483243180124,41.06600822693847],[16.207104785381798,41.06552372618327],[16.2075979139966,41.065033800832744],[16.208108755882957,41.064515764189046],[16.209038958977505,41.06332346614838],[16.2091074608011,41.06294572474126],[16.208926604926614,41.06235420621879],[16.198846845245527,41.05239195788644],[16.194013419105712,41.047927457504564],[16.18818974917833,41.04220417507701],[16.18358589335047,41.03438012735473],[16.181090574626957,41.02715825603507],[16.18132860087352,41.02650895629312],[16.181959040807627,41.025808081035784],[16.182742949078484,41.02501660162955],[16.182806098345402,41.02495664951535],[16.184509415693338,41.02334919196935],[16.1854306788471,41.02013014230795],[16.185533125938104,41.01879932082494],[16.18158182523908,41.01679725524174],[16.167895488924493,41.01064923736555],[16.166723255232096,41.01029875843882],[16.166448140953655,41.01018392580087],[16.165440300621203,41.009753546834624],[16.152543194911566,41.00380540455751],[16.150253529352685,41.002710908644396],[16.14936215615564,41.00213209278904],[16.14697855887469,41.00044498443928],[16.146235325002984,40.99942498154097],[16.146179211844103,40.999020227851055],[16.146139471421574,40.99873357081233],[16.146007934903817,40.99790490645427],[16.145927536331232,40.99741049954102],[16.14576504482456,40.99692570738041],[16.145306988389553,40.99656281459803],[16.144406625512016,40.99617348722731],[16.13726234315757,40.993513876059524],[16.136667428044063,40.99333943594636],[16.131583012354454,40.99192105096617],[16.128249544614704,40.99181267332529],[16.12062984629186,40.99095183536277],[16.116539965595305,40.98990649494488],[16.113360857622265,40.9859823782074],[16.108644107680313,40.982742892062255],[16.10829952185437,40.98254828336631],[16.10721144687571,40.98234126086725],[16.106382971814504,40.98231161160284],[16.10403958949325,40.983154183371745],[16.103462956868317,40.98347785648177],[16.103092606205173,40.984090202693885],[16.09608611234444,40.98971364496325],[16.083643660696087,40.99423778073934],[16.072094334447126,40.99883349602151],[16.070630826364578,40.99943423191944],[16.070191927805254,40.9996166982274],[16.0645945057833,41.00216182735494],[16.061076392314117,41.00443920239638],[16.050018891249216,41.011710280777244],[16.048041832007726,41.01322291642521],[16.04729402485264,41.01403127679733],[16.04634992790413,41.01525712532705],[16.04355530571376,41.019865208934654],[16.041688116819994,41.024371293689704],[16.04051995882213,41.028083035746896],[16.040467353765752,41.02835986755228],[16.039896510861553,41.03413935042139],[16.034790172213015,41.04110503217175],[16.026889636458282,41.047870656134606],[16.019757190481766,41.05194757181156],[16.00937332721993,41.05724171449174],[16.003429794341024,41.05602810443144],[15.998686561582556,41.05477439435903],[15.991056501993167,41.06570563736078],[15.989630184695812,41.067497898142804],[15.986045560853407,41.07200887328691],[15.982286725575657,41.07742125482291],[15.980152018838748,41.08158728573463],[15.9813760949345,41.082277672230404],[15.982067484307677,41.082706087314165],[15.982107527956178,41.082731647631576],[15.982182602692099,41.082782168166155],[15.983578989816223,41.08543264772162],[15.983558793456197,41.0864193387507],[15.983038526811978,41.08870071120732],[15.977730006761178,41.09328044926797],[15.97711660876746,41.09367324123621],[15.976254063824044,41.094166681886726],[15.966289933447285,41.09345869751846],[15.959065856565255,41.092835523609125],[15.95816302171612,41.09279071090541],[15.958003505178198,41.09278352270283],[15.955172560239653,41.09290528797296],[15.954139936428469,41.09312091005561]]]},"properties":{"name":"Minervino Murge","op_id":"6310","minint_elettorale":"3161060060","minint_finloc":"4160090260","prov_name":"Barletta-Andria-Trani","prov_istat_code":"110","prov_istat_code_num":110,"prov_acr":"BT","prov_iso_3166_2":"IT-BT","reg_name":"Puglia","reg_istat_code":"16","reg_istat_code_num":16,"reg_iso_3166_2":"IT-75","opdm_id":"6648","com_catasto_code":"F220","com_istat_code":"110006","com_istat_code_num":110006,"prov_uts_code":"110","prov_tipo_uts":"Provincia"}},
{"type":"Feature","geometry":{"type":"Polygon","coordinates":[[[16.01980974794006,41.229363173109014],[16.019588307196475,41.22941659754798],[16.017219307773434,41.23002130713747],[16.016879951583192,41.2301079476086],[16.016636816464935,41.23017487080858],[16.017288781634864,41.23689234929324],[16.01751163125426,41.23914529530894],[16.01760358905782,41.23944675366767],[16.01784978637248,41.239796133358375],[16.01827068730272,41.24013481039107],[16.01880059291033,41.24048930464472],[16.019560679138547,41.24093318291873],[16.0202408290869,41.2412623318047],[16.020714698661717,41.24149239842159],[16.021353250274107,41.24199770661946],[16.02196205260818,41.24255882728665],[16.026991243333,41.24832479365913],[16.027866808483697,41.249556715549204],[16.02860574122632,41.25059791634235],[16.028677982748682,41.25070054626092],[16.028941826656894,41.25113316707798],[16.03507992861124,41.2613236607549],[16.04024235312796,41.26990744894236],[16.033554204428746,41.26869326980998],[16.030583042460016,41.26807323586507],[16.030181440725602,41.26783065173774],[16.022448976858396,41.26397817630799],[16.01253257331737,41.26428029040665],[16.008912983651875,41.268992109659415],[16.00799918796365,41.27363778763111],[15.994654617423992,41.29335597846347],[15.994550643472396,41.2933933713102],[15.994013829783162,41.29358808665075],[15.993893922249278,41.29366904416811],[15.993652314787344,41.293832888817015],[15.99313005292621,41.29419415361779],[15.992583317724202,41.29487906039347],[15.991228796808741,41.29665625212422],[15.990978636862222,41.2969958012152],[15.98945550365894,41.29963833669237],[15.98758785997392,41.30462403015763],[15.994492480180288,41.303935843932244],[16.00169587743792,41.30259622173423],[16.01086035563729,41.30305336446874],[16.014308481035393,41.30344166065832],[16.01480759173987,41.30349785688359],[16.03282992463642,41.308097234001586],[16.031126217382525,41.31396201059394],[16.037214235087365,41.317928916758824],[16.048721972150048,41.32225285428557],[16.06496308334324,41.321517508483524],[16.07839728838161,41.32054635403624],[16.08731165692395,41.317454831897244],[16.080776191506814,41.299275185395196],[16.076054252269827,41.290405397582724],[16.077998015942114,41.28580117769428],[16.079982718026084,41.28408394146615],[16.079703804898752,41.28014341395068],[16.073350831262186,41.276124478902744],[16.073359161067742,41.276152896295066],[16.07335409012942,41.276188799613465],[16.073348693747427,41.27622384742649],[16.073281522509717,41.276531190931586],[16.073176947553765,41.27659028943103],[16.07292061612652,41.27673364972257],[16.072044789685243,41.276841532139024],[16.070226160757677,41.276901155765636],[16.06927676242583,41.276875699662064],[16.068816691824786,41.27660885600612],[16.0678121767689,41.27575598352494],[16.067023481922966,41.27508614198412],[16.06579639907682,41.27375357279315],[16.06263981845696,41.27126457449732],[16.06049076757093,41.269618299906654],[16.05818391484189,41.268085632786764],[16.057967872992275,41.267966758027505],[16.05717124095294,41.26754509900721],[16.058583467539556,41.2600485247584],[16.060399989004594,41.25611094159554],[16.049794600171793,41.24655479635598],[16.04021728509072,41.24064377481429],[16.032593145905043,41.23820812027913],[16.02829473431262,41.238008455225405],[16.022808391223776,41.2351052548144],[16.02254573381009,41.23476630279141],[16.02237234712712,41.23454254726429],[16.021819832260523,41.23364501433062],[16.02052994447797,41.231011444076124],[16.01980974794006,41.229363173109014]]]},"properties":{"name":"San Ferdinando di Puglia","op_id":"6266","minint_elettorale":"3161060070","minint_finloc":"4160310430","prov_name":"Barletta-Andria-Trani","prov_istat_code":"110","prov_istat_code_num":110,"prov_acr":"BT","prov_iso_3166_2":"IT-BT","reg_name":"Puglia","reg_istat_code":"16","reg_istat_code_num":16,"reg_iso_3166_2":"IT-75","opdm_id":"6649","com_catasto_code":"H839","com_istat_code":"110007","com_istat_code_num":110007,"prov_uts_code":"110","prov_tipo_uts":"Provincia"}},
{"type":"Feature","geometry":{"type":"Polygon","coordinates":[[[16.26642464006205,41.00534610312511],[16.263718893156838,40.99754065848309],[16.2529618699756,40.96509474472002],[16.25188725547315,40.96217980798191],[16.24552491421758,40.95883422765539],[16.234587191690036,40.952807588724255],[16.233845354591775,40.95237031934988],[16.2330992613992,40.951929635759925],[16.232509511342354,40.951530415724655],[16.22613875361037,40.946003463080636],[16.212338179854047,40.932181173277904],[16.21168546449841,40.931664322039644],[16.21087627582024,40.930909852016505],[16.210183981447404,40.930112034476316],[16.20964928477204,40.92934479830455],[16.209110189822987,40.92856433922426],[16.206774665131448,40.92483284790103],[16.205196130344692,40.92221903423416],[16.20246420581977,40.91753153345664],[16.196886882272736,40.91944325329554],[16.19217782104721,40.92005760071323],[16.184324795806255,40.922193014779],[16.182806659251984,40.92261225715919],[16.180631829620175,40.92321500654197],[16.179432328454308,40.92359615778715],[16.179347241187568,40.92362391897347],[16.177070498107348,40.924639170148325],[16.17410495087619,40.926089067741444],[16.169746535955014,40.927531246969515],[16.162971136555218,40.92857993083574],[16.162423861472398,40.92836826076603],[16.161930783114922,40.928176974613976],[16.16139710479847,40.927421761040826],[16.161371553910033,40.92738404721168],[16.161133799909088,40.926987727631165],[16.16094201036305,40.92666398503082],[16.16027632694749,40.92544018378207],[16.158461081992,40.92401742354289],[16.155564168747887,40.92269383735669],[16.153923112709485,40.92257573147559],[16.152406403633016,40.92273779729504],[16.150388944808316,40.92300007434972],[16.15028440214548,40.92303136353031],[16.148700513704274,40.92351770755997],[16.144537599035917,40.92235080411135],[16.13806772810134,40.91835332440871],[16.1372721058375,40.917687450064115],[16.136580895903922,40.916835104683535],[16.13507160480095,40.91402381904706],[16.13491263419463,40.913213740860044],[16.134650067387547,40.91080475286809],[16.1348244506814,40.90963814907463],[16.134935506451566,40.9081774467541],[16.134975335258492,40.907585570097986],[16.134766354074056,40.90724312812587],[16.13451030240263,40.906840623162324],[16.134315519115642,40.90655578695643],[16.133607408012274,40.90603942759269],[16.12857667481369,40.90313852923694],[16.12624439058295,40.90237243725849],[16.1240538673678,40.90195257623959],[16.123740592036118,40.90189030861514],[16.123623382728315,40.901820111240106],[16.1231876788341,40.90155570053715],[16.122575530486543,40.901041048721076],[16.122358963224634,40.900764525998184],[16.122162001773376,40.90051256306611],[16.12129829051467,40.89923889985898],[16.121069649143614,40.897718849024486],[16.1209661706448,40.89794573452031],[16.120917770354584,40.897998369166096],[16.12084529333838,40.8980771856598],[16.120520755972365,40.89842959488262],[16.118695729237064,40.90038340285921],[16.118634810685975,40.900448015642745],[16.118103339523998,40.900872545598325],[16.11789586210541,40.90103827177734],[16.116289595863762,40.90218173974423],[16.11337573598667,40.903764010464165],[16.105728431845804,40.909813566094904],[16.10386028959797,40.912265817527945],[16.101645341429712,40.91488343877554],[16.09944812420608,40.91687595611582],[16.091877267245835,40.92097584423012],[16.08658788294778,40.92275073023247],[16.084432901602145,40.92346132848281],[16.0827090412773,40.92398074425702],[16.080194154506398,40.924657266462646],[16.078014436592,40.92511121881007],[16.076190611502916,40.92535420726913],[16.071105516136136,40.925951201602295],[16.06651182530488,40.927119407046504],[16.061840731181796,40.92853042692925],[16.05738069920414,40.93073114199409],[16.048950270518247,40.935445893145626],[16.037982275626025,40.93972681060882],[16.026063591114553,40.94353037658776],[16.02431302374479,40.94380845887809],[16.02252035214978,40.94407935944128],[16.019748906775312,40.944485829000136],[16.018587524555034,40.94464049308413],[16.01241414626864,40.947227214534564],[16.005062594020803,40.94958970132189],[15.999760991264292,40.9504566253902],[15.991399067778683,40.95218136723739],[15.983166405250207,40.95446496268735],[15.980417816844973,40.95605816449651],[15.977305566324832,40.95794110516008],[15.977035212680923,40.95813127281651],[15.976628510246815,40.95845290627452],[15.971811625659637,40.97213165561904],[15.972607267489352,40.97181782853157],[15.973444913235143,40.97151494120633],[15.97494620819865,40.971032215385804],[15.9756515221975,40.970898454643205],[15.975754288700239,40.97087959173611],[15.980851298187766,40.970232071866675],[15.983101372581347,40.970018632060466],[15.983729037734067,40.969966923334724],[15.993352627982114,40.96998356369845],[15.996886740013169,40.970067433707406],[15.99915547261078,40.9701213530052],[15.999399876776295,40.97012716434178],[16.002854826574396,40.970209271768816],[16.00835316972779,40.97209169237972],[16.00856092875077,40.972258975714425],[16.009107426472923,40.97321095785239],[16.009617599142132,40.974156157941785],[16.01003211536787,40.97493622353227],[16.010259818215893,40.975666032116884],[16.018639433489195,40.98367915890024],[16.021201342656262,40.98512367103138],[16.022001819045066,40.98574508072033],[16.02233356734262,40.98604422798942],[16.022628615968568,40.98631412595388],[16.02328467779578,40.98691737120396],[16.024445280512367,40.988232117112],[16.02692599119644,40.99108019190934],[16.02703859563035,40.99121384954989],[16.03117592964757,40.998019857044035],[16.031602709986274,41.0007012081771],[16.03117813427679,41.00521874525931],[16.029738003241945,41.008551126472014],[16.02898793313136,41.009258513885776],[16.028803039204256,41.00945510591944],[16.028543371133804,41.009731201443955],[16.028503490145102,41.00977620132668],[16.028094376511437,41.01023782572868],[16.02804159411713,41.01029738259034],[16.027858979659985,41.010803509209595],[16.027587608780212,41.01158053933494],[16.027380400613392,41.01355052447876],[16.027114963041697,41.017296763244524],[16.027829610130723,41.02346666629153],[16.027934812272722,41.02408113891279],[16.02844623583043,41.02473370718103],[16.029883948022267,41.02623387606866],[16.030615204211742,41.02670197938078],[16.033054497678194,41.027510778352564],[16.033853464458318,41.02760125570768],[16.040467353765752,41.02835986755228],[16.04051995882213,41.028083035746896],[16.041688116819994,41.024371293689704],[16.04355530571376,41.019865208934654],[16.04634992790413,41.01525712532705],[16.04729402485264,41.01403127679733],[16.048041832007726,41.01322291642521],[16.050018891249216,41.011710280777244],[16.061076392314117,41.00443920239638],[16.0645945057833,41.00216182735494],[16.070191927805254,40.9996166982274],[16.070630826364578,40.99943423191944],[16.072094334447126,40.99883349602151],[16.083643660696087,40.99423778073934],[16.09608611234444,40.98971364496325],[16.103092606205173,40.984090202693885],[16.103462956868317,40.98347785648177],[16.10403958949325,40.983154183371745],[16.106382971814504,40.98231161160284],[16.10721144687571,40.98234126086725],[16.10829952185437,40.98254828336631],[16.108644107680313,40.982742892062255],[16.113360857622265,40.9859823782074],[16.116539965595305,40.98990649494488],[16.12062984629186,40.99095183536277],[16.128249544614704,40.99181267332529],[16.131583012354454,40.99192105096617],[16.136667428044063,40.99333943594636],[16.13726234315757,40.993513876059524],[16.144406625512016,40.99617348722731],[16.145306988389553,40.99656281459803],[16.14576504482456,40.99692570738041],[16.145927536331232,40.99741049954102],[16.146007934903817,40.99790490645427],[16.146139471421574,40.99873357081233],[16.146179211844103,40.999020227851055],[16.146235325002984,40.99942498154097],[16.14697855887469,41.00044498443928],[16.14936215615564,41.00213209278904],[16.150253529352685,41.002710908644396],[16.152543194911566,41.00380540455751],[16.165440300621203,41.009753546834624],[16.166448140953655,41.01018392580087],[16.166723255232096,41.01029875843882],[16.167895488924493,41.01064923736555],[16.18158182523908,41.01679725524174],[16.185533125938104,41.01879932082494],[16.188485779697295,41.01162696782443],[16.19157347203438,41.00876531603257],[16.1971031822448,41.01020452663962],[16.198857154160155,41.01098075478673],[16.200560502255644,41.011809625742345],[16.2023129712222,41.01278835657403],[16.206183712426864,41.01496569876829],[16.207167404578453,41.016082653029926],[16.210119339732508,41.022825788539976],[16.217041045527353,41.02271986132286],[16.21749581528642,41.022348147552265],[16.21826244158395,41.02180947238408],[16.21903885276644,41.02141414989798],[16.219947023307355,41.02097453124627],[16.221076433500095,41.020466981624125],[16.221608722550243,41.020304570403646],[16.222154164624868,41.02013814364247],[16.223848400654852,41.01974345618304],[16.23398132677205,41.01859612780817],[16.235312616792612,41.018467126312466],[16.23661096452413,41.018659626949635],[16.237997317874374,41.01886905243826],[16.238964822509484,41.019077914112245],[16.239411776919034,41.01914515904135],[16.23978631638758,41.01920150605105],[16.24167903655564,41.01926193076929],[16.24287658209181,41.01902431064224],[16.245829044379814,41.01802789970513],[16.252081158091485,41.01576543890915],[16.252424235783504,41.01561460262676],[16.253658949945116,41.015071737634315],[16.254039928160683,41.01478001637118],[16.25418407907553,41.014393029182436],[16.254227979680053,41.01427988077371],[16.256015121987286,41.011930722587294],[16.256645596901247,41.01131943041314],[16.257428397724986,41.01058151467033],[16.257675858649154,41.0104006525835],[16.257994519070603,41.0101677517881],[16.25824638801066,41.01000532502873],[16.258474157381617,41.00985844014921],[16.25914309046209,41.00969549416894],[16.261882403584057,41.008450343548155],[16.26601886641671,41.00581273286362],[16.26642464006205,41.00534610312511]]]},"properties":{"name":"Spinazzola","op_id":"6326","minint_elettorale":"3161060080","minint_finloc":"4160090410","prov_name":"Barletta-Andria-Trani","prov_istat_code":"110","prov_istat_code_num":110,"prov_acr":"BT","prov_iso_3166_2":"IT-BT","reg_name":"Puglia","reg_istat_code":"16","reg_istat_code_num":16,"reg_iso_3166_2":"IT-75","opdm_id":"6650","com_catasto_code":"I907","com_istat_code":"110008","com_istat_code_num":110008,"prov_uts_code":"110","prov_tipo_uts":"Provincia"}},
{"type":"Feature","geometry":{"type":"Polygon","coordinates":[[[16.428783542610514,41.190319075248794],[16.42624058713397,41.188774392346694],[16.419656329702246,41.187237099678875],[16.415475912765395,41.187094972530296],[16.402664059636166,41.18802878228953],[16.39806573889683,41.18936518787534],[16.39806348078348,41.189461147437505],[16.398059588795654,41.18962652860076],[16.398008820417015,41.189967234546444],[16.397084912985996,41.194143516581825],[16.396233588343826,41.19459441399863],[16.394781095765232,41.1952595868897],[16.39159184059762,41.19613132826915],[16.387871649201294,41.19473147831491],[16.387145928430275,41.19400220848927],[16.385895351672335,41.19171187474991],[16.381235260541352,41.18169601589985],[16.382473431631293,41.18108532731586],[16.384208687775683,41.18026261731062],[16.38485835144247,41.17997778225615],[16.382804230608127,41.17732701044345],[16.377574250631987,41.17687947397752],[16.37554043444545,41.17682732879858],[16.363817844613354,41.17119469511933],[16.361691185021225,41.16971998476505],[16.36136958372893,41.169481869971875],[16.360451126370982,41.16833064735854],[16.360179517182416,41.167821710519846],[16.359555675754258,41.16643109534645],[16.358723256876914,41.164271039898765],[16.349217049044213,41.163899207100066],[16.3399717852174,41.16651792051263],[16.340866787249492,41.168975553319655],[16.344158071880805,41.174634229007445],[16.348493488392368,41.17809518302306],[16.350159961658843,41.17969477512142],[16.350874102875565,41.18601963687432],[16.351866600937022,41.18968116930724],[16.352627107384507,41.1901677405146],[16.35881031053281,41.19405416365074],[16.363400813977098,41.19789571269142],[16.362899294756513,41.198617592780586],[16.355217418871042,41.20720712639277],[16.349602721998036,41.20904299359451],[16.34608815036202,41.21252939531661],[16.340818103958846,41.22034483403815],[16.33961699224668,41.22397161704961],[16.34032046214175,41.22627956332269],[16.345780908537296,41.22930786864423],[16.346483038688497,41.22954215784884],[16.348328693092785,41.22992313834393],[16.34943264605396,41.2300398188764],[16.34762234987102,41.2332303123201],[16.341727980182153,41.235162024625524],[16.338826605794647,41.237240670598545],[16.33788114206322,41.23849836370926],[16.337427917523826,41.240679974506506],[16.337846620305594,41.24216158197892],[16.338360698535816,41.242879015009045],[16.340547628911175,41.24192290774807],[16.34275914634953,41.24351999312674],[16.345568236515607,41.24685441620784],[16.345719372501875,41.24869887033208],[16.345234967558245,41.24892340706502],[16.343898420111003,41.24949504051049],[16.343292680138404,41.24970042078847],[16.342863990933175,41.24983807631316],[16.33821536876456,41.25387446172424],[16.33542938286111,41.25890888279986],[16.33345232335835,41.262838598029816],[16.333773799907,41.26466265486736],[16.33378724891345,41.26520618930698],[16.333700838063915,41.26565713882165],[16.33343332943229,41.26598246330157],[16.32866483720256,41.2690750003211],[16.326923482052415,41.26933941776008],[16.327202626769793,41.26951501883185],[16.328096919284523,41.270096664583534],[16.328921504753243,41.27085373214958],[16.330429014133394,41.27256588197633],[16.330261843646877,41.273359437340986],[16.328731843631054,41.27424432110524],[16.327656853651884,41.275810820652],[16.328352642313526,41.27744495942485],[16.33088921570054,41.28121527285146],[16.330921321998268,41.281248156898634],[16.33159594824031,41.28193037454752],[16.331875062705873,41.282158075547265],[16.332153175350864,41.28238495454554],[16.332577785639124,41.28273133784591],[16.333545101423717,41.282846710531025],[16.33360857043304,41.28285427911304],[16.33673976738087,41.28558970234412],[16.339999340548992,41.289149043190555],[16.342847422347578,41.294470645099885],[16.347476354846968,41.29932728791046],[16.353656888091134,41.304738819304994],[16.354826235963603,41.305846967073265],[16.35872175327079,41.30473278326132],[16.363570017812474,41.302469254366684],[16.364745669085053,41.301911364712005],[16.375463375695595,41.296515265528775],[16.38494870337065,41.2913596614531],[16.386867899863752,41.290399006103755],[16.400854207570827,41.28513379559707],[16.40196356413417,41.284949594542134],[16.403161648915408,41.28489011690148],[16.403723135153474,41.284923539166904],[16.419358389690018,41.282507552853815],[16.42599857113177,41.276873862194535],[16.43505522392029,41.270477770625284],[16.442721656302453,41.2658900014587],[16.44782635662361,41.262320983376284],[16.448347097290917,41.26210357013075],[16.45210612818671,41.2605554855424],[16.45443152430847,41.2600689826013],[16.458699685010735,41.25954128431896],[16.463995312914243,41.257313312925696],[16.467587866686426,41.25575632760965],[16.465850162859713,41.25268602376333],[16.460905042672852,41.24778797908857],[16.45676574525015,41.24302330836324],[16.453142427139166,41.238494200032],[16.45020314728399,41.234005461415094],[16.455800263585978,41.2265967943808],[16.446004575346024,41.21602798125059],[16.446334061730994,41.21580859976114],[16.446579219456666,41.2155812053361],[16.44661334425641,41.215532207244244],[16.446687203253447,41.215421616136155],[16.446820923063676,41.21521906574238],[16.44683655615926,41.214912118388966],[16.446600556487024,41.21441008578425],[16.44381743611709,41.21111113324441],[16.437655600070734,41.20680780839231],[16.435387384103738,41.20784140986781],[16.434143097702066,41.20879050204586],[16.437070777751718,41.21333781960248],[16.43927428969848,41.21597055181791],[16.43976031056963,41.21581750258311],[16.44106552959731,41.21546037791859],[16.44114965268852,41.21544243911893],[16.44119058308872,41.215434131223994],[16.442123904010057,41.21527924510706],[16.44236073549488,41.215814976234],[16.44329096863939,41.217990501383454],[16.44331703776063,41.21809493850657],[16.443359800832987,41.21826861631669],[16.44344811404804,41.218637136729924],[16.437217191552715,41.221157915052395],[16.43376977088281,41.221654843775454],[16.431457274367272,41.22073419173803],[16.43081798128997,41.22029816649101],[16.428964122659423,41.21902698641166],[16.429326743577608,41.21764216914149],[16.43022180449593,41.214407804682665],[16.43090895680762,41.212724191000554],[16.430965233422487,41.212604339993035],[16.431073933318704,41.21238839177974],[16.431184659282394,41.212170473697185],[16.431201963212725,41.212142224331366],[16.43337721366652,41.20868275781837],[16.435664788854957,41.205441969744214],[16.430989005307275,41.196583223651295],[16.428783542610514,41.190319075248794]]]},"properties":{"name":"Trani","op_id":"6329","minint_elettorale":"3161060090","minint_finloc":"4160090440","prov_name":"Barletta-Andria-Trani","prov_istat_code":"110","prov_istat_code_num":110,"prov_acr":"BT","prov_iso_3166_2":"IT-BT","reg_name":"Puglia","reg_istat_code":"16","reg_istat_code_num":16,"reg_iso_3166_2":"IT-75","opdm_id":"6651","com_catasto_code":"L328","com_istat_code":"110009","com_istat_code_num":110009,"prov_uts_code":"110","prov_tipo_uts":"Provincia"}},
{"type":"Feature","geometry":{"type":"Polygon","coordinates":[[[15.98758785997392,41.30462403015763],[15.983402852383463,41.30468803905457],[15.983244586774077,41.30872759318278],[15.982440554188342,41.33556577686854],[15.98192573751531,41.36078905916053],[15.985247294881491,41.360242267406015],[15.99213535763446,41.36100731506254],[15.999857612721408,41.36356708625503],[16.031094200092358,41.373915880402606],[16.03441947683129,41.37601269202087],[16.037272654337535,41.383417304529345],[16.029430162740432,41.38600038141553],[16.017673214613815,41.3899073296106],[15.999947946306673,41.40081955043261],[15.98994991480205,41.40284328987757],[15.983580298166157,41.405490814708244],[15.9831433228854,41.40748380373776],[15.982735969654652,41.40819709204422],[15.981802314271205,41.40968491472509],[15.981307890226274,41.41022802323482],[15.980221206627306,41.41126620330476],[15.977097191096535,41.41353546405973],[15.976433088993335,41.41389090938241],[15.975536314306293,41.41397255137797],[15.973453816771594,41.41397792903659],[15.973373126041022,41.41397794558046],[15.972775412396281,41.41397806437871],[15.972712651911468,41.4139780764375],[15.937464573135982,41.42472300767696],[15.93695202012283,41.42581772250575],[15.942718920280804,41.432669715681605],[15.952206109179704,41.441206253445905],[15.97045010019606,41.439700835776755],[15.972541187727852,41.43943399662246],[15.97739131604345,41.43863451011303],[15.979191401451258,41.438331291456315],[15.988074434302828,41.43589501256684],[15.991572989204608,41.434542979491184],[15.999428290541005,41.43021125994949],[16.01578023580494,41.424935625777934],[16.024796397578964,41.42141296054121],[16.027981785146583,41.418918156390944],[16.029908045309874,41.41736451343561],[16.032714254512168,41.41502785506648],[16.040340299894446,41.40867672737921],[16.057920293390726,41.39402953375416],[16.05842427681602,41.39360885495654],[16.068054696069655,41.388764215313614],[16.091535080625594,41.37710833283432],[16.097081337258818,41.38191654421221],[16.103422023168967,41.37923304952637],[16.11323891334243,41.37507791829989],[16.11855188359023,41.373820785359314],[16.124057325948762,41.37265941605252],[16.125080915177936,41.37237974076112],[16.126075886342225,41.37202984606331],[16.12758817478613,41.3711415484881],[16.13008838495349,41.3696495238937],[16.137980871140368,41.36472350375189],[16.138084226960384,41.36465856743311],[16.138784476420614,41.36420995577097],[16.139538816615257,41.36368073439253],[16.143153085370542,41.36113881757523],[16.143259854641233,41.36105436289764],[16.14448586732966,41.36000728689465],[16.1479943210277,41.356143760708775],[16.149923741892973,41.35387705996121],[16.153849982091586,41.34918052398061],[16.154685968074716,41.348018287917746],[16.154948674355214,41.347477990557294],[16.154963490131454,41.34744751866773],[16.154953910331866,41.34687219427647],[16.154824693647544,41.34640333399273],[16.15467468096665,41.34601676203921],[16.156048781335294,41.34333923109271],[16.164656129396658,41.34112751330248],[16.169630526748644,41.34011035191121],[16.186157029433208,41.33775619835162],[16.196512530468187,41.33761732828467],[16.19706498057203,41.33751472485871],[16.197377893889403,41.3374531805946],[16.199815095550285,41.33655030753057],[16.200344531666058,41.33537417925538],[16.200629413878893,41.33295426714192],[16.19941482181354,41.33579259483761],[16.19923947591224,41.33606908248477],[16.198967785957773,41.33631113365494],[16.19839770726909,41.33666193333141],[16.198011380745022,41.33678520926056],[16.19753561601822,41.33677462685402],[16.19726833209825,41.3367059426927],[16.1967569841527,41.33656261345583],[16.196550958746386,41.33645408268017],[16.196413111679515,41.33634126512695],[16.1960326711692,41.33597823491372],[16.19551040082876,41.33498071138442],[16.19541008453972,41.33458657490163],[16.195374998239085,41.33443130350415],[16.195315695929544,41.33413807412881],[16.195389247116115,41.33326507857546],[16.19550136096742,41.332848591645785],[16.195481883756536,41.33267768391257],[16.19539953511104,41.33195512170116],[16.19495877183765,41.330984049433646],[16.192258088000006,41.3267308043881],[16.191722134629654,41.32620205348544],[16.19113086377401,41.32584774898407],[16.190232839615916,41.325742173354584],[16.181417508651617,41.32794738807071],[16.1748168965296,41.32832453789472],[16.168970867290664,41.32393387988533],[16.171661301820773,41.31938068851153],[16.172244837044754,41.3195235576455],[16.173277177569368,41.319773237408114],[16.17349929611453,41.31977107150542],[16.17438911593702,41.31976226252622],[16.17525541665193,41.319554797096735],[16.175686375718794,41.319297432369126],[16.176007016439748,41.31908507103584],[16.176407542404338,41.31842074190365],[16.176580397496874,41.31770473210993],[16.176595868658975,41.3176395452538],[16.17656406446761,41.31751684691539],[16.17641926249939,41.31703870467754],[16.17606588387971,41.316079993183656],[16.17592600686151,41.315992323062794],[16.175384163380723,41.3156527127856],[16.17514959307056,41.31551043272008],[16.16973945332073,41.31358322595165],[16.164456092662633,41.314188392636446],[16.158301938789826,41.31284553340227],[16.148477394913133,41.30928221572526],[16.147270161762577,41.30512080021104],[16.14816701223254,41.300979375983175],[16.14334692193998,41.29887029241438],[16.139931649336262,41.29796466251875],[16.138729103941948,41.29968288054536],[16.136748724608914,41.3010481545037],[16.136623225777356,41.30112796573741],[16.13633081647216,41.30120918042261],[16.13551182639292,41.30119348098301],[16.134765710695625,41.30091975672974],[16.13184954737003,41.29893636808216],[16.131592009800503,41.298417807220794],[16.131567046728705,41.29769945663211],[16.131625100346135,41.29692194477807],[16.131746786432668,41.29620796004327],[16.131909031395967,41.295918892559044],[16.132173294725025,41.29559680671974],[16.13244591224554,41.295264537912615],[16.13286634742938,41.294720855214855],[16.132919146219812,41.29451462038024],[16.132963210868148,41.294341643156216],[16.13310010182003,41.293801980617054],[16.13316917017608,41.29285280397143],[16.13305316735845,41.291820667626695],[16.132932204567034,41.29120771695111],[16.13270374261643,41.29018215364409],[16.13257960166572,41.290060827141296],[16.13230496688141,41.289811211113],[16.132261414638798,41.28979378130769],[16.130668650449998,41.289166041071226],[16.127380515133634,41.288200885947184],[16.126741807064754,41.288020471855475],[16.126635726091408,41.28799076983791],[16.126260941297765,41.28849102880574],[16.126070687560013,41.28909678926722],[16.12595999061459,41.289639106515395],[16.125807978161166,41.29048545452993],[16.125938570460775,41.291161238980145],[16.126239240886544,41.2920829058063],[16.12655151574658,41.29278337773732],[16.118879339628393,41.29051591573213],[16.11877162700155,41.29009723195294],[16.118688625125237,41.28980786427304],[16.11836847358764,41.289170849225634],[16.117986818125335,41.28851507935874],[16.11742740855968,41.287983000756114],[16.11666729478793,41.28741381803445],[16.115820793977107,41.28684549802609],[16.114844794896577,41.28640220141096],[16.11300763881891,41.28569292848175],[16.1122628415467,41.285536708698736],[16.10056191343341,41.28490392787053],[16.084420252967803,41.28306438589951],[16.079982718026084,41.28408394146615],[16.077998015942114,41.28580117769428],[16.076054252269827,41.290405397582724],[16.080776191506814,41.299275185395196],[16.08731165692395,41.317454831897244],[16.07839728838161,41.32054635403624],[16.06496308334324,41.321517508483524],[16.048721972150048,41.32225285428557],[16.037214235087365,41.317928916758824],[16.031126217382525,41.31396201059394],[16.03282992463642,41.308097234001586],[16.01480759173987,41.30349785688359],[16.014308481035393,41.30344166065832],[16.01086035563729,41.30305336446874],[16.00169587743792,41.30259622173423],[15.994492480180288,41.303935843932244],[15.98758785997392,41.30462403015763]]]},"properties":{"name":"Trinitapoli","op_id":"6278","minint_elettorale":"3161060100","minint_finloc":"4160310550","prov_name":"Barletta-Andria-Trani","prov_istat_code":"110","prov_istat_code_num":110,"prov_acr":"BT","prov_iso_3166_2":"IT-BT","reg_name":"Puglia","reg_istat_code":"16","reg_istat_code_num":16,"reg_iso_3166_2":"IT-75","opdm_id":"6652","com_catasto_code":"B915","com_istat_code":"110010","com_istat_code_num":110010,"prov_uts_code":"110","prov_tipo_uts":"Provincia"}}
]}