{"type":"FeatureCollection","bbox":[13.239932392047866,45.674776903109134,13.642027094648697,46.05135522220299], "features": [
{"type":"Feature","geometry":{"type":"Polygon","coordinates":[[[13.51740615491425,45.96173855225185],[13.519083763018456,45.959349667913926],[13.522952509162295,45.954097081730644],[13.530151401842424,45.9541605646868],[13.532024428245204,45.953160537519324],[13.531868075348186,45.952457803954054],[13.531188983243638,45.950025581007125],[13.530501651890361,45.94822563049466],[13.528819950349146,45.944507381450286],[13.527917199758031,45.94299050202925],[13.524634048896504,45.93869461889374],[13.522510561717054,45.936670095338144],[13.517038791880822,45.934343656920646],[13.51444833510902,45.933339514325155],[13.512583029183107,45.932793693973885],[13.511989547098326,45.9326762418516],[13.511800343118463,45.93347581106106],[13.511529686600783,45.933977740764185],[13.511515155122177,45.93400466260794],[13.511035545446394,45.93458172817091],[13.510858118570008,45.93472553091755],[13.510311608241276,45.93516843689708],[13.509894967808583,45.9352704268587],[13.49885786024082,45.93750212026609],[13.49614732152343,45.93801406584849],[13.49521432401752,45.938172363120984],[13.494367465529491,45.93798071516545],[13.493578173089038,45.937593263705466],[13.494734127306536,45.9409243511536],[13.495912861387081,45.946209980781234],[13.496258401034275,45.950237475845555],[13.495348984220382,45.9513449355465],[13.49461594867145,45.95201397542599],[13.493678709247101,45.95249092091111],[13.493160869991144,45.95268730881079],[13.492979349725791,45.952756146272655],[13.50733730808088,45.959893485845896],[13.51069450456387,45.96130202656194],[13.511689822237736,45.9617172148681],[13.512329482343343,45.96193495332348],[13.514172478694773,45.96249660464588],[13.5144071080256,45.96250679623767],[13.514772017574014,45.96252264060821],[13.514901067483406,45.962528243413075],[13.515008153479881,45.96253286493207],[13.515093948835736,45.96252582818274],[13.516616150939385,45.9623503367861],[13.517109793822383,45.9621019535858],[13.517295765372532,45.96200837263369],[13.51740615491425,45.96173855225185]]]},"properties":{"name":"Capriva del Friuli","op_id":"3934","minint_elettorale":"1060350010","minint_finloc":"2060350010","prov_name":"Gorizia","prov_istat_code":"031","prov_istat_code_num":31,"prov_acr":"GO","prov_iso_3166_2":"IT-GO","reg_name":"Friuli-Venezia Giulia","reg_istat_code":"06","reg_istat_code_num":6,"reg_iso_3166_2":"IT-36","opdm_id":"3785","com_catasto_code":"B712","com_istat_code":"031001","com_istat_code_num":31001,"prov_uts_code":"031","prov_tipo_uts":"Unità non amministrativa"}},
{"type":"Feature","geometry":{"type":"Polygon","coordinates":[[[13.420779646954172,45.930500982913294],[13.420427064812976,45.938782298967304],[13.420395501213752,45.93898687107153],[13.420159557848866,45.940516409898876],[13.420180784125696,45.94087600898902],[13.420219667622732,45.9415344065429],[13.424684976650687,45.94417996168171],[13.428201547686234,45.947415906350024],[13.426930107957567,45.9515008679222],[13.428220186231185,45.95334553631551],[13.431136719806458,45.95469946758911],[13.438775984102953,45.95606315843046],[13.44231035440624,45.957068731945654],[13.442776005188897,45.95792818188876],[13.442786692313483,45.95891790122696],[13.44263672492777,45.95970806341493],[13.43861442335421,45.97009337025081],[13.436635793712314,45.97206513748825],[13.436954871243662,45.972664804955485],[13.437925964403759,45.97349427236165],[13.43798837604452,45.97354757997356],[13.438013165793954,45.97356874959134],[13.439762731103393,45.97471132542697],[13.440414050084756,45.97511578244619],[13.441031277274952,45.97549905093324],[13.441596838884552,45.97583387576045],[13.44210567375882,45.97613510893373],[13.442251030408846,45.97622115295514],[13.443554464036046,45.976687945316435],[13.45223432495435,45.98297887659377],[13.4586355291364,45.98538868056878],[13.45963799545395,45.984638375836646],[13.46051292314031,45.984289134532176],[13.462031685177642,45.9839776915071],[13.46319181242462,45.98394576534992],[13.463229601298881,45.98395308086902],[13.464476945010205,45.98421471323435],[13.46494003127339,45.984818013398],[13.46489023574268,45.9856525747009],[13.464835456918783,45.986065754796265],[13.467237896332866,45.98665428794206],[13.478846946419333,45.98617130991266],[13.483777328558409,45.985735219058974],[13.487082864898307,45.98476742250297],[13.487366407200136,45.98433330853161],[13.488057135010528,45.98360394154883],[13.48906750694603,45.98253802759724],[13.489372308242485,45.98225083290102],[13.489887484703916,45.981765427845716],[13.49036454465307,45.981843383581825],[13.49096418774801,45.98210331489937],[13.493920896619306,45.98447120721046],[13.494208064251348,45.98483792921495],[13.494766166273754,45.98615712363319],[13.50029382745208,45.981801497376466],[13.509717418992322,45.979910289194656],[13.515930455927036,45.97779966535277],[13.522983470883169,45.973331586813025],[13.526141938307537,45.97202260497359],[13.526029550305472,45.97092914442928],[13.524919345234373,45.96919125651302],[13.521587018221235,45.9664284726136],[13.5192684077515,45.963832159512634],[13.51740615491425,45.96173855225185],[13.517295765372532,45.96200837263369],[13.517109793822383,45.9621019535858],[13.516616150939385,45.9623503367861],[13.515093948835736,45.96252582818274],[13.515008153479881,45.96253286493207],[13.514901067483406,45.962528243413075],[13.514772017574014,45.96252264060821],[13.5144071080256,45.96250679623767],[13.514172478694773,45.96249660464588],[13.512329482343343,45.96193495332348],[13.511689822237736,45.9617172148681],[13.51069450456387,45.96130202656194],[13.50733730808088,45.959893485845896],[13.492979349725791,45.952756146272655],[13.493160869991144,45.95268730881079],[13.493678709247101,45.95249092091111],[13.49461594867145,45.95201397542599],[13.495348984220382,45.9513449355465],[13.496258401034275,45.950237475845555],[13.495912861387081,45.946209980781234],[13.494734127306536,45.9409243511536],[13.493578173089038,45.937593263705466],[13.485836417414449,45.92915779515413],[13.478928134738384,45.92803090775166],[13.468393980890987,45.92555793423659],[13.460902066458088,45.923616083702036],[13.458559588750967,45.92299492001823],[13.455896476477925,45.92135706563495],[13.455251079300702,45.922273803658896],[13.453746358556902,45.923754589779996],[13.449865942133922,45.927254522731474],[13.449404170932283,45.927578575405406],[13.448498072037468,45.92816299431607],[13.445543798871016,45.92942167302444],[13.444109976807079,45.92918020331249],[13.426946677879293,45.929037593185],[13.420779646954172,45.930500982913294]]]},"properties":{"name":"Cormons","op_id":"3935","minint_elettorale":"1060350020","minint_finloc":"2060350020","prov_name":"Gorizia","prov_istat_code":"031","prov_istat_code_num":31,"prov_acr":"GO","prov_iso_3166_2":"IT-GO","reg_name":"Friuli-Venezia Giulia","reg_istat_code":"06","reg_istat_code_num":6,"reg_iso_3166_2":"IT-36","opdm_id":"3786","com_catasto_code":"D014","com_istat_code":"031002","com_istat_code_num":31002,"prov_uts_code":"031","prov_tipo_uts":"Unità non amministrativa"}},
{"type":"Feature","geometry":{"type":"Polygon","coordinates":[[[13.596289005839877,45.80793968771222],[13.583443851649003,45.80105313675069],[13.583383263196952,45.80140213511208],[13.582654986464759,45.80225951663993],[13.582477281926717,45.80234069596191],[13.581012929594259,45.80300962361894],[13.580511851181864,45.803203535363934],[13.5797353334443,45.80350400887762],[13.579650198815333,45.80353694423356],[13.577893979739756,45.804151938069516],[13.565770571026544,45.80776165272371],[13.561394346654646,45.81559206152968],[13.561579300886175,45.81608917106674],[13.56183108748789,45.81730779551437],[13.561597224873742,45.81839280684084],[13.559193855244185,45.81974012370981],[13.55714633051155,45.82077613631564],[13.549008708598752,45.826785457059934],[13.540092251143214,45.83345978237049],[13.53158422214825,45.839739136178586],[13.527276412004944,45.84289869658547],[13.513760803563525,45.85280491897149],[13.513655611848264,45.85964106976968],[13.543611331958209,45.867848814267994],[13.548334296788683,45.86554071076888],[13.554210404535661,45.868420773888516],[13.563593763988116,45.8708854090434],[13.574470257197147,45.8723173704438],[13.578884685918174,45.87193303077374],[13.585954994749844,45.87851225505101],[13.590059343135147,45.88654936940151],[13.590240088066922,45.887514048858975],[13.590326962983527,45.8883191401227],[13.590938644787697,45.885004504390885],[13.591045042446448,45.873176957427795],[13.583962255058559,45.86486560349425],[13.583776558619219,45.862532714669555],[13.583636173202835,45.86196227544645],[13.583319405899763,45.8612639045066],[13.580640970868323,45.857190396683],[13.580444173638522,45.85693046469058],[13.580299236472444,45.85673902941806],[13.580151324604142,45.85654368080684],[13.580055038818923,45.856416586533406],[13.578945838288359,45.85510780520881],[13.578737816167536,45.85486234525932],[13.578653887179941,45.85476332415231],[13.577157611984578,45.85332916828737],[13.577161018949226,45.853462432772936],[13.577219519760396,45.85574762760312],[13.577234411896898,45.85632916142028],[13.577265335197247,45.85752289614642],[13.57727408109085,45.85787916376716],[13.575869016159313,45.85486161433007],[13.573642908493643,45.84921705937255],[13.57381296548199,45.8466223253478],[13.57445833963615,45.843081419421075],[13.57646826946266,45.841983603398866],[13.577696978480835,45.841322191902755],[13.57923413222799,45.84059436240512],[13.589321717581665,45.83133621091684],[13.594931999620712,45.82115891879627],[13.596123479855345,45.812676607162],[13.596289005839877,45.80793968771222]]]},"properties":{"name":"Doberdò del Lago-Doberdob","op_id":"3936","minint_elettorale":"1060350030","minint_finloc":"2060350030","prov_name":"Gorizia","prov_istat_code":"031","prov_istat_code_num":31,"prov_acr":"GO","prov_iso_3166_2":"IT-GO","reg_name":"Friuli-Venezia Giulia","reg_istat_code":"06","reg_istat_code_num":6,"reg_iso_3166_2":"IT-36","opdm_id":"3787","com_catasto_code":"D312","com_istat_code":"031003","com_istat_code_num":31003,"prov_uts_code":"031","prov_tipo_uts":"Unità non amministrativa"}},
{"type":"Feature","geometry":{"type":"Polygon","coordinates":[[[13.464835456918783,45.986065754796265],[13.464275737929068,45.99013673962819],[13.466063767563686,45.998311879108726],[13.460736580448366,46.001364721799824],[13.460250649239224,46.005447100275425],[13.461740609113297,46.005663354366746],[13.463035566363738,46.00600425608016],[13.464372543946553,46.006726035349175],[13.470112414317235,46.01121335818407],[13.47105865156882,46.012512952960606],[13.471595522201486,46.01632172241764],[13.47395365967457,46.02325940962814],[13.479338762483188,46.0376659349105],[13.48325713114111,46.04362484842105],[13.488969204317893,46.048300414708535],[13.490662667506133,46.04826075891868],[13.49094710513977,46.04828941782045],[13.491988356172895,46.04839433667889],[13.492107786249916,46.04840637470049],[13.492715777952077,46.04856563156679],[13.493556585124495,46.04878586945968],[13.494771127799437,46.04930509582998],[13.496958191146161,46.05135522220299],[13.496593390356889,46.04885973704688],[13.49756092413309,46.04794083270014],[13.49808575505622,46.04764874000651],[13.49926595997219,46.04750767812686],[13.502662143991984,46.047175613787175],[13.50530720529725,46.04688664899022],[13.510016063414614,46.04624599921496],[13.510023171112906,46.045966668255005],[13.510066341827816,46.043395120373496],[13.508426640270358,46.03755063069214],[13.50665809976658,46.03225133508369],[13.504336603182008,46.02777486179277],[13.502579110036095,46.02534193870851],[13.497049238734332,46.01770651071827],[13.49088008865104,46.01421406932154],[13.486470083095819,46.01342000207238],[13.482511332595804,46.012335335952436],[13.480290554766958,46.011700642915706],[13.479870388770285,46.01149664189376],[13.476410395457398,46.00674929792073],[13.476190263760719,46.00625385097461],[13.478710336406438,46.00345473876741],[13.481452392811406,46.00180314613315],[13.488025350530075,45.99616644633292],[13.493333889741892,45.98932460059158],[13.49397231118495,45.98829021457874],[13.494766166273754,45.98615712363319],[13.494208064251348,45.98483792921495],[13.493920896619306,45.98447120721046],[13.49096418774801,45.98210331489937],[13.49036454465307,45.981843383581825],[13.489887484703916,45.981765427845716],[13.489372308242485,45.98225083290102],[13.48906750694603,45.98253802759724],[13.488057135010528,45.98360394154883],[13.487366407200136,45.98433330853161],[13.487082864898307,45.98476742250297],[13.483777328558409,45.985735219058974],[13.478846946419333,45.98617130991266],[13.467237896332866,45.98665428794206],[13.464835456918783,45.986065754796265]]]},"properties":{"name":"Dolegna del Collio","op_id":"3937","minint_elettorale":"1060350040","minint_finloc":"2060350040","prov_name":"Gorizia","prov_istat_code":"031","prov_istat_code_num":31,"prov_acr":"GO","prov_iso_3166_2":"IT-GO","reg_name":"Friuli-Venezia Giulia","reg_istat_code":"06","reg_istat_code_num":6,"reg_iso_3166_2":"IT-36","opdm_id":"3788","com_catasto_code":"D321","com_istat_code":"031004","com_istat_code_num":31004,"prov_uts_code":"031","prov_tipo_uts":"Unità non amministrativa"}},
{"type":"Feature","geometry":{"type":"Polygon","coordinates":[[[13.539352175652743,45.91998790643603],[13.553301774045345,45.920399135264304],[13.552773181877516,45.919832395515876],[13.5527271695202,45.919782965112205],[13.552702002982313,45.91975166297526],[13.552662409129118,45.91968968400567],[13.551795593774653,45.91833045084986],[13.550481788271846,45.91609746490742],[13.548320760911473,45.91239501137875],[13.54845838418825,45.91125254695482],[13.54848165585045,45.91121648451129],[13.55019958350916,45.909867627627804],[13.55323963676973,45.90864086573689],[13.555032949811752,45.91028565595925],[13.55878904333069,45.912167248306964],[13.556894715803784,45.90860949655881],[13.553201912435798,45.898943950695816],[13.54192183104766,45.8984821016496],[13.539837442598262,45.898302135829994],[13.538193987475193,45.89810221762699],[13.53679638442184,45.897929481598155],[13.536650221471309,45.897911406804255],[13.53169532688868,45.89713626932713],[13.530377474167423,45.89692755610249],[13.530218698322205,45.89690240395676],[13.519807913837957,45.892414300220615],[13.51474623789094,45.88978843447916],[13.511371356729725,45.895516276898036],[13.505561568077173,45.90353210424664],[13.502745975611582,45.90901258418885],[13.501146002409532,45.91286980514835],[13.50044057890415,45.91610210613964],[13.509632494050992,45.919110027600766],[13.510868556416495,45.919442963738746],[13.511001914029743,45.919478878965286],[13.513537655889879,45.92016164759663],[13.515674771665141,45.920729652083516],[13.525897712674128,45.92185008862525],[13.532057167731901,45.92202852580943],[13.53262726802965,45.92193917660101],[13.532762155081892,45.92191803583094],[13.533211233880472,45.921847644100126],[13.534459855334132,45.92147682445333],[13.534873410008242,45.92135400142581],[13.539352175652743,45.91998790643603]]]},"properties":{"name":"Farra d'Isonzo","op_id":"3938","minint_elettorale":"1060350050","minint_finloc":"2060350050","prov_name":"Gorizia","prov_istat_code":"031","prov_istat_code_num":31,"prov_acr":"GO","prov_iso_3166_2":"IT-GO","reg_name":"Friuli-Venezia Giulia","reg_istat_code":"06","reg_istat_code_num":6,"reg_iso_3166_2":"IT-36","opdm_id":"3789","com_catasto_code":"D504","com_istat_code":"031005","com_istat_code_num":31005,"prov_uts_code":"031","prov_tipo_uts":"Unità non amministrativa"}},
{"type":"Feature","geometry":{"type":"Polygon","coordinates":[[[13.513655611848264,45.85964106976968],[13.513760803563525,45.85280491897149],[13.501051367051128,45.8464476631178],[13.48872867093094,45.8401875261949],[13.480080399885885,45.8427930576164],[13.476182266682104,45.84312906940325],[13.47533122706316,45.84365597393606],[13.475203146470522,45.84373532772325],[13.474408356245844,45.84614470364681],[13.47521335171935,45.84793252874775],[13.47616224545871,45.848589167776254],[13.483391649551601,45.84816463418544],[13.476291740086966,45.85090883939049],[13.472711016215918,45.85186605419158],[13.472593626685557,45.85753936610657],[13.472857911766594,45.860118997163724],[13.471281230187861,45.86212441712986],[13.466957457425522,45.865737561585036],[13.469828630214266,45.86820843801958],[13.474939652291718,45.874002867236236],[13.475714661955061,45.87344588080126],[13.477060144495017,45.872518149470636],[13.479431924127201,45.870959584452144],[13.480441616338343,45.87031638490489],[13.482386245548696,45.86931326322566],[13.483231505606243,45.869019004592985],[13.485246151127237,45.868386188547326],[13.490957112112172,45.86682473408433],[13.491916778644349,45.866602407773165],[13.49252860921878,45.866533253785626],[13.492702730239962,45.86651357600002],[13.492833707267142,45.866498775263096],[13.49430148511806,45.86653545190745],[13.495612692657238,45.8666772885205],[13.496176091445403,45.86680820788951],[13.497020189937217,45.8670043510947],[13.498934187780705,45.867876873349594],[13.50151815990632,45.86898277042385],[13.501563027482177,45.868994807405535],[13.501782651147654,45.86904425946166],[13.502806970369488,45.86834672457208],[13.503136700511678,45.8680976516335],[13.503938535066178,45.867491920850526],[13.505254073458167,45.86646330257558],[13.51214210492034,45.86087566906194],[13.513655611848264,45.85964106976968]]]},"properties":{"name":"Fogliano Redipuglia","op_id":"3939","minint_elettorale":"1060350060","minint_finloc":"2060350060","prov_name":"Gorizia","prov_istat_code":"031","prov_istat_code_num":31,"prov_acr":"GO","prov_iso_3166_2":"IT-GO","reg_name":"Friuli-Venezia Giulia","reg_istat_code":"06","reg_istat_code_num":6,"reg_iso_3166_2":"IT-36","opdm_id":"3790","com_catasto_code":"D645","com_istat_code":"031006","com_istat_code_num":31006,"prov_uts_code":"031","prov_tipo_uts":"Unità non amministrativa"}},
{"type":"Feature","geometry":{"type":"Polygon","coordinates":[[[13.556894715803784,45.90860949655881],[13.55878904333069,45.912167248306964],[13.555032949811752,45.91028565595925],[13.55323963676973,45.90864086573689],[13.55019958350916,45.909867627627804],[13.54848165585045,45.91121648451129],[13.54845838418825,45.91125254695482],[13.548320760911473,45.91239501137875],[13.550481788271846,45.91609746490742],[13.551795593774653,45.91833045084986],[13.552662409129118,45.91968968400567],[13.552702002982313,45.91975166297526],[13.5527271695202,45.919782965112205],[13.552773181877516,45.919832395515876],[13.553301774045345,45.920399135264304],[13.554540469114364,45.92277727157263],[13.555242251721333,45.924124693547384],[13.554202894551583,45.927681559383714],[13.553800133679694,45.92902051057559],[13.558782467182564,45.93698621604659],[13.55796351235703,45.944242011521474],[13.555362619834225,45.949970513501874],[13.55468478412064,45.95583901830594],[13.556791944190284,45.95824965841381],[13.558179061772055,45.95903978463766],[13.558653843879782,45.96072721522842],[13.559810332362181,45.96140107678106],[13.568969209723996,45.963622372030066],[13.574759137602827,45.96323272712147],[13.580253186987875,45.96139195588236],[13.594883911628845,45.95994999050946],[13.596044194476358,45.96037252775896],[13.603151546172429,45.97500420711872],[13.601852115844464,45.981438118461796],[13.601288464446922,45.98156472170592],[13.598874675837633,45.98238967555865],[13.599486546960883,45.983756627023354],[13.600696791485765,45.984563482682],[13.604214798651485,45.98671986628127],[13.605857993360356,45.98554335220963],[13.610344613061509,45.98486696955084],[13.620400594898308,45.983774387632764],[13.628774155721796,45.98717935763413],[13.63258147790511,45.98881601766316],[13.633125992257149,45.9892664680308],[13.633404712325166,45.98947568038377],[13.634518775305615,45.9888228185477],[13.642005610693483,45.98362158311558],[13.642027094648697,45.98233797018419],[13.637882750569114,45.96582266845095],[13.63456688825539,45.953928711220165],[13.635114199312062,45.943132971918025],[13.636272942434346,45.934043006220634],[13.627572687566573,45.925564484049524],[13.616202222443393,45.911398183271835],[13.61360312227406,45.90746626893539],[13.609797399360193,45.90662249039401],[13.594539426523285,45.9084341442025],[13.591967949825591,45.908784263645465],[13.587558876764174,45.909528624980275],[13.586823265526993,45.90965293501483],[13.586545293238052,45.90970085695559],[13.583980360942109,45.91121163204953],[13.58377747630569,45.9114325277304],[13.58435038907715,45.91227789983979],[13.58542639971305,45.913756089641545],[13.587460565176137,45.91642951774883],[13.58787717560146,45.91693550342469],[13.588675919650164,45.91785091871355],[13.589251828358387,45.918305610763795],[13.589358455067739,45.918390693507504],[13.589191039576665,45.91847716563656],[13.588920566691208,45.91858210516419],[13.585393196834161,45.91795548388486],[13.573105545975396,45.91536452034957],[13.569616881358007,45.91395164356104],[13.56464271800489,45.91164213211583],[13.564409401375205,45.911532522346015],[13.563511494421732,45.911110670733166],[13.556894715803784,45.90860949655881]]]},"properties":{"name":"Gorizia","op_id":"3940","minint_elettorale":"1060350070","minint_finloc":"2060350070","prov_name":"Gorizia","prov_istat_code":"031","prov_istat_code_num":31,"prov_acr":"GO","prov_iso_3166_2":"IT-GO","reg_name":"Friuli-Venezia Giulia","reg_istat_code":"06","reg_istat_code_num":6,"reg_iso_3166_2":"IT-36","opdm_id":"3791","com_catasto_code":"E098","com_istat_code":"031007","com_istat_code_num":31007,"prov_uts_code":"031","prov_tipo_uts":"Unità non amministrativa"}},
{"type":"Feature","geometry":{"type":"Polygon","coordinates":[[[13.50044057890415,45.91610210613964],[13.501146002409532,45.91286980514835],[13.502745975611582,45.90901258418885],[13.505561568077173,45.90353210424664],[13.511371356729725,45.895516276898036],[13.51474623789094,45.88978843447916],[13.51009174671261,45.8874792109175],[13.498336255579257,45.881661903367956],[13.492610927506753,45.879987041526235],[13.486184647938506,45.878867328145404],[13.485049517295451,45.87869755877757],[13.484838147431548,45.87866572280066],[13.483638601544342,45.878473725138264],[13.483451378481464,45.878443748329985],[13.482258710903299,45.878247586096634],[13.479595548643724,45.877320672277946],[13.477459824242068,45.876545842205665],[13.474030294376131,45.87520422624512],[13.47360099701466,45.87488350718175],[13.474261017873172,45.87431753052173],[13.474939652291718,45.874002867236236],[13.469828630214266,45.86820843801958],[13.4613476174569,45.877904313142466],[13.461316112119546,45.877954557232705],[13.461116541800195,45.8785410653421],[13.460904748129758,45.879235713921275],[13.460944153555149,45.87983031536578],[13.460977191331967,45.880328779174015],[13.46098578003381,45.88037497129466],[13.461077071834623,45.880865224381346],[13.461325392337063,45.881269465274876],[13.461417206211214,45.88141889673755],[13.462713445275257,45.88332894736012],[13.463978675526514,45.88316196056867],[13.46783606085698,45.88446189641648],[13.466566766882211,45.89121037776938],[13.466502645580132,45.8914846809148],[13.466473072631734,45.89161112017785],[13.466399209312065,45.89192102265096],[13.466355992379784,45.89204210034556],[13.466175421827984,45.89253308557573],[13.465999566032403,45.892957617804846],[13.465286045626886,45.89464027875868],[13.464537863599128,45.896203394563194],[13.464104397911804,45.89693601825129],[13.464376881311473,45.897016638174236],[13.464925001047815,45.897178821983694],[13.466001378073896,45.89749732461672],[13.46647992077421,45.897638924695606],[13.474612617456732,45.90055606810396],[13.475124830740793,45.90372909697347],[13.485861877213186,45.90930645823591],[13.493410548888464,45.912373767475366],[13.50044057890415,45.91610210613964]]]},"properties":{"name":"Gradisca d'Isonzo","op_id":"3941","minint_elettorale":"1060350080","minint_finloc":"2060350080","prov_name":"Gorizia","prov_istat_code":"031","prov_istat_code_num":31,"prov_acr":"GO","prov_iso_3166_2":"IT-GO","reg_name":"Friuli-Venezia Giulia","reg_istat_code":"06","reg_istat_code_num":6,"reg_iso_3166_2":"IT-36","opdm_id":"3792","com_catasto_code":"E124","com_istat_code":"031008","com_istat_code_num":31008,"prov_uts_code":"031","prov_tipo_uts":"Unità non amministrativa"}},
{"type":"Feature","geometry":{"type":"Polygon","coordinates":[[[13.270705335307554,45.7530478928623],[13.27264811783619,45.75209591940535],[13.273772469473657,45.75083104096495],[13.276268975659546,45.747614489200856],[13.287294978245983,45.75006898685862],[13.289196027335231,45.75029823028763],[13.290316275652428,45.750256091253064],[13.290899244649111,45.750234149037105],[13.291139965420804,45.750225086955034],[13.315793524030202,45.74427489269991],[13.316364879059426,45.7428166747334],[13.317259022733886,45.74185985445135],[13.318497349524115,45.74074669382068],[13.3204715807485,45.73898654804364],[13.321347942170718,45.738571135047955],[13.321588348015936,45.73845725280822],[13.322939909879535,45.73798959739085],[13.32716981329066,45.736925796666974],[13.332587646675972,45.73632822729707],[13.334520728373521,45.7361842836656],[13.336402255702644,45.73604419299378],[13.340403197424708,45.73575343713611],[13.34406526799117,45.73563689944396],[13.349329068807657,45.73560663951855],[13.353685374469341,45.73607500377248],[13.355507464132076,45.73747714773035],[13.37192365569193,45.73742501723801],[13.372377663209853,45.73506276364182],[13.371506291663817,45.735015149998354],[13.370110551111294,45.73481660843927],[13.367582596839929,45.73358940425436],[13.365788474271882,45.73271836356074],[13.368268778232274,45.73113753997349],[13.370468212343765,45.73012248801183],[13.384284748788728,45.7251541145146],[13.389534587237588,45.724238350477755],[13.405114944455777,45.725048994883984],[13.406537916254855,45.725727532523415],[13.407927109211302,45.72885133283515],[13.408234602622677,45.729807092429084],[13.408256384280376,45.730124523573636],[13.408288499846988,45.73059261750156],[13.408293590694182,45.731798614684756],[13.40815555538757,45.73252405781293],[13.40781752756206,45.7331582248639],[13.40711452213807,45.73347344418531],[13.406333802055842,45.73383215976614],[13.405774488678102,45.73448411145171],[13.403673358538176,45.738773179344975],[13.410968144610203,45.74084462292938],[13.418687983823663,45.742391478448376],[13.422817362887729,45.744090174590795],[13.429684574860442,45.74344268224288],[13.453291057888958,45.74753177258149],[13.45914822623779,45.74875108308949],[13.46021603934315,45.749181895263035],[13.461113767540013,45.749686862921244],[13.461306171011362,45.750174415022364],[13.461776715274054,45.7522533149809],[13.461073830957645,45.75241244500364],[13.46103806261193,45.752420541477235],[13.460767134404094,45.75248186403125],[13.461214701166611,45.7530449339043],[13.462275629312112,45.75379105146784],[13.463238708012291,45.75429793481259],[13.463409960788951,45.75431990907011],[13.464313804228121,45.754435864626586],[13.465355892979456,45.754462588459006],[13.46600599139358,45.75435910763123],[13.46655577894251,45.754271582954665],[13.475785395401058,45.75152340294002],[13.479112837490307,45.75040391834407],[13.479484078716803,45.75025834057294],[13.481922482702823,45.7490193513574],[13.482667395136712,45.74854454079858],[13.483422880052748,45.74806015510546],[13.48404115701291,45.74766235351357],[13.485081270054778,45.74686693320694],[13.49213044052561,45.74121145926397],[13.496766326111784,45.73554713690877],[13.497445079159343,45.734924010671335],[13.49792424036571,45.734543618927354],[13.498050466790385,45.73444341271938],[13.498101310165664,45.73440305163465],[13.498250998660595,45.73435609948374],[13.498830657688845,45.73417447022502],[13.498901168175461,45.73415489130379],[13.49909725788488,45.73413297834004],[13.499156822848928,45.734127375685325],[13.499665217017835,45.7340803097539],[13.500663666371914,45.73424792697537],[13.501404696233815,45.73492077980298],[13.502571897799083,45.73593684908995],[13.503416858120348,45.73654257420925],[13.505839511050155,45.737274995509715],[13.50704854774734,45.737263215312595],[13.508061658295475,45.7372059342751],[13.508321036504244,45.737190984318914],[13.508361639637505,45.73718849669274],[13.513094292529946,45.73659651719044],[13.514384378212009,45.73641491431684],[13.515677280588669,45.73609831243187],[13.51821698872794,45.73523512096179],[13.52032089449001,45.73421561174014],[13.52140502477774,45.733657676773866],[13.521821176709526,45.73341390361426],[13.521981215457796,45.733321331197004],[13.52314386800942,45.73280923329419],[13.524064512897748,45.73243705803355],[13.52444066410679,45.7322851932212],[13.525699476087174,45.731897686311896],[13.52652280955106,45.73184699002158],[13.526837568882026,45.73190288656672],[13.527227043130267,45.73197207221731],[13.528304136594459,45.73256392138941],[13.528400445325822,45.73261814685878],[13.52859528642235,45.73272785945475],[13.529136157659789,45.73315643142636],[13.531097032595046,45.73237192166035],[13.533407356190134,45.73152846725534],[13.535472064062892,45.73079645336084],[13.538579965972302,45.72981493622544],[13.540041773208712,45.72944617550757],[13.546793083457132,45.727812670610895],[13.553475422061943,45.726070499783944],[13.553187474428826,45.72455623025442],[13.55283873179749,45.7241200912269],[13.552159899265604,45.7235352122251],[13.551510904949074,45.72331809147225],[13.550650096488024,45.723262411061526],[13.53391897894226,45.723271884191384],[13.532573598040956,45.723608924565],[13.532056530189692,45.723710519756395],[13.530563591182306,45.72334677544986],[13.523216793365501,45.7204166643776],[13.522640529343,45.72018679886042],[13.517541918203715,45.71814752863382],[13.515926383577206,45.717495925581986],[13.513531188950937,45.716267613979426],[13.509685857628119,45.713966833098446],[13.500532148924755,45.709832263895784],[13.486836229909786,45.704629217090634],[13.485633857872179,45.70443355011378],[13.477518147436863,45.70400853145153],[13.476770520712,45.70399857029908],[13.475915080844265,45.704024593895014],[13.472570843816763,45.704223357011315],[13.471922875656741,45.704476852707295],[13.470295376226094,45.70632757643879],[13.46490926352835,45.70709408169942],[13.467905450428844,45.70274097834644],[13.46022193666804,45.69414544817392],[13.459158028268606,45.69318887793366],[13.45687455437499,45.691406993925526],[13.45487377207373,45.6904828437587],[13.453615725022878,45.69006515482569],[13.442535597658095,45.68645683373985],[13.43347762994127,45.68219964960215],[13.432454126572955,45.681634497611256],[13.432514720184626,45.68127976981181],[13.433324162304247,45.67873776651294],[13.424151970137451,45.67668574929257],[13.418036610183286,45.67735588684823],[13.409902463145528,45.67746758594457],[13.406024285601559,45.67734687451963],[13.405178868507608,45.6772715042842],[13.403562278943742,45.67705129815537],[13.400486327074423,45.67660660792174],[13.389371007505918,45.67501230415963],[13.389167555656243,45.674994118996786],[13.387132013131556,45.674837634900875],[13.386831944773547,45.674824659864136],[13.385727580775137,45.674776903109134],[13.38470015797072,45.675033217302165],[13.383918480669898,45.67535945815818],[13.382903471426513,45.67587961612871],[13.382396006637633,45.67655304241736],[13.367729525545235,45.682836030696876],[13.359218275899284,45.68207552439145],[13.35663533883794,45.68021336121851],[13.354423770458217,45.6794115793006],[13.351624468745966,45.6789887642625],[13.34838196932499,45.67940321981757],[13.34311760818147,45.680523467988245],[13.32746790051395,45.685885940476886],[13.32319178100289,45.68738787397164],[13.301531799723596,45.69693642865058],[13.29529873693846,45.700416354304],[13.298082420442979,45.69959697804981],[13.29958585950059,45.69943528764289],[13.29697581120045,45.70094258091284],[13.291559284449802,45.70407015276442],[13.290640146671612,45.70449165585323],[13.275300554230066,45.70670514846394],[13.267776784689717,45.70722512926032],[13.26453171162307,45.707221683042064],[13.2635878695222,45.706944789080374],[13.261337138119682,45.70702891512276],[13.257198623820381,45.70767886427567],[13.255485074006819,45.70839062268254],[13.253391637308741,45.71053577918829],[13.247574384887935,45.71654728356132],[13.245795622893402,45.719502954191796],[13.243994233738507,45.721356820236515],[13.243210349640124,45.72244814550562],[13.24308591173001,45.722925348985214],[13.2430531061292,45.72463231692208],[13.24301883543625,45.72741050550521],[13.243062288195093,45.72892563326267],[13.243150310596727,45.73055160200189],[13.243354670669653,45.73257830457322],[13.242153256220192,45.74147721390876],[13.24011763882001,45.75141282478493],[13.239932392047866,45.752737930564706],[13.240110017994395,45.754636788894445],[13.240946635439718,45.75597749404996],[13.241562930983898,45.75694659041239],[13.243761701697473,45.75697463761408],[13.250065612136934,45.75644282608302],[13.252468420557873,45.75280672181733],[13.25535718122137,45.75044866027822],[13.257115706174929,45.750536054324954],[13.263747943213067,45.75105339817795],[13.267360285778558,45.75139670140676],[13.270705335307554,45.7530478928623]]]},"properties":{"name":"Grado","op_id":"3942","minint_elettorale":"1060350090","minint_finloc":"2060350090","prov_name":"Gorizia","prov_istat_code":"031","prov_istat_code_num":31,"prov_acr":"GO","prov_iso_3166_2":"IT-GO","reg_name":"Friuli-Venezia Giulia","reg_istat_code":"06","reg_istat_code_num":6,"reg_iso_3166_2":"IT-36","opdm_id":"3793","com_catasto_code":"E125","com_istat_code":"031009","com_istat_code_num":31009,"prov_uts_code":"031","prov_tipo_uts":"Unità non amministrativa"}},
{"type":"Feature","geometry":{"type":"Polygon","coordinates":[[[13.455896476477925,45.92135706563495],[13.458559588750967,45.92299492001823],[13.460902066458088,45.923616083702036],[13.468393980890987,45.92555793423659],[13.478928134738384,45.92803090775166],[13.485836417414449,45.92915779515413],[13.48546999338031,45.928434105693384],[13.484894624480203,45.92630093717772],[13.484868697274727,45.92598375986293],[13.487126145519655,45.922016987056764],[13.48716665862022,45.921954130698865],[13.48761892943487,45.921302150398425],[13.49657367105042,45.91746082662568],[13.50044057890415,45.91610210613964],[13.493410548888464,45.912373767475366],[13.485861877213186,45.90930645823591],[13.475124830740793,45.90372909697347],[13.474612617456732,45.90055606810396],[13.46647992077421,45.897638924695606],[13.466001378073896,45.89749732461672],[13.464925001047815,45.897178821983694],[13.464376881311473,45.897016638174236],[13.464104397911804,45.89693601825129],[13.463443321354983,45.89680762025012],[13.454084236386063,45.89982045603209],[13.451856532330677,45.90061855711607],[13.451127187462781,45.90089906361876],[13.450859956763184,45.90126380009318],[13.450543935667335,45.901941104590165],[13.449819161845285,45.904298571883615],[13.449703622160582,45.90498905499079],[13.449774849893245,45.9059295382756],[13.449689691317326,45.90759360289694],[13.44957224804195,45.90859282433302],[13.447700802451118,45.910961496160134],[13.44747392430554,45.911221536484355],[13.447221239995649,45.91151092429802],[13.446615295932936,45.912016121653885],[13.443703768773924,45.91421791539062],[13.442459354981066,45.91500005645496],[13.442647676541796,45.9155147372763],[13.442997083693713,45.915973696219304],[13.44335917828094,45.916409648320894],[13.444011233687876,45.91711204089932],[13.446045563373257,45.91852375692897],[13.44686107501264,45.91892403348735],[13.447641878973164,45.91913211270492],[13.44933345063797,45.919480188060824],[13.455896476477925,45.92135706563495]]]},"properties":{"name":"Mariano del Friuli","op_id":"3943","minint_elettorale":"1060350100","minint_finloc":"2060350100","prov_name":"Gorizia","prov_istat_code":"031","prov_istat_code_num":31,"prov_acr":"GO","prov_iso_3166_2":"IT-GO","reg_name":"Friuli-Venezia Giulia","reg_istat_code":"06","reg_istat_code_num":6,"reg_iso_3166_2":"IT-36","opdm_id":"3794","com_catasto_code":"E952","com_istat_code":"031010","com_istat_code_num":31010,"prov_uts_code":"031","prov_tipo_uts":"Unità non amministrativa"}},
{"type":"Feature","geometry":{"type":"Polygon","coordinates":[[[13.386654146043675,45.91296551151921],[13.392834098363632,45.91347708410894],[13.40215603170619,45.91602721897538],[13.405131379145173,45.917068998925785],[13.407975258427527,45.91891609927063],[13.418287088662419,45.92694756052821],[13.419447930304758,45.92786915546517],[13.419497842295836,45.927908780497546],[13.419952373533553,45.928696776009545],[13.420563001304025,45.92994679743791],[13.420779646954172,45.930500982913294],[13.426946677879293,45.929037593185],[13.444109976807079,45.92918020331249],[13.445543798871016,45.92942167302444],[13.448498072037468,45.92816299431607],[13.449404170932283,45.927578575405406],[13.449865942133922,45.927254522731474],[13.453746358556902,45.923754589779996],[13.455251079300702,45.922273803658896],[13.455896476477925,45.92135706563495],[13.44933345063797,45.919480188060824],[13.447641878973164,45.91913211270492],[13.44686107501264,45.91892403348735],[13.446045563373257,45.91852375692897],[13.444011233687876,45.91711204089932],[13.44335917828094,45.916409648320894],[13.442997083693713,45.915973696219304],[13.442647676541796,45.9155147372763],[13.442459354981066,45.91500005645496],[13.441930475460428,45.91350838513365],[13.436956145157046,45.90879633113848],[13.433122312024015,45.906258537629725],[13.432001773218081,45.9057485150101],[13.422420177830178,45.90398716375178],[13.416807661375755,45.9032280161462],[13.41629814670954,45.90335461118131],[13.41612094515429,45.903398639366785],[13.415449544064792,45.903883694339925],[13.414783531248112,45.90462959352221],[13.415064912525445,45.90511825722763],[13.415930564336952,45.909531465920125],[13.412835525925406,45.91371973857001],[13.412623828621255,45.91386700895782],[13.412164021384712,45.914186828737726],[13.410392179950122,45.91483140081374],[13.408746290957406,45.91421095335715],[13.403222076825976,45.9121060537337],[13.396663892616312,45.90857312900692],[13.386654146043675,45.91296551151921]]]},"properties":{"name":"Medea","op_id":"3944","minint_elettorale":"1060350101","minint_finloc":"2060350101","prov_name":"Gorizia","prov_istat_code":"031","prov_istat_code_num":31,"prov_acr":"GO","prov_iso_3166_2":"IT-GO","reg_name":"Friuli-Venezia Giulia","reg_istat_code":"06","reg_istat_code_num":6,"reg_iso_3166_2":"IT-36","opdm_id":"3795","com_catasto_code":"F081","com_istat_code":"031011","com_istat_code_num":31011,"prov_uts_code":"031","prov_tipo_uts":"Unità non amministrativa"}},
{"type":"Feature","geometry":{"type":"Polygon","coordinates":[[[13.55714633051155,45.82077613631564],[13.559193855244185,45.81974012370981],[13.561597224873742,45.81839280684084],[13.56183108748789,45.81730779551437],[13.561579300886175,45.81608917106674],[13.561394346654646,45.81559206152968],[13.565770571026544,45.80776165272371],[13.577893979739756,45.804151938069516],[13.579650198815333,45.80353694423356],[13.5797353334443,45.80350400887762],[13.580511851181864,45.803203535363934],[13.581012929594259,45.80300962361894],[13.582477281926717,45.80234069596191],[13.582654986464759,45.80225951663993],[13.583383263196952,45.80140213511208],[13.583443851649003,45.80105313675069],[13.583607912918701,45.800808000773536],[13.584367811859845,45.79967028703542],[13.58441531995921,45.799441791890615],[13.584651986023026,45.79830343763292],[13.584791481952056,45.79763243441261],[13.584461607639932,45.797333814035234],[13.584313732242537,45.79720156117471],[13.583796746490208,45.796763285276974],[13.582926360228008,45.79654623288682],[13.581887629792417,45.7964529608494],[13.581328599233466,45.79646193783842],[13.580767517658929,45.796475464605855],[13.577077650385124,45.793036597287774],[13.579756389364203,45.78713662178027],[13.580891372289612,45.7817621992292],[13.5798994265401,45.777012150750785],[13.57271987947953,45.77620738263891],[13.561908807254229,45.7784227056263],[13.556941169348258,45.782549582137975],[13.551702878375735,45.78853990185221],[13.550086703338579,45.79039041581048],[13.548557386521766,45.7921887074272],[13.547914830552479,45.79324497434477],[13.547615207104073,45.79364396520024],[13.545145580439927,45.79661834883998],[13.542800620107139,45.799308710735936],[13.542576245205167,45.79955618847334],[13.542324428208131,45.7998317633417],[13.542086804225278,45.80008426862901],[13.54176140760634,45.800385285906316],[13.541150073430934,45.80091821720627],[13.54087650921358,45.80115413940777],[13.54066370392216,45.801306628315274],[13.539086051361076,45.802202077971366],[13.538694005596376,45.80241570706883],[13.537664461525376,45.802898969987915],[13.533451524194188,45.804726084822526],[13.532853584162172,45.80407926714618],[13.533455668688774,45.80380310982351],[13.533492556593801,45.80378840655683],[13.534198992645258,45.80351644509695],[13.534501914255408,45.803432342199365],[13.534635471273234,45.80342336267589],[13.534773004195506,45.803435900354074],[13.535051594167419,45.803429239966626],[13.53525484454064,45.80338020376581],[13.536039355359227,45.803165363046986],[13.536450413347282,45.80303608643391],[13.537023738858839,45.802806232568614],[13.537193483321591,45.8027274666088],[13.537717315772849,45.80247259230752],[13.53816956903367,45.8022475508498],[13.538425877011594,45.80211584774098],[13.538632276080401,45.801963600052325],[13.538856821927853,45.80179713644698],[13.539267204077825,45.80144325432025],[13.539474758712446,45.801245960831665],[13.541875782662194,45.79884599150023],[13.544630283906814,45.795801780393354],[13.54474933201437,45.795644001577124],[13.544805490704523,45.79553375467224],[13.54461642973883,45.793281934015],[13.54352790734988,45.7916870590187],[13.538648401728532,45.78823692135121],[13.533359805611761,45.78976469494138],[13.532878917888807,45.789932949620955],[13.532378866624958,45.789993221951335],[13.529931727145554,45.78883052326221],[13.53003426418785,45.78811093296777],[13.532118946963136,45.785785872285906],[13.537205418658274,45.78321034546802],[13.539247255247618,45.78429537721411],[13.540620273386162,45.78578795951774],[13.541248750103227,45.78611552605847],[13.541964054883108,45.78636988706814],[13.54574153003559,45.786860180839355],[13.54669724827516,45.78562766119049],[13.547884187102998,45.78284872192943],[13.547528054306987,45.78317393607587],[13.544288917714013,45.78403371040868],[13.540879210043558,45.78244140027298],[13.537268774476539,45.78033814970692],[13.536197343202968,45.77954532836541],[13.534862834768715,45.77854989593827],[13.533332489944028,45.777301349484794],[13.531467193677349,45.775487660943156],[13.527958610630275,45.771855255464345],[13.527238307258985,45.771991751324684],[13.524812912682451,45.772857767891445],[13.52153634714208,45.774698008557344],[13.520721214354051,45.77532443539373],[13.52054631178533,45.7755891716122],[13.520373126880802,45.77585131004611],[13.519688897705878,45.77787673987128],[13.51605528819358,45.78641000553994],[13.513362953324089,45.79135034954836],[13.511999448487147,45.794239758807905],[13.511128598733416,45.79655924085763],[13.512397447397843,45.797646132636835],[13.51536658091444,45.798662272751244],[13.517190321519877,45.79935855662851],[13.517493695683607,45.79954904766167],[13.517704458914228,45.79988725281805],[13.517701036717133,45.80530341591553],[13.512201901891098,45.8059605343165],[13.509856964257933,45.80557172701172],[13.508828892687498,45.805531389016465],[13.507553810299749,45.80555029647209],[13.506432091843841,45.80563513107358],[13.505753407781642,45.805977023234384],[13.505400309566399,45.80668404624288],[13.504728068140292,45.80870892401692],[13.504800361131709,45.80939465955587],[13.50508343497559,45.809991072575905],[13.505104689518378,45.81003524898709],[13.50542827136563,45.81044553314057],[13.506435117061908,45.81129689504119],[13.507249440347458,45.81211532659367],[13.507749683237122,45.81268065389994],[13.507833869712114,45.81302746343977],[13.507865465602594,45.81315763524224],[13.508115606510076,45.814364905990914],[13.508490238399153,45.817759633016756],[13.508495061667288,45.818983627521774],[13.50844600495131,45.819557164996965],[13.519843159938876,45.82079373836512],[13.52025579211518,45.820628831742454],[13.524274215195131,45.81922190326349],[13.529199279812932,45.81759340222149],[13.535086583359462,45.81664189455374],[13.537046395064019,45.8180486994318],[13.538560013837877,45.81917091817876],[13.54151300783569,45.820013676887605],[13.55310769785467,45.82063593043117],[13.55714633051155,45.82077613631564]]]},"properties":{"name":"Monfalcone","op_id":"3945","minint_elettorale":"1060350110","minint_finloc":"2060350110","prov_name":"Gorizia","prov_istat_code":"031","prov_istat_code_num":31,"prov_acr":"GO","prov_iso_3166_2":"IT-GO","reg_name":"Friuli-Venezia Giulia","reg_istat_code":"06","reg_istat_code_num":6,"reg_iso_3166_2":"IT-36","opdm_id":"3796","com_catasto_code":"F356","com_istat_code":"031012","com_istat_code_num":31012,"prov_uts_code":"031","prov_tipo_uts":"Unità non amministrativa"}},
{"type":"Feature","geometry":{"type":"Polygon","coordinates":[[[13.493578173089038,45.937593263705466],[13.494367465529491,45.93798071516545],[13.49521432401752,45.938172363120984],[13.49614732152343,45.93801406584849],[13.49885786024082,45.93750212026609],[13.509894967808583,45.9352704268587],[13.510311608241276,45.93516843689708],[13.510858118570008,45.93472553091755],[13.511035545446394,45.93458172817091],[13.511515155122177,45.93400466260794],[13.511529686600783,45.933977740764185],[13.511800343118463,45.93347581106106],[13.511989547098326,45.9326762418516],[13.514533274388963,45.92921805571538],[13.514881161393122,45.928727211192516],[13.51511339177179,45.92828145983679],[13.515292202484714,45.92783331338336],[13.515279511786071,45.927708480851024],[13.515252082457454,45.92743885982552],[13.515105496940182,45.92709360128491],[13.51475056332918,45.92688262810135],[13.510262470543589,45.92605116465904],[13.50799841031539,45.92570501811521],[13.507705045718644,45.92565734028203],[13.507346862815265,45.925599126583876],[13.507821664357225,45.92263356527251],[13.507938894093456,45.922111361884724],[13.508651200749702,45.92054847900685],[13.509632494050992,45.919110027600766],[13.50044057890415,45.91610210613964],[13.49657367105042,45.91746082662568],[13.48761892943487,45.921302150398425],[13.48716665862022,45.921954130698865],[13.487126145519655,45.922016987056764],[13.484868697274727,45.92598375986293],[13.484894624480203,45.92630093717772],[13.48546999338031,45.928434105693384],[13.485836417414449,45.92915779515413],[13.493578173089038,45.937593263705466]]]},"properties":{"name":"Moraro","op_id":"3946","minint_elettorale":"1060350111","minint_finloc":"2060350111","prov_name":"Gorizia","prov_istat_code":"031","prov_istat_code_num":31,"prov_acr":"GO","prov_iso_3166_2":"IT-GO","reg_name":"Friuli-Venezia Giulia","reg_istat_code":"06","reg_istat_code_num":6,"reg_iso_3166_2":"IT-36","opdm_id":"3797","com_catasto_code":"F710","com_istat_code":"031013","com_istat_code_num":31013,"prov_uts_code":"031","prov_tipo_uts":"Unità non amministrativa"}},
{"type":"Feature","geometry":{"type":"Polygon","coordinates":[[[13.532024428245204,45.953160537519324],[13.530151401842424,45.9541605646868],[13.534938010400964,45.95604096586772],[13.54337223068181,45.95635033422017],[13.555117496391164,45.95972709594814],[13.558179061772055,45.95903978463766],[13.556791944190284,45.95824965841381],[13.55468478412064,45.95583901830594],[13.555362619834225,45.949970513501874],[13.55796351235703,45.944242011521474],[13.558782467182564,45.93698621604659],[13.553800133679694,45.92902051057559],[13.554202894551583,45.927681559383714],[13.555242251721333,45.924124693547384],[13.554540469114364,45.92277727157263],[13.553301774045345,45.920399135264304],[13.539352175652743,45.91998790643603],[13.539009477429108,45.925124573385965],[13.535448054274982,45.93019242545326],[13.53258424449143,45.93598290867449],[13.531706984746103,45.93798115924501],[13.531681940506344,45.93819164321487],[13.537211721864514,45.94238137741298],[13.538359695777888,45.942399257214994],[13.538723177174928,45.94371684063144],[13.538772391870795,45.94401793087897],[13.538820687197271,45.94506320949752],[13.538451647509824,45.94926372838158],[13.537944347846866,45.95088046931114],[13.537230602326243,45.95179925580268],[13.535900318026878,45.9529813584347],[13.535674056401161,45.95318185236405],[13.535483399456416,45.95318739164516],[13.535017640676966,45.95319319950498],[13.534957478300495,45.95319394915301],[13.532024428245204,45.953160537519324]]]},"properties":{"name":"Mossa","op_id":"3947","minint_elettorale":"1060350112","minint_finloc":"2060350112","prov_name":"Gorizia","prov_istat_code":"031","prov_istat_code_num":31,"prov_acr":"GO","prov_iso_3166_2":"IT-GO","reg_name":"Friuli-Venezia Giulia","reg_istat_code":"06","reg_istat_code_num":6,"reg_iso_3166_2":"IT-36","opdm_id":"3798","com_catasto_code":"F767","com_istat_code":"031014","com_istat_code_num":31014,"prov_uts_code":"031","prov_tipo_uts":"Unità non amministrativa"}},
{"type":"Feature","geometry":{"type":"Polygon","coordinates":[[[13.3996877099997,45.8955905725776],[13.396663892616312,45.90857312900692],[13.403222076825976,45.9121060537337],[13.408746290957406,45.91421095335715],[13.410392179950122,45.91483140081374],[13.412164021384712,45.914186828737726],[13.412623828621255,45.91386700895782],[13.412835525925406,45.91371973857001],[13.415930564336952,45.909531465920125],[13.415064912525445,45.90511825722763],[13.414783531248112,45.90462959352221],[13.415449544064792,45.903883694339925],[13.41612094515429,45.903398639366785],[13.41629814670954,45.90335461118131],[13.416807661375755,45.9032280161462],[13.422420177830178,45.90398716375178],[13.432001773218081,45.9057485150101],[13.433122312024015,45.906258537629725],[13.436956145157046,45.90879633113848],[13.441930475460428,45.91350838513365],[13.442459354981066,45.91500005645496],[13.443703768773924,45.91421791539062],[13.446615295932936,45.912016121653885],[13.447221239995649,45.91151092429802],[13.44747392430554,45.911221536484355],[13.447700802451118,45.910961496160134],[13.44957224804195,45.90859282433302],[13.449689691317326,45.90759360289694],[13.449774849893245,45.9059295382756],[13.449703622160582,45.90498905499079],[13.449819161845285,45.904298571883615],[13.450543935667335,45.901941104590165],[13.450859956763184,45.90126380009318],[13.451127187462781,45.90089906361876],[13.451856532330677,45.90061855711607],[13.454084236386063,45.89982045603209],[13.463443321354983,45.89680762025012],[13.464104397911804,45.89693601825129],[13.464537863599128,45.896203394563194],[13.465286045626886,45.89464027875868],[13.465999566032403,45.892957617804846],[13.466175421827984,45.89253308557573],[13.466355992379784,45.89204210034556],[13.466399209312065,45.89192102265096],[13.466473072631734,45.89161112017785],[13.466502645580132,45.8914846809148],[13.466566766882211,45.89121037776938],[13.46783606085698,45.88446189641648],[13.463978675526514,45.88316196056867],[13.462713445275257,45.88332894736012],[13.461417206211214,45.88141889673755],[13.461325392337063,45.881269465274876],[13.461077071834623,45.880865224381346],[13.46098578003381,45.88037497129466],[13.460977191331967,45.880328779174015],[13.460944153555149,45.87983031536578],[13.460904748129758,45.879235713921275],[13.461116541800195,45.8785410653421],[13.461316112119546,45.877954557232705],[13.4613476174569,45.877904313142466],[13.457505929958213,45.87865524678711],[13.448413325909758,45.87932935728744],[13.447120468659001,45.87787687608541],[13.445492126258921,45.87609064464375],[13.439276401694057,45.87248484084571],[13.43879252476476,45.87230564551861],[13.438549113293474,45.87229667925903],[13.43813583394386,45.87228168719993],[13.436924718809086,45.87224331848566],[13.432032064389762,45.872132012660074],[13.431206070424942,45.87219561509799],[13.430785379931535,45.87249550357615],[13.429484970097153,45.87292407705045],[13.423800492304897,45.871556842595176],[13.423160550454687,45.8712385641066],[13.42066333378714,45.87273078222732],[13.418689484546388,45.874005511277836],[13.418024766630824,45.875309979146834],[13.41648387819115,45.882852659495114],[13.411794133838553,45.88936530177537],[13.402373261557027,45.89393677399631],[13.3996877099997,45.8955905725776]]]},"properties":{"name":"Romans d'Isonzo","op_id":"3948","minint_elettorale":"1060350120","minint_finloc":"2060350120","prov_name":"Gorizia","prov_istat_code":"031","prov_istat_code_num":31,"prov_acr":"GO","prov_iso_3166_2":"IT-GO","reg_name":"Friuli-Venezia Giulia","reg_istat_code":"06","reg_istat_code_num":6,"reg_iso_3166_2":"IT-36","opdm_id":"3799","com_catasto_code":"H514","com_istat_code":"031015","com_istat_code_num":31015,"prov_uts_code":"031","prov_tipo_uts":"Unità non amministrativa"}},
{"type":"Feature","geometry":{"type":"Polygon","coordinates":[[[13.513760803563525,45.85280491897149],[13.527276412004944,45.84289869658547],[13.53158422214825,45.839739136178586],[13.540092251143214,45.83345978237049],[13.549008708598752,45.826785457059934],[13.55714633051155,45.82077613631564],[13.55310769785467,45.82063593043117],[13.54151300783569,45.820013676887605],[13.538560013837877,45.81917091817876],[13.537046395064019,45.8180486994318],[13.535086583359462,45.81664189455374],[13.529199279812932,45.81759340222149],[13.524274215195131,45.81922190326349],[13.52025579211518,45.820628831742454],[13.519843159938876,45.82079373836512],[13.50844600495131,45.819557164996965],[13.508495061667288,45.818983627521774],[13.508490238399153,45.817759633016756],[13.508115606510076,45.814364905990914],[13.507865465602594,45.81315763524224],[13.507833869712114,45.81302746343977],[13.507749683237122,45.81268065389994],[13.507249440347458,45.81211532659367],[13.506435117061908,45.81129689504119],[13.50542827136563,45.81044553314057],[13.504065077732069,45.809932295623994],[13.503284448778334,45.80976959710303],[13.499302766313978,45.809436207933864],[13.498789283457038,45.80953721070783],[13.498483848794558,45.80959729244541],[13.498301038926547,45.80963325489311],[13.498136342423557,45.80966718380342],[13.497232457859825,45.80985993401129],[13.49613165892958,45.810105876272495],[13.478720637228953,45.81637384180882],[13.473756825514027,45.8183175262695],[13.469064762878494,45.825608081421144],[13.471514323732707,45.8264211780753],[13.473897992735218,45.82823606268039],[13.475866641863055,45.831124772533],[13.47660326439195,45.83244145952833],[13.476216760411493,45.83478345957233],[13.475233914027356,45.836374769127794],[13.473902657379867,45.84009372802891],[13.476182266682104,45.84312906940325],[13.480080399885885,45.8427930576164],[13.48872867093094,45.8401875261949],[13.501051367051128,45.8464476631178],[13.513760803563525,45.85280491897149]]]},"properties":{"name":"Ronchi dei Legionari","op_id":"3949","minint_elettorale":"1060350130","minint_finloc":"2060350130","prov_name":"Gorizia","prov_istat_code":"031","prov_istat_code_num":31,"prov_acr":"GO","prov_iso_3166_2":"IT-GO","reg_name":"Friuli-Venezia Giulia","reg_istat_code":"06","reg_istat_code_num":6,"reg_iso_3166_2":"IT-36","opdm_id":"3800","com_catasto_code":"H531","com_istat_code":"031016","com_istat_code_num":31016,"prov_uts_code":"031","prov_tipo_uts":"Unità non amministrativa"}},
{"type":"Feature","geometry":{"type":"Polygon","coordinates":[[[13.543611331958209,45.867848814267994],[13.513655611848264,45.85964106976968],[13.51214210492034,45.86087566906194],[13.505254073458167,45.86646330257558],[13.503938535066178,45.867491920850526],[13.503136700511678,45.8680976516335],[13.502806970369488,45.86834672457208],[13.501782651147654,45.86904425946166],[13.501563027482177,45.868994807405535],[13.50151815990632,45.86898277042385],[13.498934187780705,45.867876873349594],[13.497020189937217,45.8670043510947],[13.496176091445403,45.86680820788951],[13.495612692657238,45.8666772885205],[13.49430148511806,45.86653545190745],[13.492833707267142,45.866498775263096],[13.492702730239962,45.86651357600002],[13.49252860921878,45.866533253785626],[13.491916778644349,45.866602407773165],[13.490957112112172,45.86682473408433],[13.485246151127237,45.868386188547326],[13.483231505606243,45.869019004592985],[13.482386245548696,45.86931326322566],[13.480441616338343,45.87031638490489],[13.479431924127201,45.870959584452144],[13.477060144495017,45.872518149470636],[13.475714661955061,45.87344588080126],[13.474939652291718,45.874002867236236],[13.474261017873172,45.87431753052173],[13.47360099701466,45.87488350718175],[13.474030294376131,45.87520422624512],[13.477459824242068,45.876545842205665],[13.479595548643724,45.877320672277946],[13.482258710903299,45.878247586096634],[13.483451378481464,45.878443748329985],[13.483638601544342,45.878473725138264],[13.484838147431548,45.87866572280066],[13.485049517295451,45.87869755877757],[13.486184647938506,45.878867328145404],[13.492610927506753,45.879987041526235],[13.498336255579257,45.881661903367956],[13.51009174671261,45.8874792109175],[13.51474623789094,45.88978843447916],[13.519807913837957,45.892414300220615],[13.530218698322205,45.89690240395676],[13.530377474167423,45.89692755610249],[13.53169532688868,45.89713626932713],[13.536650221471309,45.897911406804255],[13.53679638442184,45.897929481598155],[13.538193987475193,45.89810221762699],[13.539837442598262,45.898302135829994],[13.54192183104766,45.8984821016496],[13.553201912435798,45.898943950695816],[13.556155101936746,45.89705549190833],[13.554213204389667,45.89325973400378],[13.546731192237864,45.88708635088133],[13.54353004969438,45.88081849135567],[13.544277144050383,45.872935056823806],[13.543611331958209,45.867848814267994]]]},"properties":{"name":"Sagrado","op_id":"3950","minint_elettorale":"1060350140","minint_finloc":"2060350140","prov_name":"Gorizia","prov_istat_code":"031","prov_istat_code_num":31,"prov_acr":"GO","prov_iso_3166_2":"IT-GO","reg_name":"Friuli-Venezia Giulia","reg_istat_code":"06","reg_istat_code_num":6,"reg_iso_3166_2":"IT-36","opdm_id":"3801","com_catasto_code":"H665","com_istat_code":"031017","com_istat_code_num":31017,"prov_uts_code":"031","prov_tipo_uts":"Unità non amministrativa"}},
{"type":"Feature","geometry":{"type":"Polygon","coordinates":[[[13.460767134404094,45.75248186403125],[13.45953063859633,45.75078393992457],[13.458848046553719,45.75030657102228],[13.456293587365899,45.749531662904865],[13.452079161534423,45.748257698904304],[13.450873535511116,45.74805274344701],[13.449615825825445,45.748020808252654],[13.448655565811059,45.748323819426446],[13.448148872143278,45.748964686865236],[13.447967256454486,45.749489354935776],[13.443559754258546,45.754535438166556],[13.43700448635358,45.75808071411999],[13.433432926864048,45.75998226830828],[13.432808688088251,45.759147908024],[13.431716078890538,45.758223371263995],[13.429756672532257,45.7570483162471],[13.42798320931939,45.75606853939446],[13.426124395291602,45.755208328512346],[13.42481855152426,45.75498805648584],[13.424416816476787,45.75492068769667],[13.423088311786968,45.755047830407015],[13.421621801143845,45.75552778248507],[13.420756990450238,45.75606537588328],[13.419975382457856,45.75688330078583],[13.419688022649188,45.757538041611866],[13.42201636676989,45.76249304026248],[13.422868095885292,45.763253339545834],[13.422905729142622,45.763272214089255],[13.424215023950923,45.76385696847524],[13.42569901464915,45.76504607086216],[13.427997886903231,45.771595324792735],[13.433676529096617,45.776361416730445],[13.437614129206676,45.7790886866337],[13.440286426645674,45.78568618473339],[13.433018534966923,45.79981953899369],[13.43350549763119,45.79996062540225],[13.433813124358176,45.80006149739531],[13.431641948434637,45.80366602364155],[13.430925966072115,45.80482204779663],[13.429747256852375,45.80655531685785],[13.428702999790293,45.80807012734284],[13.428249034942965,45.808709168870095],[13.431495351862214,45.80922014309056],[13.432898681225774,45.809651648350155],[13.434084398168958,45.81005561951791],[13.43442883664226,45.810205277351336],[13.438430133861289,45.812629879912066],[13.443305506837447,45.81563056432554],[13.452638840198428,45.818060564005634],[13.454779860179128,45.81843939092851],[13.462484878462625,45.8213233661228],[13.462850927471461,45.8244974655946],[13.461803114032955,45.82562692765065],[13.469064762878494,45.825608081421144],[13.473756825514027,45.8183175262695],[13.471823755256175,45.81747970609709],[13.475302457070061,45.80933653343512],[13.482952852897162,45.80261032651895],[13.483010947308019,45.79655783929087],[13.482548159745837,45.78896538337883],[13.48279350506885,45.776601351219114],[13.484658676412844,45.774718726594934],[13.493260689581007,45.766166734111735],[13.497097997385813,45.76075821044849],[13.496686143038218,45.75927123688936],[13.496561095380434,45.75878108806836],[13.49652649075104,45.7581613429842],[13.496592712188988,45.757596158178835],[13.496749149427387,45.756973397653326],[13.49710193862872,45.75587480770154],[13.497692566553907,45.7549153590627],[13.498350293272765,45.75388126636835],[13.50041469005462,45.75169346887597],[13.502127569856684,45.75013160437405],[13.50312408280499,45.749444155433636],[13.504430842316717,45.74866793802969],[13.505718472266256,45.74806346234237],[13.519346915200742,45.73930578159014],[13.520408966846666,45.738489561071255],[13.521656507677108,45.73755346500079],[13.523838999767156,45.73614816436336],[13.525120472653278,45.735354698263315],[13.527430666926804,45.73397129107913],[13.529136157659789,45.73315643142636],[13.52859528642235,45.73272785945475],[13.528400445325822,45.73261814685878],[13.528304136594459,45.73256392138941],[13.527227043130267,45.73197207221731],[13.526837568882026,45.73190288656672],[13.52652280955106,45.73184699002158],[13.525699476087174,45.731897686311896],[13.52444066410679,45.7322851932212],[13.524064512897748,45.73243705803355],[13.52314386800942,45.73280923329419],[13.521981215457796,45.733321331197004],[13.521821176709526,45.73341390361426],[13.52140502477774,45.733657676773866],[13.52032089449001,45.73421561174014],[13.51821698872794,45.73523512096179],[13.515677280588669,45.73609831243187],[13.514384378212009,45.73641491431684],[13.513094292529946,45.73659651719044],[13.508361639637505,45.73718849669274],[13.508321036504244,45.737190984318914],[13.508061658295475,45.7372059342751],[13.50704854774734,45.737263215312595],[13.505839511050155,45.737274995509715],[13.503416858120348,45.73654257420925],[13.502571897799083,45.73593684908995],[13.501404696233815,45.73492077980298],[13.500663666371914,45.73424792697537],[13.499665217017835,45.7340803097539],[13.499156822848928,45.734127375685325],[13.49909725788488,45.73413297834004],[13.498901168175461,45.73415489130379],[13.498830657688845,45.73417447022502],[13.498250998660595,45.73435609948374],[13.498101310165664,45.73440305163465],[13.498050466790385,45.73444341271938],[13.49792424036571,45.734543618927354],[13.497445079159343,45.734924010671335],[13.496766326111784,45.73554713690877],[13.49213044052561,45.74121145926397],[13.485081270054778,45.74686693320694],[13.48404115701291,45.74766235351357],[13.483422880052748,45.74806015510546],[13.482667395136712,45.74854454079858],[13.481922482702823,45.7490193513574],[13.479484078716803,45.75025834057294],[13.479112837490307,45.75040391834407],[13.475785395401058,45.75152340294002],[13.46655577894251,45.754271582954665],[13.46600599139358,45.75435910763123],[13.465355892979456,45.754462588459006],[13.464313804228121,45.754435864626586],[13.463409960788951,45.75431990907011],[13.463238708012291,45.75429793481259],[13.462275629312112,45.75379105146784],[13.461214701166611,45.7530449339043],[13.460767134404094,45.75248186403125]]]},"properties":{"name":"San Canzian d'Isonzo","op_id":"3951","minint_elettorale":"1060350150","minint_finloc":"2060350150","prov_name":"Gorizia","prov_istat_code":"031","prov_istat_code_num":31,"prov_acr":"GO","prov_iso_3166_2":"IT-GO","reg_name":"Friuli-Venezia Giulia","reg_istat_code":"06","reg_istat_code_num":6,"reg_iso_3166_2":"IT-36","opdm_id":"3802","com_catasto_code":"H787","com_istat_code":"031018","com_istat_code_num":31018,"prov_uts_code":"031","prov_tipo_uts":"Unità non amministrativa"}},
{"type":"Feature","geometry":{"type":"Polygon","coordinates":[[[13.530151401842424,45.9541605646868],[13.522952509162295,45.954097081730644],[13.519083763018456,45.959349667913926],[13.51740615491425,45.96173855225185],[13.5192684077515,45.963832159512634],[13.521587018221235,45.9664284726136],[13.524919345234373,45.96919125651302],[13.526029550305472,45.97092914442928],[13.526141938307537,45.97202260497359],[13.526603863274797,45.969191369789215],[13.52680843944013,45.96828762494784],[13.527023635680324,45.96789244819965],[13.52721676117889,45.967537816089525],[13.52767668939472,45.967167271937356],[13.52770206399803,45.9671468396433],[13.527813161123829,45.96705880643827],[13.528113170946286,45.966968106336076],[13.528710592697688,45.96678749100888],[13.528838478945916,45.966748828589004],[13.530576085306196,45.96639177040572],[13.533452175455416,45.96595793015101],[13.540980039815597,45.964866317803185],[13.542477578083899,45.96476292364009],[13.542712858985729,45.9647477910539],[13.544008381859545,45.965051750513666],[13.544073218381612,45.96507744037334],[13.545081495878838,45.96547704024154],[13.54551067394464,45.965717427773676],[13.545959175475348,45.965968637173226],[13.546308522074531,45.9665798012188],[13.54639189410735,45.9667299956982],[13.556251897651679,45.969344748824994],[13.565528640174213,45.968948243949285],[13.568710077918897,45.969172967741336],[13.57365144645895,45.97471329668855],[13.576378942536776,45.98012168555852],[13.580688671613943,45.98407248038068],[13.585099039133716,45.98802576326907],[13.589911291189168,45.98966828186296],[13.590541479716908,45.98977343639933],[13.591563439571372,45.98967829573111],[13.593479462932388,45.98949311136139],[13.601167020010676,45.9876055626236],[13.604214798651485,45.98671986628127],[13.600696791485765,45.984563482682],[13.599486546960883,45.983756627023354],[13.598874675837633,45.98238967555865],[13.601288464446922,45.98156472170592],[13.601852115844464,45.981438118461796],[13.603151546172429,45.97500420711872],[13.596044194476358,45.96037252775896],[13.594883911628845,45.95994999050946],[13.580253186987875,45.96139195588236],[13.574759137602827,45.96323272712147],[13.568969209723996,45.963622372030066],[13.559810332362181,45.96140107678106],[13.558653843879782,45.96072721522842],[13.558179061772055,45.95903978463766],[13.555117496391164,45.95972709594814],[13.54337223068181,45.95635033422017],[13.534938010400964,45.95604096586772],[13.530151401842424,45.9541605646868]]]},"properties":{"name":"San Floriano del Collio-Števerjan","op_id":"3952","minint_elettorale":"1060350160","minint_finloc":"2060350160","prov_name":"Gorizia","prov_istat_code":"031","prov_istat_code_num":31,"prov_acr":"GO","prov_iso_3166_2":"IT-GO","reg_name":"Friuli-Venezia Giulia","reg_istat_code":"06","reg_istat_code_num":6,"reg_iso_3166_2":"IT-36","opdm_id":"3803","com_catasto_code":"H845","com_istat_code":"031019","com_istat_code_num":31019,"prov_uts_code":"031","prov_tipo_uts":"Unità non amministrativa"}},
{"type":"Feature","geometry":{"type":"Polygon","coordinates":[[[13.511989547098326,45.9326762418516],[13.512583029183107,45.932793693973885],[13.51444833510902,45.933339514325155],[13.517038791880822,45.934343656920646],[13.522510561717054,45.936670095338144],[13.524634048896504,45.93869461889374],[13.527917199758031,45.94299050202925],[13.528819950349146,45.944507381450286],[13.530501651890361,45.94822563049466],[13.531188983243638,45.950025581007125],[13.531868075348186,45.952457803954054],[13.532024428245204,45.953160537519324],[13.534957478300495,45.95319394915301],[13.535017640676966,45.95319319950498],[13.535483399456416,45.95318739164516],[13.535674056401161,45.95318185236405],[13.535900318026878,45.9529813584347],[13.537230602326243,45.95179925580268],[13.537944347846866,45.95088046931114],[13.538451647509824,45.94926372838158],[13.538820687197271,45.94506320949752],[13.538772391870795,45.94401793087897],[13.538723177174928,45.94371684063144],[13.538359695777888,45.942399257214994],[13.537211721864514,45.94238137741298],[13.531681940506344,45.93819164321487],[13.531706984746103,45.93798115924501],[13.53258424449143,45.93598290867449],[13.535448054274982,45.93019242545326],[13.539009477429108,45.925124573385965],[13.539352175652743,45.91998790643603],[13.534873410008242,45.92135400142581],[13.534459855334132,45.92147682445333],[13.533211233880472,45.921847644100126],[13.532762155081892,45.92191803583094],[13.53262726802965,45.92193917660101],[13.532057167731901,45.92202852580943],[13.525897712674128,45.92185008862525],[13.515674771665141,45.920729652083516],[13.513537655889879,45.92016164759663],[13.511001914029743,45.919478878965286],[13.510868556416495,45.919442963738746],[13.509632494050992,45.919110027600766],[13.508651200749702,45.92054847900685],[13.507938894093456,45.922111361884724],[13.507821664357225,45.92263356527251],[13.507346862815265,45.925599126583876],[13.507705045718644,45.92565734028203],[13.50799841031539,45.92570501811521],[13.510262470543589,45.92605116465904],[13.51475056332918,45.92688262810135],[13.515105496940182,45.92709360128491],[13.515252082457454,45.92743885982552],[13.515279511786071,45.927708480851024],[13.515292202484714,45.92783331338336],[13.51511339177179,45.92828145983679],[13.514881161393122,45.928727211192516],[13.514533274388963,45.92921805571538],[13.511989547098326,45.9326762418516]]]},"properties":{"name":"San Lorenzo Isontino","op_id":"3953","minint_elettorale":"1060350161","minint_finloc":"2060350161","prov_name":"Gorizia","prov_istat_code":"031","prov_istat_code_num":31,"prov_acr":"GO","prov_iso_3166_2":"IT-GO","reg_name":"Friuli-Venezia Giulia","reg_istat_code":"06","reg_istat_code_num":6,"reg_iso_3166_2":"IT-36","opdm_id":"3804","com_catasto_code":"H964","com_istat_code":"031020","com_istat_code_num":31020,"prov_uts_code":"031","prov_tipo_uts":"Unità non amministrativa"}},
{"type":"Feature","geometry":{"type":"Polygon","coordinates":[[[13.42814161228402,45.83460814306658],[13.428917440446451,45.83909221911968],[13.431784769880977,45.8407869251313],[13.439311430086537,45.845015983023714],[13.4428736260715,45.84608793409137],[13.445213379322988,45.847202930714346],[13.452125610540268,45.85080092416108],[13.453833244909317,45.85170028151558],[13.45595083926025,45.852816307869475],[13.457627463740666,45.8537708553713],[13.457901163933231,45.85399516451515],[13.458004865412557,45.85408015232444],[13.45968371328731,45.85627384854471],[13.460067876943459,45.856825911638246],[13.460066400486836,45.8573058422635],[13.45997817268553,45.8586507963136],[13.459798861316305,45.859550323264976],[13.459635890106615,45.86036134835053],[13.459750367840977,45.8608349079262],[13.460089942633529,45.8615867360275],[13.46045548403571,45.862369061287964],[13.460786886960062,45.86303457759909],[13.460833596496188,45.863128372153405],[13.461177814909172,45.86372700081318],[13.461636433832338,45.86412816303678],[13.461744254773087,45.864222428710534],[13.461832251412496,45.864273831225766],[13.462265706064395,45.86452700261334],[13.46241585522065,45.864614696602644],[13.463410801843136,45.864971810880014],[13.466957457425522,45.865737561585036],[13.471281230187861,45.86212441712986],[13.472857911766594,45.860118997163724],[13.472593626685557,45.85753936610657],[13.472711016215918,45.85186605419158],[13.476291740086966,45.85090883939049],[13.483391649551601,45.84816463418544],[13.47616224545871,45.848589167776254],[13.47521335171935,45.84793252874775],[13.474408356245844,45.84614470364681],[13.475203146470522,45.84373532772325],[13.47533122706316,45.84365597393606],[13.476182266682104,45.84312906940325],[13.473902657379867,45.84009372802891],[13.475233914027356,45.836374769127794],[13.476216760411493,45.83478345957233],[13.47660326439195,45.83244145952833],[13.475866641863055,45.831124772533],[13.473897992735218,45.82823606268039],[13.471514323732707,45.8264211780753],[13.469064762878494,45.825608081421144],[13.461803114032955,45.82562692765065],[13.457844213278596,45.82776204154174],[13.44877586100578,45.831848423361954],[13.442988689969177,45.834113465716364],[13.437327888794158,45.833981044462945],[13.435911021031423,45.83398663779933],[13.43342478874003,45.834069851805424],[13.432430404271683,45.8341161654668],[13.432258431766629,45.83412417821904],[13.429016158306133,45.83441498207654],[13.42814161228402,45.83460814306658]]]},"properties":{"name":"San Pier d'Isonzo","op_id":"3954","minint_elettorale":"1060350170","minint_finloc":"2060350170","prov_name":"Gorizia","prov_istat_code":"031","prov_istat_code_num":31,"prov_acr":"GO","prov_iso_3166_2":"IT-GO","reg_name":"Friuli-Venezia Giulia","reg_istat_code":"06","reg_istat_code_num":6,"reg_iso_3166_2":"IT-36","opdm_id":"3805","com_catasto_code":"I082","com_istat_code":"031021","com_istat_code_num":31021,"prov_uts_code":"031","prov_tipo_uts":"Unità non amministrativa"}},
{"type":"Feature","geometry":{"type":"Polygon","coordinates":[[[13.590326962983527,45.8883191401227],[13.590240088066922,45.887514048858975],[13.590059343135147,45.88654936940151],[13.585954994749844,45.87851225505101],[13.578884685918174,45.87193303077374],[13.574470257197147,45.8723173704438],[13.563593763988116,45.8708854090434],[13.554210404535661,45.868420773888516],[13.548334296788683,45.86554071076888],[13.543611331958209,45.867848814267994],[13.544277144050383,45.872935056823806],[13.54353004969438,45.88081849135567],[13.546731192237864,45.88708635088133],[13.554213204389667,45.89325973400378],[13.556155101936746,45.89705549190833],[13.553201912435798,45.898943950695816],[13.556894715803784,45.90860949655881],[13.563511494421732,45.911110670733166],[13.564409401375205,45.911532522346015],[13.56464271800489,45.91164213211583],[13.569616881358007,45.91395164356104],[13.573105545975396,45.91536452034957],[13.585393196834161,45.91795548388486],[13.588920566691208,45.91858210516419],[13.589191039576665,45.91847716563656],[13.589358455067739,45.918390693507504],[13.589251828358387,45.918305610763795],[13.588675919650164,45.91785091871355],[13.58787717560146,45.91693550342469],[13.587460565176137,45.91642951774883],[13.58542639971305,45.913756089641545],[13.58435038907715,45.91227789983979],[13.58377747630569,45.9114325277304],[13.583980360942109,45.91121163204953],[13.586545293238052,45.90970085695559],[13.586823265526993,45.90965293501483],[13.587558876764174,45.909528624980275],[13.591967949825591,45.908784263645465],[13.594539426523285,45.9084341442025],[13.609797399360193,45.90662249039401],[13.61360312227406,45.90746626893539],[13.612088818346804,45.904642571727415],[13.608855147862617,45.899161068513635],[13.608353527613318,45.89903757164797],[13.607099281424267,45.898678284738395],[13.604967376489487,45.89778988933745],[13.604333464277873,45.89752503912143],[13.601877981472471,45.896400320922744],[13.601781458484998,45.8963490556174],[13.600846437570388,45.89585237189587],[13.599902666044587,45.89535083968626],[13.59986849513966,45.89532923752012],[13.594993007257063,45.89154400173787],[13.594664311562537,45.890099321073045],[13.59627235613961,45.88840542663356],[13.596756151111219,45.88772287888407],[13.59687871472563,45.88748930090452],[13.596868938409067,45.88729512928447],[13.596862183438697,45.88725613739929],[13.59684778342615,45.88719358194182],[13.596838481708206,45.88715668203821],[13.596522960429226,45.8869811366592],[13.596376973238552,45.88694729815718],[13.59453730675849,45.88683630987774],[13.594318888651971,45.88682342694536],[13.594121697617796,45.88681691560374],[13.593873572817186,45.886889736729245],[13.590326962983527,45.8883191401227]]]},"properties":{"name":"Savogna d'Isonzo-Sovodnje ob Soči","op_id":"3955","minint_elettorale":"1060350180","minint_finloc":"2060350180","prov_name":"Gorizia","prov_istat_code":"031","prov_istat_code_num":31,"prov_acr":"GO","prov_iso_3166_2":"IT-GO","reg_name":"Friuli-Venezia Giulia","reg_istat_code":"06","reg_istat_code_num":6,"reg_iso_3166_2":"IT-36","opdm_id":"3806","com_catasto_code":"I479","com_istat_code":"031022","com_istat_code_num":31022,"prov_uts_code":"031","prov_tipo_uts":"Unità non amministrativa"}},
{"type":"Feature","geometry":{"type":"Polygon","coordinates":[[[13.553475422061943,45.726070499783944],[13.546793083457132,45.727812670610895],[13.540041773208712,45.72944617550757],[13.538579965972302,45.72981493622544],[13.535472064062892,45.73079645336084],[13.533407356190134,45.73152846725534],[13.531097032595046,45.73237192166035],[13.529136157659789,45.73315643142636],[13.527430666926804,45.73397129107913],[13.525120472653278,45.735354698263315],[13.523838999767156,45.73614816436336],[13.521656507677108,45.73755346500079],[13.520408966846666,45.738489561071255],[13.519346915200742,45.73930578159014],[13.505718472266256,45.74806346234237],[13.504430842316717,45.74866793802969],[13.50312408280499,45.749444155433636],[13.502127569856684,45.75013160437405],[13.50041469005462,45.75169346887597],[13.498350293272765,45.75388126636835],[13.497692566553907,45.7549153590627],[13.49710193862872,45.75587480770154],[13.496749149427387,45.756973397653326],[13.496592712188988,45.757596158178835],[13.49652649075104,45.7581613429842],[13.496561095380434,45.75878108806836],[13.496686143038218,45.75927123688936],[13.497097997385813,45.76075821044849],[13.493260689581007,45.766166734111735],[13.484658676412844,45.774718726594934],[13.48279350506885,45.776601351219114],[13.482548159745837,45.78896538337883],[13.483010947308019,45.79655783929087],[13.482952852897162,45.80261032651895],[13.475302457070061,45.80933653343512],[13.471823755256175,45.81747970609709],[13.473756825514027,45.8183175262695],[13.478720637228953,45.81637384180882],[13.49613165892958,45.810105876272495],[13.497232457859825,45.80985993401129],[13.498136342423557,45.80966718380342],[13.498301038926547,45.80963325489311],[13.498483848794558,45.80959729244541],[13.498789283457038,45.80953721070783],[13.499302766313978,45.809436207933864],[13.503284448778334,45.80976959710303],[13.504065077732069,45.809932295623994],[13.50542827136563,45.81044553314057],[13.505104689518378,45.81003524898709],[13.50508343497559,45.809991072575905],[13.504800361131709,45.80939465955587],[13.504728068140292,45.80870892401692],[13.505400309566399,45.80668404624288],[13.505753407781642,45.805977023234384],[13.506432091843841,45.80563513107358],[13.507553810299749,45.80555029647209],[13.508828892687498,45.805531389016465],[13.509856964257933,45.80557172701172],[13.512201901891098,45.8059605343165],[13.517701036717133,45.80530341591553],[13.517704458914228,45.79988725281805],[13.517493695683607,45.79954904766167],[13.517190321519877,45.79935855662851],[13.51536658091444,45.798662272751244],[13.512397447397843,45.797646132636835],[13.511128598733416,45.79655924085763],[13.511999448487147,45.794239758807905],[13.513362953324089,45.79135034954836],[13.51605528819358,45.78641000553994],[13.519688897705878,45.77787673987128],[13.520373126880802,45.77585131004611],[13.52054631178533,45.7755891716122],[13.520721214354051,45.77532443539373],[13.52153634714208,45.774698008557344],[13.524812912682451,45.772857767891445],[13.527238307258985,45.771991751324684],[13.527958610630275,45.771855255464345],[13.526942037613537,45.77146355101951],[13.525160877318813,45.76971147665013],[13.521909396661615,45.764711012033175],[13.520831167487437,45.762880136093465],[13.520714520719087,45.76217365422817],[13.520691177352521,45.761994550433755],[13.520675858378262,45.76181511947681],[13.520736620282316,45.757550551320605],[13.521676083627511,45.752783052540956],[13.523191995551706,45.75066160551027],[13.519832009552148,45.74701426694994],[13.517637146728452,45.74499848210821],[13.517189672945737,45.74359161062515],[13.52152254139313,45.740184158607605],[13.52559692296352,45.737147606195826],[13.52565034758691,45.737109812732825],[13.525688412232464,45.737085059986654],[13.526103107151169,45.7368175021129],[13.526498243989547,45.73663628728792],[13.526554176908396,45.73661599171543],[13.526605961133813,45.73661431386722],[13.527672910508215,45.73674301334003],[13.534470752445994,45.73630127366287],[13.553617113346133,45.72935033622124],[13.554398120115485,45.728297470197184],[13.55426637376438,45.72756779664811],[13.55385136566539,45.72599244062578],[13.553475422061943,45.726070499783944]]]},"properties":{"name":"Staranzano","op_id":"3956","minint_elettorale":"1060350190","minint_finloc":"2060350190","prov_name":"Gorizia","prov_istat_code":"031","prov_istat_code_num":31,"prov_acr":"GO","prov_iso_3166_2":"IT-GO","reg_name":"Friuli-Venezia Giulia","reg_istat_code":"06","reg_istat_code_num":6,"reg_iso_3166_2":"IT-36","opdm_id":"3807","com_catasto_code":"I939","com_istat_code":"031023","com_istat_code_num":31023,"prov_uts_code":"031","prov_tipo_uts":"Unità non amministrativa"}},
{"type":"Feature","geometry":{"type":"Polygon","coordinates":[[[13.426337282768033,45.813228031539],[13.426253141934234,45.82034684015163],[13.42605103489244,45.83296105357079],[13.426086731071997,45.83396782356982],[13.426557724402183,45.834116445921836],[13.427221696043691,45.83432257362479],[13.427600012695752,45.834440017199064],[13.42814161228402,45.83460814306658],[13.429016158306133,45.83441498207654],[13.432258431766629,45.83412417821904],[13.432430404271683,45.8341161654668],[13.43342478874003,45.834069851805424],[13.435911021031423,45.83398663779933],[13.437327888794158,45.833981044462945],[13.442988689969177,45.834113465716364],[13.44877586100578,45.831848423361954],[13.457844213278596,45.82776204154174],[13.461803114032955,45.82562692765065],[13.462850927471461,45.8244974655946],[13.462484878462625,45.8213233661228],[13.454779860179128,45.81843939092851],[13.452638840198428,45.818060564005634],[13.443305506837447,45.81563056432554],[13.438430133861289,45.812629879912066],[13.43442883664226,45.810205277351336],[13.434084398168958,45.81005561951791],[13.432898681225774,45.809651648350155],[13.431495351862214,45.80922014309056],[13.428249034942965,45.808709168870095],[13.426337282768033,45.813228031539]]]},"properties":{"name":"Turriaco","op_id":"3957","minint_elettorale":"1060350200","minint_finloc":"2060350200","prov_name":"Gorizia","prov_istat_code":"031","prov_istat_code_num":31,"prov_acr":"GO","prov_iso_3166_2":"IT-GO","reg_name":"Friuli-Venezia Giulia","reg_istat_code":"06","reg_istat_code_num":6,"reg_iso_3166_2":"IT-36","opdm_id":"3808","com_catasto_code":"L474","com_istat_code":"031024","com_istat_code_num":31024,"prov_uts_code":"031","prov_tipo_uts":"Unità non amministrativa"}},
{"type":"Feature","geometry":{"type":"Polygon","coordinates":[[[13.428917440446451,45.83909221911968],[13.421073158046884,45.84036192390878],[13.415808777985117,45.84588846922934],[13.416011994331221,45.84933671239041],[13.416017475223395,45.84939938555203],[13.415939940729578,45.84955835470727],[13.415388702895816,45.85068840677514],[13.414497035871639,45.85214514319326],[13.413107071945348,45.85435474983181],[13.412371007732299,45.855459137751744],[13.411736897649885,45.8561103004148],[13.411707126826698,45.85614086856946],[13.411613435290821,45.85623583885633],[13.410976142776397,45.8568270451798],[13.410894194741424,45.8568392071347],[13.410728236161528,45.856862377449694],[13.413244519290746,45.86358477914001],[13.41872580262632,45.86745909735633],[13.419815245144461,45.867214358752236],[13.420894800312894,45.86699028203565],[13.421201669862818,45.86692659189194],[13.42234249712847,45.866828881503324],[13.422742442166708,45.86679463358413],[13.422883195281972,45.8667827289976],[13.424159011743168,45.866676882779345],[13.424978037194812,45.866870140699284],[13.425688372463943,45.86726563182182],[13.425885221973555,45.86805011262803],[13.425562154854363,45.868600085648964],[13.425127676769813,45.869339682877],[13.42404691416464,45.87064628753529],[13.42332501726677,45.87112887650071],[13.423160550454687,45.8712385641066],[13.423800492304897,45.871556842595176],[13.429484970097153,45.87292407705045],[13.430785379931535,45.87249550357615],[13.431206070424942,45.87219561509799],[13.432032064389762,45.872132012660074],[13.436924718809086,45.87224331848566],[13.43813583394386,45.87228168719993],[13.438549113293474,45.87229667925903],[13.43879252476476,45.87230564551861],[13.439276401694057,45.87248484084571],[13.445492126258921,45.87609064464375],[13.447120468659001,45.87787687608541],[13.448413325909758,45.87932935728744],[13.457505929958213,45.87865524678711],[13.4613476174569,45.877904313142466],[13.469828630214266,45.86820843801958],[13.466957457425522,45.865737561585036],[13.463410801843136,45.864971810880014],[13.46241585522065,45.864614696602644],[13.462265706064395,45.86452700261334],[13.461832251412496,45.864273831225766],[13.461744254773087,45.864222428710534],[13.461636433832338,45.86412816303678],[13.461177814909172,45.86372700081318],[13.460833596496188,45.863128372153405],[13.460786886960062,45.86303457759909],[13.46045548403571,45.862369061287964],[13.460089942633529,45.8615867360275],[13.459750367840977,45.8608349079262],[13.459635890106615,45.86036134835053],[13.459798861316305,45.859550323264976],[13.45997817268553,45.8586507963136],[13.460066400486836,45.8573058422635],[13.460067876943459,45.856825911638246],[13.45968371328731,45.85627384854471],[13.458004865412557,45.85408015232444],[13.457901163933231,45.85399516451515],[13.457627463740666,45.8537708553713],[13.45595083926025,45.852816307869475],[13.453833244909317,45.85170028151558],[13.452125610540268,45.85080092416108],[13.445213379322988,45.847202930714346],[13.4428736260715,45.84608793409137],[13.439311430086537,45.845015983023714],[13.431784769880977,45.8407869251313],[13.428917440446451,45.83909221911968]]]},"properties":{"name":"Villesse","op_id":"3958","minint_elettorale":"1060350210","minint_finloc":"2060350210","prov_name":"Gorizia","prov_istat_code":"031","prov_istat_code_num":31,"prov_acr":"GO","prov_iso_3166_2":"IT-GO","reg_name":"Friuli-Venezia Giulia","reg_istat_code":"06","reg_istat_code_num":6,"reg_iso_3166_2":"IT-36","opdm_id":"3809","com_catasto_code":"M043","com_istat_code":"031025","com_istat_code_num":31025,"prov_uts_code":"031","prov_tipo_uts":"Unità non amministrativa"}}
]}