{"type":"FeatureCollection","bbox":[10.964114436947819,43.758401540599806,11.212819628865635,44.11181087818379], "features": [
{"type":"Feature","geometry":{"type":"Polygon","coordinates":[[[11.049427124629327,44.0902460680692],[11.050038933698078,44.09053969437038],[11.05063256221714,44.09076682586132],[11.050937792880465,44.09088359793044],[11.05141270453173,44.09103812103313],[11.051619938782851,44.09110550269153],[11.051987027336308,44.0911773512249],[11.05246258501813,44.09127042608189],[11.054281785368627,44.091498805200146],[11.06762488152044,44.091846128690165],[11.076696622119716,44.09163358445689],[11.082545007543988,44.08985215778162],[11.088796481752969,44.09001687593694],[11.09044950072995,44.090684918746796],[11.091789178913348,44.09206037413656],[11.092907479766273,44.09366047073465],[11.093220835446381,44.09445749992834],[11.095464721356416,44.09373508236521],[11.096760918574658,44.0932971483227],[11.0974597783059,44.09292419106757],[11.09946599576871,44.090312441092394],[11.104526274542554,44.0833049183115],[11.104457069418322,44.0810013984635],[11.104139172337657,44.079080591014765],[11.10389378421564,44.078499909694756],[11.103426298077991,44.07799534417288],[11.103240252377825,44.077649932488555],[11.103198139152564,44.07757167363275],[11.103172107151362,44.077522891231574],[11.103013619294705,44.07692257047341],[11.102877526955504,44.0755562980163],[11.103928201349435,44.07067539910573],[11.107314554169287,44.06720994917921],[11.112284099483572,44.06404807235658],[11.107010262117129,44.055491689951104],[11.105808906048278,44.053273858231094],[11.108071816058578,44.049349255498456],[11.109565540101345,44.04727145181924],[11.110484019963124,44.04662341658941],[11.110941556609129,44.04630069487468],[11.118765329489676,44.043778978941816],[11.122312196247565,44.043479800997176],[11.12333501532298,44.04346902876166],[11.127361858005793,44.0429889469563],[11.129030582197151,44.04253470153954],[11.129814666695129,44.04212394343913],[11.133568073315189,44.039869032338444],[11.133565853201171,44.03983316263696],[11.133539965251462,44.03950651395418],[11.133505850715682,44.039471139250104],[11.133212219843141,44.03916886511355],[11.132896264119271,44.03903236766702],[11.132556474720568,44.03888565906777],[11.132000465933109,44.038688967593714],[11.129776980721278,44.03793817716572],[11.129516962908937,44.03789954474548],[11.129338422511427,44.03787322789615],[11.12907428060823,44.03783449489538],[11.128768099704518,44.03779694373268],[11.123288606409734,44.03099150811885],[11.12296555123131,44.02858466231037],[11.12513845449927,44.02339443110248],[11.137361910466105,44.020843501102014],[11.14489787759863,44.02075623585107],[11.152290208426283,44.02144095057331],[11.155598299326327,44.021379437322366],[11.156382962860114,44.02136374476585],[11.156847916438695,44.02128293969904],[11.15735996800295,44.02112471544666],[11.15797652756256,44.020923999594466],[11.161672657713426,44.01851777329629],[11.163397861693982,44.01595521068534],[11.165074354507288,44.013600618686894],[11.16659696490202,44.01267592572275],[11.171546542297541,44.010371636713344],[11.174033388856781,44.00997995312586],[11.175642324544889,44.00937536164336],[11.175765949098928,44.009281320909395],[11.176467609336068,44.008747419651826],[11.177033233895724,44.006904485767514],[11.17711416658524,44.006218700270374],[11.177086691080284,44.005467726848565],[11.17708058598057,44.005301014504475],[11.1765121483876,44.00416844304171],[11.179111897934833,43.99435039164536],[11.175880881779793,43.98714842732197],[11.173229290600261,43.98378016408522],[11.171058770830967,43.98040629549548],[11.167339699235907,43.978782754092705],[11.166269856849224,43.978420414251644],[11.165420176519753,43.978283472814574],[11.156393538843552,43.97708126823459],[11.152770354264234,43.97669945341971],[11.14792753138908,43.97724079731289],[11.146686149356956,43.977390182057206],[11.145432625330377,43.977548785595744],[11.137301668051109,43.97992503456967],[11.126017339021903,43.978406919027876],[11.116724947601309,43.97524842225242],[11.104044311435352,43.976274905059384],[11.099218842096327,43.974482133234226],[11.085996219439007,43.9714202010529],[11.081782929495578,43.97080609265323],[11.081478760175125,43.97201456076269],[11.081056202299099,43.97358352655139],[11.077550574508606,43.97625586219546],[11.07368127443319,43.98037677314821],[11.07220101741985,43.981983734470504],[11.071477604110507,43.98288720344594],[11.062819618468858,43.98433766449096],[11.049402519297146,43.99302424824348],[11.037414739921266,43.99839757990297],[11.036390958706505,43.99873095096117],[11.034981376745959,43.99908919486441],[11.034467756623691,43.9991372059197],[11.034148396166694,43.99916705629797],[11.03296055945365,43.999080166559004],[11.030219123115353,43.998786807666136],[11.022293649042856,43.997720978597066],[11.017881057989067,43.99687096026867],[11.014333101862455,43.99573846920509],[11.01169909637454,44.005479679532435],[11.016822262976358,44.00719915564249],[11.020988842457404,44.00904319092141],[11.029862449452176,44.017950818547675],[11.033200338749264,44.02205507269851],[11.038025166038146,44.0289287605821],[11.039742863699283,44.033198506752704],[11.039135184364268,44.03519951762292],[11.04016732626429,44.04503993972585],[11.044574616210275,44.05081649784548],[11.049458281879993,44.061297196457595],[11.054160555004202,44.072301845058206],[11.051648731046868,44.07791075752262],[11.04776299028959,44.086506617353834],[11.049427124629327,44.0902460680692]]]},"properties":{"name":"Cantagallo","op_id":"7963","minint_elettorale":"2091000010","minint_finloc":"3091000010","prov_name":"Prato","prov_istat_code":"100","prov_istat_code_num":100,"prov_acr":"PO","prov_iso_3166_2":"IT-PO","reg_name":"Toscana","reg_istat_code":"09","reg_istat_code_num":9,"reg_iso_3166_2":"IT-52","opdm_id":"4698","com_catasto_code":"B626","com_istat_code":"100001","com_istat_code_num":100001,"prov_uts_code":"100","prov_tipo_uts":"Provincia"}},
{"type":"Feature","geometry":{"type":"Polygon","coordinates":[[[10.964114436947819,43.81248327474456],[10.973059294830406,43.8154655965937],[10.980030344512086,43.818948639332326],[10.9843318425717,43.82358474652951],[10.984076140901813,43.82429318133073],[10.98406774431508,43.824917849924724],[10.984065474376504,43.82510430259322],[10.984187830864876,43.82562689218725],[10.9842251075951,43.82578520792627],[10.988346262156583,43.82780236152146],[10.989291018593988,43.828164059781734],[10.998349558380339,43.830914048687994],[11.004811688791948,43.83076469589865],[11.013115904475436,43.83372930886073],[11.015214546046495,43.83572274961839],[11.018643017461324,43.83871464164017],[11.020940319530315,43.84063652649606],[11.021065162768457,43.84073587313655],[11.021362888261494,43.84096058971231],[11.023477148823163,43.840714806135544],[11.024432737718904,43.84056483340745],[11.027421076489025,43.839900452475916],[11.028821546933964,43.83954401075383],[11.028864162478746,43.83953298358076],[11.032400452967364,43.83850838777807],[11.032820795619172,43.838137420942324],[11.040340347236471,43.83071403559092],[11.038677575593027,43.83038153792456],[11.035541022245432,43.82983133600374],[11.035224395204004,43.829776855329385],[11.032822977278379,43.829378443049755],[11.031912277076932,43.829295607820455],[11.031269169448837,43.829319816238105],[11.031030378956398,43.82932889951968],[11.03066101591296,43.82934374994403],[11.030223109339241,43.829361654059255],[11.029726545343538,43.8293884849046],[11.028978954535452,43.829347744909256],[11.027965364003174,43.82916770622276],[11.027291786867309,43.828738452951654],[11.026515025028006,43.828203022337206],[11.025887424112929,43.8276649421796],[11.02576431640314,43.827554580983346],[11.025335930490138,43.82717052695431],[11.02516461540303,43.82688545243371],[11.02489321492278,43.826215002845224],[11.02490215521321,43.82618756453413],[11.025017149811807,43.82583466069131],[11.025237034341817,43.82550881666267],[11.025337964871499,43.82536057472384],[11.03094222034253,43.81800514785786],[11.037069734549272,43.81419495805603],[11.035040040280853,43.81008052409877],[11.033162802007778,43.80459437430028],[11.038707018847976,43.8021640892471],[11.039987384303277,43.80165504380473],[11.042074665663407,43.800925054506706],[11.043028075413682,43.80078138654954],[11.046096458361115,43.800357327594554],[11.046361251568706,43.800348119015325],[11.047164238715428,43.80032019129267],[11.04819782394028,43.80037369294015],[11.048241948903968,43.80039730512497],[11.048653226169522,43.80061744015178],[11.05725985551333,43.80435231372367],[11.062946044538148,43.80522242815524],[11.065175295887034,43.801237931569695],[11.065736193786694,43.800284409944666],[11.06862800253977,43.79742753646157],[11.073931688079284,43.793930706968546],[11.07806227647647,43.792581787221124],[11.075882320867693,43.78999714054532],[11.06927418987371,43.78869555227161],[11.06252878001636,43.78958041718106],[11.056195596772504,43.782394062859396],[11.05597812607514,43.781596429495586],[11.055939657562174,43.78145329917194],[11.056014402543441,43.78114778270425],[11.056157806649063,43.78056702658246],[11.05634146917814,43.78041135205427],[11.056854944314368,43.77998010800696],[11.056967044139476,43.779886198048786],[11.057165865444327,43.77977435789866],[11.058210608657769,43.77918853530735],[11.05867843474828,43.77895497369498],[11.0589050551811,43.77884230003701],[11.059188472441468,43.77870274296716],[11.064925921468232,43.77608718128585],[11.063851778126349,43.775926520588456],[11.063715575874483,43.77585020036906],[11.063267859929098,43.77556792250711],[11.062647972711583,43.77488584455316],[11.062151349394977,43.77417452653901],[11.059494138173454,43.76771289825547],[11.057697554119802,43.76133474237572],[11.057625447360126,43.760318639167956],[11.05729418058009,43.759352223668074],[11.056728716306486,43.75876793461094],[11.05589959319343,43.75853099104496],[11.055659983183853,43.758489529923025],[11.055087722294951,43.758401540599806],[11.054021926643554,43.75847472887934],[11.052774834338441,43.758695222053795],[11.052629850810067,43.758751060955724],[11.051573281057314,43.75915798013846],[11.050594559859436,43.75959871810246],[11.050475668418583,43.75966387739742],[11.04935099274578,43.76028729585039],[11.048640936783551,43.760957290074856],[11.046313277759744,43.76373608730581],[11.045822589288111,43.764332017778564],[11.034755024498908,43.766895695287786],[11.032227491726966,43.76971557269449],[11.028661354387678,43.77884372604728],[11.028615739875697,43.779376160477824],[11.028532096351986,43.77941553465802],[11.028115643782442,43.77960971183831],[11.026500302657432,43.779980511589336],[11.025560398443918,43.780114226692575],[11.023752056262591,43.78029033076755],[11.018957315770383,43.779240720563784],[11.015304152800807,43.7766581793591],[11.014168987684474,43.77578684782812],[11.009867155665727,43.775340401310565],[11.001504211235575,43.77640559328196],[11.001422059615376,43.77641680409357],[11.00022926337751,43.7765899799057],[10.99998457250574,43.776637731323305],[10.999266304968227,43.7767778994242],[10.998255765927441,43.777029670187645],[10.994567729178934,43.7793496860174],[10.992084969704631,43.78091892602261],[10.982369299647862,43.78436521523923],[10.977817078002273,43.78538098541777],[10.978956633555201,43.7879260866438],[10.979089802355364,43.78835661937705],[10.97922769516453,43.788804407432735],[10.979249758284503,43.78887605407455],[10.979788802840666,43.79202695477206],[10.9796879360473,43.79386542320315],[10.979164087565419,43.79497540296886],[10.979058948136956,43.795173678372954],[10.976684577244427,43.798527232407466],[10.975485542726547,43.79986248685298],[10.974970645077425,43.8004189246439],[10.974873903827033,43.80052346123196],[10.974822962924282,43.800578387667265],[10.974601324630141,43.800817171013016],[10.974476827957762,43.8009511200235],[10.974389650220898,43.80102560528551],[10.974280354774562,43.80111872838457],[10.9741921568468,43.801193844269235],[10.97367069553234,43.8016373260343],[10.973255902541998,43.80198983740826],[10.972551002553772,43.802479197091],[10.966354535825422,43.80858333933432],[10.964114436947819,43.81248327474456]]]},"properties":{"name":"Carmignano","op_id":"7964","minint_elettorale":"2091000020","minint_finloc":"3091000020","prov_name":"Prato","prov_istat_code":"100","prov_istat_code_num":100,"prov_acr":"PO","prov_iso_3166_2":"IT-PO","reg_name":"Toscana","reg_istat_code":"09","reg_istat_code_num":9,"reg_iso_3166_2":"IT-52","opdm_id":"4699","com_catasto_code":"B794","com_istat_code":"100002","com_istat_code_num":100002,"prov_uts_code":"100","prov_tipo_uts":"Provincia"}},
{"type":"Feature","geometry":{"type":"Polygon","coordinates":[[[11.024797232526263,43.896353305316225],[11.024512912359,43.896925979770906],[11.024939176272166,43.8973464552708],[11.025013455656584,43.89741986440331],[11.025041138341509,43.89748325400746],[11.02510256641769,43.89762443026405],[11.025197817865214,43.89784406248704],[11.025366024141064,43.898234021186035],[11.025498706946506,43.898812634768596],[11.025600228639908,43.89925639612065],[11.02561394889462,43.89943217375993],[11.02564433244121,43.89983168679284],[11.025295994136323,43.9020436887961],[11.024396742837569,43.90286767720181],[11.023388054391893,43.90339496016003],[11.022998099291875,43.90385590683085],[11.022640680103363,43.90432536950694],[11.018565012806883,43.91029305806375],[11.020460042773667,43.9216523240518],[11.02186065937369,43.92472675936909],[11.024088233142916,43.92693745514586],[11.02471033674353,43.928051777905864],[11.027329566620105,43.93405953144955],[11.027709660724293,43.93623626530941],[11.027981674508267,43.93790443288936],[11.02819678091956,43.93932503351219],[11.029317527878511,43.94195615481104],[11.029567288901958,43.9423863339597],[11.029768343073044,43.942731739693514],[11.029804965270012,43.942779236292495],[11.03006318787687,43.9431134751331],[11.030145551538356,43.943219910500446],[11.03091100178507,43.94409827804263],[11.03394514864368,43.9471944185527],[11.045549629194348,43.95892553176738],[11.0468138169638,43.96002139310372],[11.048143137003663,43.9607611690439],[11.054057082723046,43.96384639648918],[11.054770521853113,43.96391032660895],[11.055888522767452,43.96416030621593],[11.056479600901508,43.96431172394852],[11.057080639218759,43.96452203379337],[11.057287115712665,43.96459428879013],[11.06088474352304,43.965897928766346],[11.063934119907046,43.969068412135194],[11.064504204517064,43.96990181565231],[11.065457959413076,43.97160923626603],[11.069901139500455,43.98075667720648],[11.071477604110507,43.98288720344594],[11.07220101741985,43.981983734470504],[11.07368127443319,43.98037677314821],[11.077550574508606,43.97625586219546],[11.081056202299099,43.97358352655139],[11.081478760175125,43.97201456076269],[11.081782929495578,43.97080609265323],[11.082340404825604,43.96811971860269],[11.088151131220041,43.961728619896],[11.094750618118933,43.95483803608642],[11.095573497462459,43.95342758645313],[11.09558948790735,43.95033901296524],[11.095060215997998,43.949817528728964],[11.093978060388535,43.94881099815228],[11.092664821049164,43.947610609067354],[11.088226726284724,43.943289231447984],[11.081530837461864,43.933876953369364],[11.081498367090914,43.93067190185921],[11.081391129745471,43.92987302344531],[11.079825300733512,43.92430780188307],[11.067883470703709,43.909284636222225],[11.066965559455989,43.90831088078213],[11.06465155049781,43.90697668048146],[11.064535866295573,43.90693476089703],[11.064426101394217,43.90690314757581],[11.05587895292075,43.90462576695281],[11.05576544036965,43.90459988128846],[11.055524457555714,43.90455813311647],[11.05533583163228,43.904525455976554],[11.055223929760666,43.90450720811232],[11.05501228604496,43.904472699127965],[11.054027796297348,43.904313509834246],[11.047915318115953,43.903400256018855],[11.044976181211895,43.90325005880529],[11.039228997360523,43.9034171340143],[11.030062775734192,43.90180227166617],[11.028535843804972,43.900354963982586],[11.02828408655676,43.900109403566184],[11.028105817260291,43.89992456705929],[11.025687707460579,43.897396457089215],[11.024797232526263,43.896353305316225]]]},"properties":{"name":"Montemurlo","op_id":"7965","minint_elettorale":"2091000030","minint_finloc":"3091000030","prov_name":"Prato","prov_istat_code":"100","prov_istat_code_num":100,"prov_acr":"PO","prov_iso_3166_2":"IT-PO","reg_name":"Toscana","reg_istat_code":"09","reg_istat_code_num":9,"reg_iso_3166_2":"IT-52","opdm_id":"4700","com_catasto_code":"F572","com_istat_code":"100003","com_istat_code_num":100003,"prov_uts_code":"100","prov_tipo_uts":"Provincia"}},
{"type":"Feature","geometry":{"type":"Polygon","coordinates":[[[11.061995940879063,43.815877451331424],[11.061345459269571,43.81434475179229],[11.062946044538148,43.80522242815524],[11.05725985551333,43.80435231372367],[11.048653226169522,43.80061744015178],[11.048241948903968,43.80039730512497],[11.04819782394028,43.80037369294015],[11.047164238715428,43.80032019129267],[11.046361251568706,43.800348119015325],[11.046096458361115,43.800357327594554],[11.043028075413682,43.80078138654954],[11.042074665663407,43.800925054506706],[11.039987384303277,43.80165504380473],[11.038707018847976,43.8021640892471],[11.033162802007778,43.80459437430028],[11.035040040280853,43.81008052409877],[11.037069734549272,43.81419495805603],[11.03094222034253,43.81800514785786],[11.025337964871499,43.82536057472384],[11.025237034341817,43.82550881666267],[11.025017149811807,43.82583466069131],[11.02490215521321,43.82618756453413],[11.02489321492278,43.826215002845224],[11.02516461540303,43.82688545243371],[11.025335930490138,43.82717052695431],[11.02576431640314,43.827554580983346],[11.025887424112929,43.8276649421796],[11.026515025028006,43.828203022337206],[11.027291786867309,43.828738452951654],[11.027965364003174,43.82916770622276],[11.028978954535452,43.829347744909256],[11.029726545343538,43.8293884849046],[11.030223109339241,43.829361654059255],[11.03066101591296,43.82934374994403],[11.031030378956398,43.82932889951968],[11.031269169448837,43.829319816238105],[11.031912277076932,43.829295607820455],[11.032822977278379,43.829378443049755],[11.035224395204004,43.829776855329385],[11.035541022245432,43.82983133600374],[11.038677575593027,43.83038153792456],[11.040340347236471,43.83071403559092],[11.043188602740777,43.82864469973745],[11.05208560657763,43.8225382855096],[11.059117753399551,43.81872855163284],[11.060775166104683,43.81757230598152],[11.061995940879063,43.815877451331424]]]},"properties":{"name":"Poggio a Caiano","op_id":"7966","minint_elettorale":"2091000040","minint_finloc":"3091000040","prov_name":"Prato","prov_istat_code":"100","prov_istat_code_num":100,"prov_acr":"PO","prov_iso_3166_2":"IT-PO","reg_name":"Toscana","reg_istat_code":"09","reg_istat_code_num":9,"reg_iso_3166_2":"IT-52","opdm_id":"4701","com_catasto_code":"G754","com_istat_code":"100004","com_istat_code_num":100004,"prov_uts_code":"100","prov_tipo_uts":"Provincia"}},
{"type":"Feature","geometry":{"type":"Polygon","coordinates":[[[11.013332502310924,43.869516550516785],[11.015216250279115,43.88006099365194],[11.015453951008567,43.880981306304385],[11.016160521886633,43.882518947248855],[11.021651099855843,43.89206284979655],[11.022582585138409,43.89354932775896],[11.02403565304376,43.895501344889375],[11.024797232526263,43.896353305316225],[11.025687707460579,43.897396457089215],[11.028105817260291,43.89992456705929],[11.02828408655676,43.900109403566184],[11.028535843804972,43.900354963982586],[11.030062775734192,43.90180227166617],[11.039228997360523,43.9034171340143],[11.044976181211895,43.90325005880529],[11.047915318115953,43.903400256018855],[11.054027796297348,43.904313509834246],[11.05501228604496,43.904472699127965],[11.055223929760666,43.90450720811232],[11.05533583163228,43.904525455976554],[11.055524457555714,43.90455813311647],[11.05576544036965,43.90459988128846],[11.05587895292075,43.90462576695281],[11.064426101394217,43.90690314757581],[11.064535866295573,43.90693476089703],[11.06465155049781,43.90697668048146],[11.066965559455989,43.90831088078213],[11.067883470703709,43.909284636222225],[11.079825300733512,43.92430780188307],[11.081391129745471,43.92987302344531],[11.081498367090914,43.93067190185921],[11.081530837461864,43.933876953369364],[11.088226726284724,43.943289231447984],[11.092664821049164,43.947610609067354],[11.09845974698044,43.94949275043109],[11.09953547596924,43.94918802261965],[11.102007165120975,43.948375514198716],[11.102683015808767,43.94810873648658],[11.103580433582483,43.94773982953599],[11.109075416292223,43.94511194641995],[11.10996643316744,43.944128224465665],[11.111840797796502,43.94191869838155],[11.112398285454917,43.94120742050013],[11.11248420833799,43.941087500116865],[11.112554578166762,43.940608776995504],[11.114572440368658,43.934002873844264],[11.11662452528077,43.929333720524035],[11.118187742156833,43.92636758005927],[11.119554898181153,43.9254034567196],[11.120946833316127,43.92454545602728],[11.124565564066307,43.923108899894466],[11.127117172174462,43.92065709586199],[11.127518003878087,43.919623664160476],[11.127557529466815,43.919334821128686],[11.127655808530864,43.91724693342784],[11.127785989505025,43.9141272318242],[11.128030526172031,43.91408607825967],[11.128628583422937,43.91409294034097],[11.13112142500211,43.914345551309104],[11.131928835379238,43.91443653856935],[11.135140592691503,43.91496914089874],[11.136391243132024,43.915235484891475],[11.137627744047881,43.91568052368342],[11.141607010649732,43.91766530674081],[11.143406211560931,43.918786414900744],[11.145768760296253,43.92040766940721],[11.15438809793686,43.924891124503326],[11.163073910402701,43.92810272800882],[11.168767009597529,43.91951412480809],[11.16917976209253,43.918876054340046],[11.1693445313919,43.918611828635726],[11.16708086234604,43.91526610540952],[11.165254158222053,43.91533313311063],[11.163758391351118,43.915390834080604],[11.163225694453251,43.91541483981892],[11.161678814171173,43.91548472410447],[11.159483010718239,43.9155865430901],[11.15818192912891,43.91564818070773],[11.15169020430401,43.91255617577315],[11.145973545707422,43.90949743413945],[11.142185110893108,43.90732108448054],[11.141645974595567,43.9068720252229],[11.142215051040894,43.906420189382686],[11.143526105019946,43.90547725270827],[11.144694253460239,43.904717050667806],[11.14657425245366,43.90332223555854],[11.147297908059892,43.90266939585842],[11.147631769169712,43.9022579690417],[11.147331155993065,43.901516342938734],[11.141415335713232,43.8933706825792],[11.138994598190381,43.89160700354167],[11.137953031464512,43.89068115142522],[11.137073229683324,43.88975226320621],[11.136221128211751,43.88855274876647],[11.13569380158493,43.887383168588975],[11.13513872308059,43.88613307444963],[11.134799103148367,43.88533812254754],[11.13467895598937,43.8850505571627],[11.134562630750976,43.884757284962745],[11.13441822151422,43.88420113636312],[11.13536057967256,43.883136175746415],[11.139434404806915,43.87904368881524],[11.141666019278606,43.8778272398692],[11.143809084636542,43.87496854307799],[11.147381142826612,43.869379394943685],[11.14797276519146,43.86760246349753],[11.14847639241117,43.86551513807852],[11.146453654937337,43.86085853301232],[11.145975447330775,43.86037810827225],[11.144767831390338,43.85916676428305],[11.14417112627118,43.858573353640075],[11.143775145767565,43.85838971505215],[11.138522206414052,43.85663897420419],[11.130400630042432,43.85566759755698],[11.123848778014066,43.851960204616894],[11.114662620902143,43.84114588360083],[11.101198962212328,43.824229455178966],[11.094891117064492,43.819607108656704],[11.09158119262994,43.818696513460104],[11.085651689330133,43.81832542911723],[11.079358378108097,43.820758780089264],[11.079632948494327,43.82108511768126],[11.079711314340603,43.821178554138775],[11.080017741428877,43.821650529191764],[11.080134072172303,43.82183496071878],[11.080143485102788,43.82189830838442],[11.08012252762726,43.82192862676334],[11.080069009681697,43.821959492097456],[11.078482445441502,43.822820546138914],[11.076481265242364,43.82364292625042],[11.069557746041538,43.825054712973184],[11.068196493724395,43.823815882157625],[11.06395508109853,43.81901654351355],[11.062314856754531,43.817141575952945],[11.062037441633175,43.81641913647402],[11.061995940879063,43.815877451331424],[11.060775166104683,43.81757230598152],[11.059117753399551,43.81872855163284],[11.05208560657763,43.8225382855096],[11.043188602740777,43.82864469973745],[11.040340347236471,43.83071403559092],[11.032820795619172,43.838137420942324],[11.032208889587166,43.83879877415911],[11.028212622590933,43.841992163220446],[11.024558346018715,43.85086316696027],[11.025741881956263,43.85556230792701],[11.02570400972598,43.8563224179172],[11.025351528311889,43.857134748837645],[11.0230821344248,43.86030863342235],[11.017529487373567,43.86663703409182],[11.013332502310924,43.869516550516785]]]},"properties":{"name":"Prato","op_id":"7967","minint_elettorale":"2091000050","minint_finloc":"3091000050","prov_name":"Prato","prov_istat_code":"100","prov_istat_code_num":100,"prov_acr":"PO","prov_iso_3166_2":"IT-PO","reg_name":"Toscana","reg_istat_code":"09","reg_istat_code_num":9,"reg_iso_3166_2":"IT-52","opdm_id":"4702","com_catasto_code":"G999","com_istat_code":"100005","com_istat_code_num":100005,"prov_uts_code":"100","prov_tipo_uts":"Provincia"}},
{"type":"Feature","geometry":{"type":"Polygon","coordinates":[[[11.171058770830967,43.98040629549548],[11.172961620456835,43.9786131710068],[11.173722315268336,43.97705827789669],[11.173739399577757,43.97696651876868],[11.173825807266423,43.976493428660625],[11.173987389327085,43.97559980900757],[11.173948474510675,43.974533666741586],[11.172083500908029,43.96920321373347],[11.170177157581632,43.96421654539677],[11.169849779631333,43.96202637553223],[11.172509327031483,43.95626644152412],[11.174034440501572,43.95356726805492],[11.175108770809755,43.95167931934053],[11.173092812234195,43.945585402715224],[11.168574621487423,43.94071447687551],[11.160751578922744,43.9353322825529],[11.163073910402701,43.92810272800882],[11.15438809793686,43.924891124503326],[11.145768760296253,43.92040766940721],[11.143406211560931,43.918786414900744],[11.141607010649732,43.91766530674081],[11.137627744047881,43.91568052368342],[11.136391243132024,43.915235484891475],[11.135140592691503,43.91496914089874],[11.131928835379238,43.91443653856935],[11.13112142500211,43.914345551309104],[11.128628583422937,43.91409294034097],[11.128030526172031,43.91408607825967],[11.127785989505025,43.9141272318242],[11.127655808530864,43.91724693342784],[11.127557529466815,43.919334821128686],[11.127518003878087,43.919623664160476],[11.127117172174462,43.92065709586199],[11.124565564066307,43.923108899894466],[11.120946833316127,43.92454545602728],[11.119554898181153,43.9254034567196],[11.118187742156833,43.92636758005927],[11.11662452528077,43.929333720524035],[11.114572440368658,43.934002873844264],[11.112554578166762,43.940608776995504],[11.11248420833799,43.941087500116865],[11.112398285454917,43.94120742050013],[11.111840797796502,43.94191869838155],[11.10996643316744,43.944128224465665],[11.109075416292223,43.94511194641995],[11.103580433582483,43.94773982953599],[11.102683015808767,43.94810873648658],[11.102007165120975,43.948375514198716],[11.09953547596924,43.94918802261965],[11.09845974698044,43.94949275043109],[11.092664821049164,43.947610609067354],[11.093978060388535,43.94881099815228],[11.095060215997998,43.949817528728964],[11.09558948790735,43.95033901296524],[11.095573497462459,43.95342758645313],[11.094750618118933,43.95483803608642],[11.088151131220041,43.961728619896],[11.082340404825604,43.96811971860269],[11.081782929495578,43.97080609265323],[11.085996219439007,43.9714202010529],[11.099218842096327,43.974482133234226],[11.104044311435352,43.976274905059384],[11.116724947601309,43.97524842225242],[11.126017339021903,43.978406919027876],[11.137301668051109,43.97992503456967],[11.145432625330377,43.977548785595744],[11.146686149356956,43.977390182057206],[11.14792753138908,43.97724079731289],[11.152770354264234,43.97669945341971],[11.156393538843552,43.97708126823459],[11.165420176519753,43.978283472814574],[11.166269856849224,43.978420414251644],[11.167339699235907,43.978782754092705],[11.171058770830967,43.98040629549548]]]},"properties":{"name":"Vaiano","op_id":"7968","minint_elettorale":"2091000060","minint_finloc":"3091000060","prov_name":"Prato","prov_istat_code":"100","prov_istat_code_num":100,"prov_acr":"PO","prov_iso_3166_2":"IT-PO","reg_name":"Toscana","reg_istat_code":"09","reg_istat_code_num":9,"reg_iso_3166_2":"IT-52","opdm_id":"4703","com_catasto_code":"L537","com_istat_code":"100006","com_istat_code_num":100006,"prov_uts_code":"100","prov_tipo_uts":"Provincia"}},
{"type":"Feature","geometry":{"type":"Polygon","coordinates":[[[11.093220835446381,44.09445749992834],[11.095846263371936,44.095601671009454],[11.10898323722266,44.1005284875867],[11.114230860122161,44.10268734950006],[11.12398854574929,44.10693332947369],[11.124610710688989,44.107209853718764],[11.125412519936198,44.10761807556808],[11.12551357009945,44.107693751433466],[11.125658879935493,44.107802573109666],[11.126362680426627,44.10832963707771],[11.127043532276796,44.10884814166268],[11.127092768064234,44.10891472919436],[11.12745065093979,44.10939874330452],[11.127598326803463,44.10961863958272],[11.127642599320799,44.109684563974966],[11.130073908305114,44.108964135963525],[11.132554815167088,44.108459090581746],[11.138806646668783,44.10782050003633],[11.139417440317782,44.10780626149521],[11.139861813802867,44.10797768760549],[11.140162610956244,44.10827890007721],[11.140304594815623,44.10851289453971],[11.144680129269943,44.110501718794694],[11.154855738833971,44.11181087818379],[11.163875139211969,44.11071060818263],[11.16687002747113,44.10870326814577],[11.170292945628765,44.10756619377575],[11.170641315163921,44.10748202129001],[11.170899826074464,44.10741961409812],[11.172878560149233,44.10720191508583],[11.185824076295486,44.10586548246218],[11.194971167594968,44.103375802190776],[11.202419324702387,44.100737719843366],[11.202164665440119,44.10075289373652],[11.200892443226197,44.10056129322304],[11.200830109900368,44.10052467060709],[11.200589223230764,44.10038262843368],[11.200474530046804,44.1002751480025],[11.200330350240932,44.10014003239794],[11.200107264332352,44.0998517315155],[11.198855304346775,44.09801221068256],[11.19867075993457,44.09758361792146],[11.198804842212908,44.097072362601],[11.198902893863837,44.0968556588191],[11.199168561340326,44.09626858723374],[11.20198096040925,44.0937025342102],[11.202619122434909,44.09322656878862],[11.203061329006161,44.09302447190692],[11.20352253286205,44.09299756711555],[11.204141612697532,44.093017130603414],[11.210283094678452,44.08962580606462],[11.21197817453027,44.08868817482621],[11.212791546062308,44.08646666268172],[11.212819628865635,44.08604747565469],[11.212589090016294,44.0858943884552],[11.212261989476668,44.085747673049326],[11.20966695850337,44.08507316948329],[11.208135653187762,44.085039769415125],[11.198241029289957,44.0827863324252],[11.188716445762086,44.076577086673474],[11.186697222669292,44.07380230120813],[11.185678990581284,44.071161376927556],[11.185677087539212,44.07034663312501],[11.185729105199805,44.06960530178452],[11.185829002040746,44.069016480680425],[11.18629418151901,44.06252011932355],[11.18652370974867,44.05756400892583],[11.186190016803085,44.05628273086015],[11.185938136984248,44.05590063829607],[11.18570995650664,44.05559659853817],[11.18549179236903,44.055305971352205],[11.184392913754088,44.05394051576307],[11.183884226322702,44.05334703476889],[11.183417476266131,44.05301528117277],[11.18323048062575,44.05288236948793],[11.182706739561652,44.05272313691367],[11.182422508746013,44.05263672196867],[11.180310787566414,44.05020119802586],[11.17933691679979,44.04577223714793],[11.179359720700798,44.04435222681584],[11.179420089769218,44.04229389248364],[11.184312444656543,44.037407787222605],[11.189433195571938,44.03336184505344],[11.190811323290852,44.031801063663366],[11.191272113081714,44.030774180448205],[11.191517167587829,44.03014375826797],[11.19157020123976,44.02980512663948],[11.189234021152744,44.02220470694665],[11.185608497201626,44.016396616597476],[11.179340656037445,44.012856603838564],[11.175015615804227,44.01125545991491],[11.174033388856781,44.00997995312586],[11.171546542297541,44.010371636713344],[11.16659696490202,44.01267592572275],[11.165074354507288,44.013600618686894],[11.163397861693982,44.01595521068534],[11.161672657713426,44.01851777329629],[11.15797652756256,44.020923999594466],[11.15735996800295,44.02112471544666],[11.156847916438695,44.02128293969904],[11.156382962860114,44.02136374476585],[11.155598299326327,44.021379437322366],[11.152290208426283,44.02144095057331],[11.14489787759863,44.02075623585107],[11.137361910466105,44.020843501102014],[11.12513845449927,44.02339443110248],[11.12296555123131,44.02858466231037],[11.123288606409734,44.03099150811885],[11.128768099704518,44.03779694373268],[11.12907428060823,44.03783449489538],[11.129338422511427,44.03787322789615],[11.129516962908937,44.03789954474548],[11.129776980721278,44.03793817716572],[11.132000465933109,44.038688967593714],[11.132556474720568,44.03888565906777],[11.132896264119271,44.03903236766702],[11.133212219843141,44.03916886511355],[11.133505850715682,44.039471139250104],[11.133539965251462,44.03950651395418],[11.133565853201171,44.03983316263696],[11.133568073315189,44.039869032338444],[11.129814666695129,44.04212394343913],[11.129030582197151,44.04253470153954],[11.127361858005793,44.0429889469563],[11.12333501532298,44.04346902876166],[11.122312196247565,44.043479800997176],[11.118765329489676,44.043778978941816],[11.110941556609129,44.04630069487468],[11.110484019963124,44.04662341658941],[11.109565540101345,44.04727145181924],[11.108071816058578,44.049349255498456],[11.105808906048278,44.053273858231094],[11.107010262117129,44.055491689951104],[11.112284099483572,44.06404807235658],[11.107314554169287,44.06720994917921],[11.103928201349435,44.07067539910573],[11.102877526955504,44.0755562980163],[11.103013619294705,44.07692257047341],[11.103172107151362,44.077522891231574],[11.103198139152564,44.07757167363275],[11.103240252377825,44.077649932488555],[11.103426298077991,44.07799534417288],[11.10389378421564,44.078499909694756],[11.104139172337657,44.079080591014765],[11.104457069418322,44.0810013984635],[11.104526274542554,44.0833049183115],[11.09946599576871,44.090312441092394],[11.0974597783059,44.09292419106757],[11.096760918574658,44.0932971483227],[11.095464721356416,44.09373508236521],[11.093220835446381,44.09445749992834]]]},"properties":{"name":"Vernio","op_id":"7969","minint_elettorale":"2091000070","minint_finloc":"3091000070","prov_name":"Prato","prov_istat_code":"100","prov_istat_code_num":100,"prov_acr":"PO","prov_iso_3166_2":"IT-PO","reg_name":"Toscana","reg_istat_code":"09","reg_istat_code_num":9,"reg_iso_3166_2":"IT-52","opdm_id":"4704","com_catasto_code":"L775","com_istat_code":"100007","com_istat_code_num":100007,"prov_uts_code":"100","prov_tipo_uts":"Provincia"}}
]}