{"type":"FeatureCollection","bbox":[10.622310192150536,43.788830456587554,11.071477604110507,44.1600913541236], "features": [
{"type":"Feature","geometry":{"type":"Polygon","coordinates":[[[11.024512912359,43.896925979770906],[11.024797232526263,43.896353305316225],[11.02403565304376,43.895501344889375],[11.022582585138409,43.89354932775896],[11.021651099855843,43.89206284979655],[11.016160521886633,43.882518947248855],[11.015453951008567,43.880981306304385],[11.015216250279115,43.88006099365194],[11.013332502310924,43.869516550516785],[11.006109828455894,43.871707758699365],[11.000525448472294,43.87563210971298],[10.992777318647045,43.88161350243504],[10.985176329631779,43.88818951952563],[10.982890845567521,43.891731546343],[10.981129455860195,43.89276148248403],[10.980636275281375,43.894942040651536],[10.981046521014173,43.89843509028559],[10.979690133156737,43.908214999175776],[10.979873894509526,43.90925949163244],[10.980085069781822,43.9101805493483],[10.98038750160087,43.91051334871035],[10.980762132216535,43.910882707063465],[10.983644615664684,43.91091203757998],[10.98586323365691,43.910924613635906],[10.987535416893227,43.910837005478676],[10.99009894867911,43.91845021424463],[10.990794234189808,43.92196899629567],[10.991900991147844,43.921862102234016],[10.993160558319214,43.92153401722329],[10.99454922680392,43.9209695769667],[10.996756393964505,43.919561715847784],[11.024512912359,43.896925979770906]]]},"properties":{"name":"Agliana","op_id":"4584","minint_elettorale":"2090630020","minint_finloc":"3090630020","prov_name":"Pistoia","prov_istat_code":"047","prov_istat_code_num":47,"prov_acr":"PT","reg_name":"Toscana","reg_istat_code":"09","reg_istat_code_num":9,"opdm_id":"4481","com_catasto_code":"A071","com_istat_code":"047002","com_istat_code_num":47002}},
{"type":"Feature","geometry":{"type":"Polygon","coordinates":[[[10.729215531715035,43.93399165142214],[10.729563093710833,43.93093421057111],[10.730839289075089,43.918238097200046],[10.730857345008932,43.912324782474634],[10.732902993207855,43.9078078764698],[10.73374529011818,43.90636354390768],[10.734139892616993,43.90573599387687],[10.734591725594028,43.90557508357199],[10.734851027157829,43.90548313425361],[10.734899533813055,43.90547902671384],[10.736120700943433,43.90540011561995],[10.737411671595497,43.905686605431605],[10.743659242221094,43.90171994529448],[10.744102678421376,43.90112795329548],[10.74441297068086,43.90024087894655],[10.744641914794267,43.899553122129184],[10.75206957685897,43.87684980286591],[10.7513750757305,43.87608615420878],[10.750245650216854,43.87470330419617],[10.749523236561265,43.8738003321661],[10.748705436407885,43.87205736267159],[10.748516762860431,43.87155617644446],[10.748310844441386,43.870939529437884],[10.748175762081678,43.870534999275904],[10.74811808505154,43.86941945143836],[10.74798709021312,43.863649947982026],[10.74800219674225,43.86358252783539],[10.748070770945967,43.86327648954981],[10.748084963772799,43.86321660043561],[10.756231413006033,43.859634282823784],[10.757450308099965,43.859192375441225],[10.764812810399558,43.85695405438718],[10.767738299091612,43.85616153550017],[10.767752058749652,43.85412698780856],[10.758408708318044,43.85807682812636],[10.757183105811134,43.858615637194944],[10.756067973438114,43.859028401386254],[10.755245139154109,43.85920348833377],[10.744763415239081,43.859500304468796],[10.738651806319389,43.85904623330017],[10.738544392935301,43.859031720921436],[10.738454204835996,43.859027616452],[10.73825579930542,43.859018921715005],[10.737903884523604,43.859003582641996],[10.7373066234378,43.858977901965375],[10.737149239545765,43.858971730943594],[10.736661116121974,43.85900777965093],[10.735460597428892,43.859096432017886],[10.734178612235919,43.859218617672454],[10.733437957318479,43.85928920300506],[10.731623116983783,43.85947694574401],[10.73109258302462,43.85953182585759],[10.729283276331778,43.859766308407245],[10.728565758482492,43.85993907150364],[10.728275500722962,43.86000897807171],[10.72788692189637,43.860102575548204],[10.72732998290455,43.86026953571985],[10.726875330050275,43.86040598268034],[10.726255894266687,43.86065098694895],[10.726033447949,43.86073935768688],[10.72444639405749,43.86120027553768],[10.721053006176383,43.870567039419775],[10.717976883896373,43.87713018417073],[10.71564921122648,43.8774972065028],[10.715571486176872,43.87751591709041],[10.715191265865021,43.877608694794816],[10.714865060378315,43.87771841543994],[10.714156637372835,43.87828175438679],[10.713929194199075,43.87849206897168],[10.71387967947641,43.878537927620094],[10.713902920462232,43.87891293824397],[10.714232980108754,43.88140618459021],[10.714403579533236,43.881841978754544],[10.714963513014238,43.88277987932093],[10.716058881177414,43.884572161051615],[10.716076448594121,43.88460038523548],[10.71619416179378,43.884785221419236],[10.71637142512714,43.885062475389944],[10.716976752523639,43.885764850842094],[10.717568803124212,43.88644021394065],[10.718192762898429,43.886926020857395],[10.718050126708404,43.89700896360173],[10.716532020708465,43.900172998954],[10.716327692791321,43.90087336339311],[10.716296767936953,43.90253912960347],[10.716464018678078,43.91154225775291],[10.717935221449993,43.916583389668325],[10.716210978161266,43.9189089695415],[10.715852931259084,43.92031887971517],[10.715609803388974,43.921393935907226],[10.715345058261905,43.92345068832044],[10.716309263818951,43.93575284848107],[10.716984852478243,43.93628289822576],[10.71796401264262,43.936970440271544],[10.719160107367466,43.93740261539557],[10.720234268879652,43.93749448568137],[10.728133551019049,43.93502087611086],[10.729215531715035,43.93399165142214]]]},"properties":{"name":"Buggiano","op_id":"4585","minint_elettorale":"2090630030","minint_finloc":"3090630030","prov_name":"Pistoia","prov_istat_code":"047","prov_istat_code_num":47,"prov_acr":"PT","reg_name":"Toscana","reg_istat_code":"09","reg_istat_code_num":9,"opdm_id":"4482","com_catasto_code":"B251","com_istat_code":"047003","com_istat_code_num":47003}},
{"type":"Feature","geometry":{"type":"Polygon","coordinates":[[[10.941989738838195,43.82341375015138],[10.93886225716078,43.820453963012454],[10.925639797669847,43.807646250531576],[10.92093390027063,43.80317869253034],[10.917521963438048,43.8010571559174],[10.917377856657962,43.80101715310847],[10.915778583372894,43.800573201323864],[10.898593023492746,43.79645736279903],[10.893726222891965,43.79537888805946],[10.883395171265006,43.7944385331325],[10.877583695708466,43.7943916192933],[10.871331623712967,43.794922304720004],[10.86803441913774,43.795880673031675],[10.86708674507946,43.79630194277635],[10.866983108865146,43.79634803502186],[10.866722183698368,43.79646412803443],[10.866491144592105,43.79657239515884],[10.86580413327722,43.7969075084983],[10.864960222628524,43.797749614088914],[10.863994352986197,43.798665700643106],[10.862905735281617,43.79901639121555],[10.862049712277637,43.79929167683317],[10.856509753953253,43.80102948504313],[10.855236132194275,43.80124825143776],[10.854506131951338,43.80135914288998],[10.853860875430648,43.80139662567812],[10.845581048508356,43.802292065537245],[10.835189016919044,43.798339750958824],[10.833063807951124,43.79749176326493],[10.83224451639245,43.79716458586047],[10.825619082225547,43.794918703061825],[10.825748294957574,43.795897981319996],[10.832258313888541,43.799044048578416],[10.839936150680405,43.80133344582679],[10.840525698292772,43.8013581178965],[10.840636693826337,43.801362855588835],[10.841778323763146,43.801412019998104],[10.843348993098838,43.80155320588973],[10.844818050855837,43.80205649609954],[10.847096695021886,43.802955754703355],[10.84747023332065,43.80312569620271],[10.847727109025895,43.803242676827715],[10.847802771114088,43.80327746762347],[10.85182474567679,43.80590442578748],[10.855130224110539,43.80866890776364],[10.85516421298404,43.80871305067716],[10.855315809278803,43.80890993607686],[10.867825489920428,43.811910412571066],[10.868045772788115,43.811928550190316],[10.868853168197065,43.811995042095354],[10.869558168090933,43.81205313880705],[10.873798243269965,43.81336948336652],[10.888241039180118,43.81821550530848],[10.888946562184378,43.818620371776056],[10.890845562186012,43.82196693636227],[10.890881511521703,43.822076657761166],[10.891108030591646,43.82278176849828],[10.89075533268156,43.8234268549823],[10.894218618446226,43.830698336365224],[10.899491438047532,43.84067668842863],[10.905751043896418,43.84642469751735],[10.906159246385922,43.8467420130384],[10.914892930408593,43.847145164113435],[10.918026710481149,43.84516584945346],[10.934276794385218,43.83662227057528],[10.938188351834553,43.82852927008582],[10.941989738838195,43.82341375015138]]]},"properties":{"name":"Lamporecchio","op_id":"4588","minint_elettorale":"2090630050","minint_finloc":"3090630050","prov_name":"Pistoia","prov_istat_code":"047","prov_istat_code_num":47,"prov_acr":"PT","reg_name":"Toscana","reg_istat_code":"09","reg_istat_code_num":9,"opdm_id":"4483","com_catasto_code":"E432","com_istat_code":"047005","com_istat_code_num":47005}},
{"type":"Feature","geometry":{"type":"Polygon","coordinates":[[[10.906159246385922,43.8467420130384],[10.905751043896418,43.84642469751735],[10.899491438047532,43.84067668842863],[10.894218618446226,43.830698336365224],[10.89075533268156,43.8234268549823],[10.891108030591646,43.82278176849828],[10.890881511521703,43.822076657761166],[10.890845562186012,43.82196693636227],[10.888946562184378,43.818620371776056],[10.888241039180118,43.81821550530848],[10.873798243269965,43.81336948336652],[10.869558168090933,43.81205313880705],[10.868853168197065,43.811995042095354],[10.868045772788115,43.811928550190316],[10.867825489920428,43.811910412571066],[10.855315809278803,43.80890993607686],[10.85516421298404,43.80871305067716],[10.855130224110539,43.80866890776364],[10.85182474567679,43.80590442578748],[10.847802771114088,43.80327746762347],[10.847727109025895,43.803242676827715],[10.84747023332065,43.80312569620271],[10.847096695021886,43.802955754703355],[10.844818050855837,43.80205649609954],[10.843348993098838,43.80155320588973],[10.841778323763146,43.801412019998104],[10.840636693826337,43.801362855588835],[10.840525698292772,43.8013581178965],[10.839936150680405,43.80133344582679],[10.832258313888541,43.799044048578416],[10.825748294957574,43.795897981319996],[10.825619082225547,43.794918703061825],[10.812728682243234,43.788830456587554],[10.816179001732822,43.794214415002564],[10.817700881741343,43.79816036477073],[10.817855324447276,43.79902809861754],[10.81787979813981,43.79916569435699],[10.817754919554439,43.79995072963407],[10.816458483890653,43.80724737462611],[10.81567034576998,43.80870858004706],[10.8092215480999,43.817859677594235],[10.810708726977083,43.81826532653668],[10.8176212151664,43.82076707166875],[10.821038700206534,43.822109898510426],[10.830253746711238,43.82579867964234],[10.831761045572305,43.82628772281774],[10.832866192543754,43.82663914281262],[10.834509163491322,43.82708995857294],[10.834923730005219,43.8272012425799],[10.835838363783068,43.82744675447634],[10.837203494853503,43.827352783173716],[10.83864485733167,43.826906429778276],[10.83911041531124,43.82673800624559],[10.842235340278167,43.82800103871398],[10.846312182013117,43.8311495475886],[10.853194631114414,43.83786064090299],[10.857298443292581,43.84291003649171],[10.860952982879494,43.84762241103367],[10.865701856102227,43.85229879078987],[10.869371959206026,43.85587619614216],[10.870637028121868,43.86329253314183],[10.870247921731925,43.86757535963731],[10.870300661516433,43.86757000885525],[10.870426178003347,43.86755614395068],[10.871016879232121,43.867490762610004],[10.871059265509116,43.86748412517681],[10.872540043063147,43.86724972251849],[10.873052209240223,43.86713769396523],[10.874097405528344,43.86690906324505],[10.881613534201783,43.864751786966934],[10.88009670515189,43.859814800822775],[10.879238260906046,43.85744300795688],[10.881963432570139,43.85091866753207],[10.884468337727828,43.85204480808681],[10.886157626125666,43.85274621046856],[10.887592849942425,43.853280720440125],[10.88884974024798,43.85368310880174],[10.890369992461455,43.85375700013558],[10.896793563111189,43.853083307255126],[10.898142438808447,43.85285382375132],[10.905249238321373,43.84980937055148],[10.905806138860653,43.84922405392137],[10.905891222471476,43.84913422873291],[10.905971679310825,43.84904925615018],[10.906100990015528,43.84810729282869],[10.906112417250919,43.84802091755976],[10.906159246385922,43.8467420130384]]]},"properties":{"name":"Larciano","op_id":"4589","minint_elettorale":"2090630060","minint_finloc":"3090630060","prov_name":"Pistoia","prov_istat_code":"047","prov_istat_code_num":47,"prov_acr":"PT","reg_name":"Toscana","reg_istat_code":"09","reg_istat_code_num":9,"opdm_id":"4484","com_catasto_code":"E451","com_istat_code":"047006","com_istat_code_num":47006}},
{"type":"Feature","geometry":{"type":"Polygon","coordinates":[[[10.810203131649283,43.99824418477962],[10.80932484268846,43.99761083509609],[10.80889902323314,43.99728903894392],[10.80864828114956,43.99709936002747],[10.807993660198491,43.99648849674853],[10.807743038427605,43.995628148802446],[10.808680041190364,43.99195641860325],[10.818254796590365,43.98337282318279],[10.826233977769968,43.97881297111055],[10.827879811035919,43.97840850071695],[10.828503205239043,43.978002371286955],[10.828573237981468,43.977956109988774],[10.828600965264922,43.97793778361793],[10.832708648228193,43.97488284913838],[10.832915956254373,43.97465499387235],[10.833087275728456,43.97446667428239],[10.833564981540079,43.97394155780865],[10.834039879244855,43.97325414355295],[10.834181272629005,43.973049411539435],[10.834268359033343,43.97292225752172],[10.836497977613279,43.968461960240695],[10.841320270289373,43.95541422691625],[10.839901106825062,43.950620345285984],[10.83900566362707,43.95067978174196],[10.836220409162175,43.94845574601097],[10.830836519583563,43.94316713045251],[10.827470174333984,43.93948009768745],[10.826595628105345,43.938285433302575],[10.826512299601664,43.93430608031354],[10.826217670360544,43.93068143706903],[10.823845424753014,43.93061132716484],[10.817742920498008,43.929754241394164],[10.814154344917116,43.92729083177195],[10.81309354992604,43.92638884071204],[10.811695449733053,43.9250512572352],[10.811630954204821,43.924989511610775],[10.811100497786388,43.924340646436065],[10.805406779760208,43.91895665586916],[10.80455634888112,43.91820501754353],[10.803114033162547,43.918101532301066],[10.798715941935821,43.919710448276255],[10.796513141053929,43.92079726785259],[10.796867458367146,43.92119808890169],[10.797079172254946,43.921817971776726],[10.79711165853636,43.92191432714242],[10.797126930271885,43.921959758742055],[10.797077542003779,43.92208182580236],[10.796995714857887,43.92228394779026],[10.796837191110237,43.922675120683074],[10.7964414961276,43.92318553405193],[10.794902283937045,43.924586682657406],[10.790284822172376,43.92847714075864],[10.785694092361139,43.927432575895004],[10.785546330261127,43.927355787530786],[10.785145015973985,43.927147227215336],[10.78436493411207,43.92674153746531],[10.784283641135024,43.92667715854388],[10.783497747602809,43.92605335663484],[10.783428538395178,43.925962332680314],[10.776693237036797,43.921351581361044],[10.77015099402427,43.919157278699664],[10.767870751442208,43.92611269870218],[10.766630292623885,43.92853245012204],[10.765697071887223,43.930029842843936],[10.765089204828797,43.930786952009825],[10.762088502802833,43.93421854976912],[10.753760819829989,43.94123387942434],[10.750691980638017,43.94324409232792],[10.753690649155821,43.94521485056279],[10.75447716249085,43.94653527087326],[10.75473500722288,43.947251579595154],[10.754741353881625,43.94789072030287],[10.75433923031365,43.951165115849314],[10.754105193861784,43.951470321886646],[10.753919130772092,43.951711767791366],[10.74700710832409,43.95952455427388],[10.740369370899261,43.96483881132436],[10.73856679382394,43.965150702032844],[10.737605562793917,43.96538507372755],[10.735528571915884,43.965974856034194],[10.735133172651738,43.966248872493715],[10.735064316680486,43.96629674148526],[10.734885176208525,43.96689420847396],[10.734859899558039,43.966984384233186],[10.735339913210948,43.96805749288164],[10.738074283060756,43.972049494794014],[10.741410700283655,43.97444762659827],[10.75035263723365,43.9787383398008],[10.763968936915745,43.98261863454255],[10.765442013250738,43.982782695493405],[10.768918377040091,43.98086297737698],[10.769969143016958,43.98024347862915],[10.770314879533728,43.97990021052481],[10.770676116807977,43.97954151777747],[10.775025178976652,43.975383137391155],[10.783347899156388,43.971262288460835],[10.787300030197583,43.971469390456186],[10.79492174813124,43.9787111958798],[10.798898528601686,43.98554465622536],[10.798611662441376,43.98729693965916],[10.796440711823779,43.98922066959672],[10.795511233821408,43.989929661804354],[10.79271115544823,43.99509088558016],[10.792603616316038,44.00073425468957],[10.793313397135606,44.00183389244195],[10.795847685675712,44.0023230185216],[10.801066172126156,44.001759176962956],[10.803481649035135,44.00142531035553],[10.809779703037242,43.998517570844015],[10.810203131649283,43.99824418477962]]]},"properties":{"name":"Marliana","op_id":"4590","minint_elettorale":"2090630070","minint_finloc":"3090630070","prov_name":"Pistoia","prov_istat_code":"047","prov_istat_code_num":47,"prov_acr":"PT","reg_name":"Toscana","reg_istat_code":"09","reg_istat_code_num":9,"opdm_id":"4485","com_catasto_code":"E960","com_istat_code":"047007","com_istat_code_num":47007}},
{"type":"Feature","geometry":{"type":"Polygon","coordinates":[[[10.767738299091612,43.85616153550017],[10.764812810399558,43.85695405438718],[10.757450308099965,43.859192375441225],[10.756231413006033,43.859634282823784],[10.748084963772799,43.86321660043561],[10.748070770945967,43.86327648954981],[10.74800219674225,43.86358252783539],[10.74798709021312,43.863649947982026],[10.74811808505154,43.86941945143836],[10.748175762081678,43.870534999275904],[10.748310844441386,43.870939529437884],[10.748516762860431,43.87155617644446],[10.748705436407885,43.87205736267159],[10.749523236561265,43.8738003321661],[10.750245650216854,43.87470330419617],[10.7513750757305,43.87608615420878],[10.75206957685897,43.87684980286591],[10.744641914794267,43.899553122129184],[10.74441297068086,43.90024087894655],[10.744102678421376,43.90112795329548],[10.743659242221094,43.90171994529448],[10.737411671595497,43.905686605431605],[10.736120700943433,43.90540011561995],[10.734899533813055,43.90547902671384],[10.734851027157829,43.90548313425361],[10.734591725594028,43.90557508357199],[10.734139892616993,43.90573599387687],[10.73374529011818,43.90636354390768],[10.732902993207855,43.9078078764698],[10.730857345008932,43.912324782474634],[10.730839289075089,43.918238097200046],[10.729563093710833,43.93093421057111],[10.729215531715035,43.93399165142214],[10.729824392661628,43.93436054517819],[10.730412570556481,43.93445067429298],[10.732779751407428,43.934450805497015],[10.73702554691875,43.93435931353202],[10.738128383300625,43.934153467357085],[10.73902003296033,43.93396883253098],[10.74470576207795,43.939694099705534],[10.745128527899112,43.94048415509305],[10.745262852226812,43.94061781548508],[10.74544937174968,43.940803374461844],[10.745844947526114,43.941121450810826],[10.746379900742154,43.94151842517563],[10.747520292476079,43.942176560572506],[10.750691980638017,43.94324409232792],[10.753760819829989,43.94123387942434],[10.762088502802833,43.93421854976912],[10.765089204828797,43.930786952009825],[10.765697071887223,43.930029842843936],[10.766630292623885,43.92853245012204],[10.767870751442208,43.92611269870218],[10.77015099402427,43.919157278699664],[10.769425881343444,43.91486488690825],[10.767414108715407,43.91200788859642],[10.765827550241193,43.911178750620735],[10.763424106333714,43.90985275899082],[10.762849332999735,43.909366441922074],[10.761825726512342,43.90759979572888],[10.759303543470605,43.90187623935164],[10.759413223401028,43.90113589619071],[10.759438570146294,43.900964814828285],[10.76023366316212,43.897945421391334],[10.76043785272779,43.89770391453077],[10.76053445859837,43.89758965244112],[10.760835725345622,43.8977661084135],[10.761028587314172,43.8978791502],[10.760878987144059,43.89322667954176],[10.757417270432294,43.88980194767864],[10.762151089367416,43.87979192853294],[10.764308495165018,43.87551054614758],[10.767329680647318,43.86118685091394],[10.767738299091612,43.85616153550017]]]},"properties":{"name":"Massa e Cozzile","op_id":"4591","minint_elettorale":"2090630080","minint_finloc":"3090630080","prov_name":"Pistoia","prov_istat_code":"047","prov_istat_code_num":47,"prov_acr":"PT","reg_name":"Toscana","reg_istat_code":"09","reg_istat_code_num":9,"opdm_id":"4486","com_catasto_code":"F025","com_istat_code":"047008","com_istat_code_num":47008}},
{"type":"Feature","geometry":{"type":"Polygon","coordinates":[[[10.870247921731925,43.86757535963731],[10.870637028121868,43.86329253314183],[10.869371959206026,43.85587619614216],[10.865701856102227,43.85229879078987],[10.860952982879494,43.84762241103367],[10.857298443292581,43.84291003649171],[10.853194631114414,43.83786064090299],[10.846312182013117,43.8311495475886],[10.842235340278167,43.82800103871398],[10.83911041531124,43.82673800624559],[10.83864485733167,43.826906429778276],[10.837203494853503,43.827352783173716],[10.835838363783068,43.82744675447634],[10.834923730005219,43.8272012425799],[10.834509163491322,43.82708995857294],[10.832866192543754,43.82663914281262],[10.831761045572305,43.82628772281774],[10.830253746711238,43.82579867964234],[10.821038700206534,43.822109898510426],[10.8176212151664,43.82076707166875],[10.810708726977083,43.81826532653668],[10.8092215480999,43.817859677594235],[10.796956547125744,43.83224257103799],[10.79134869414826,43.83771431660717],[10.79108385191282,43.83798900579462],[10.790986496803818,43.83847672174829],[10.791049962357505,43.838934905786324],[10.791147412659786,43.83921854838734],[10.791240722814493,43.839490132484464],[10.79530533488391,43.846632878710246],[10.799764307984807,43.856129683950044],[10.80548625740427,43.87060700094448],[10.806312787662963,43.87441865143523],[10.806721987913432,43.876286651433055],[10.807055542594851,43.87754185987078],[10.807405752252865,43.87883281674548],[10.808081251896082,43.881000960006325],[10.808600370677445,43.881953937335744],[10.81079470155601,43.88427940245056],[10.814986390229999,43.888679436396906],[10.816017282161152,43.88941935301729],[10.817062396353936,43.887745973692006],[10.818436652079653,43.88710298658929],[10.82468206782676,43.88738154626676],[10.829597820078863,43.88770391718594],[10.832353860190507,43.888568193184895],[10.834827802195935,43.888092463583675],[10.84049797728329,43.88679350269728],[10.847661697417536,43.88412209950371],[10.848640646224789,43.883566246332045],[10.849920578325989,43.88269901296259],[10.855758598835928,43.87868781488939],[10.856184079643231,43.87836604152799],[10.857186106710065,43.87760777577313],[10.857278039094064,43.8775378292991],[10.857393637425666,43.8774091822321],[10.857545781836487,43.8772389937388],[10.85816886539186,43.876541829649376],[10.858687148972779,43.87561702527037],[10.859793154551829,43.87363696299951],[10.863997249164557,43.87104404238447],[10.870247921731925,43.86757535963731]]]},"properties":{"name":"Monsummano Terme","op_id":"4592","minint_elettorale":"2090630090","minint_finloc":"3090630090","prov_name":"Pistoia","prov_istat_code":"047","prov_istat_code_num":47,"prov_acr":"PT","reg_name":"Toscana","reg_istat_code":"09","reg_istat_code_num":9,"opdm_id":"4487","com_catasto_code":"F384","com_istat_code":"047009","com_istat_code_num":47009}},
{"type":"Feature","geometry":{"type":"Polygon","coordinates":[[[11.024512912359,43.896925979770906],[10.996756393964505,43.919561715847784],[10.998643474572052,43.92509548512199],[11.001499149843058,43.935714413482074],[11.003009894367974,43.94395674496692],[10.99789542877686,43.949861189781956],[10.996163563423693,43.95271878023074],[10.995451145773552,43.95426613277422],[10.995007129028853,43.955894483469564],[10.994921077505033,43.95648581262438],[10.994865268935081,43.95686931716483],[10.994758361466003,43.95777222714863],[10.994738370979876,43.96060927909541],[10.995312558811762,43.968367716903465],[10.995623318205196,43.96871341507461],[10.996686127394382,43.96918101858022],[10.99830748619315,43.96957581718378],[11.0000510375739,43.969896428097094],[11.003435590819285,43.9719348761207],[11.007578194428302,43.98425063441585],[11.008661227443516,43.98937245213664],[11.00818627592888,43.99229785646676],[11.009426758648706,43.995427175847674],[11.014333101862455,43.99573846920509],[11.017881057989067,43.99687096026867],[11.022293649042856,43.997720978597066],[11.030219123115353,43.998786807666136],[11.03296055945365,43.999080166559004],[11.034148396166694,43.99916705629797],[11.034467756623691,43.9991372059197],[11.034981376745959,43.99908919486441],[11.036390958706505,43.99873095096117],[11.037414739921266,43.99839757990297],[11.049402519297146,43.99302424824348],[11.062819618468858,43.98433766449096],[11.071477604110507,43.98288720344594],[11.069901139500455,43.98075667720648],[11.065457959413076,43.97160923626603],[11.064504204517064,43.96990181565231],[11.063934119907046,43.969068412135194],[11.06088474352304,43.965897928766346],[11.057287115712665,43.96459428879013],[11.057080639218759,43.96452203379337],[11.056479600901508,43.96431172394852],[11.055888522767452,43.96416030621593],[11.054770521853113,43.96391032660895],[11.054057082723046,43.96384639648918],[11.048143137003663,43.9607611690439],[11.0468138169638,43.96002139310372],[11.045549629194348,43.95892553176738],[11.03394514864368,43.9471944185527],[11.03091100178507,43.94409827804263],[11.030145551538356,43.943219910500446],[11.03006318787687,43.9431134751331],[11.029804965270012,43.942779236292495],[11.029768343073044,43.942731739693514],[11.029567288901958,43.9423863339597],[11.029317527878511,43.94195615481104],[11.02819678091956,43.93932503351219],[11.027981674508267,43.93790443288936],[11.027709660724293,43.93623626530941],[11.027329566620105,43.93405953144955],[11.02471033674353,43.928051777905864],[11.024088233142916,43.92693745514586],[11.02186065937369,43.92472675936909],[11.020460042773667,43.9216523240518],[11.018565012806883,43.91029305806375],[11.022640680103363,43.90432536950694],[11.022998099291875,43.90385590683085],[11.023388054391893,43.90339496016003],[11.024396742837569,43.90286767720181],[11.025295994136323,43.9020436887961],[11.02564433244121,43.89983168679284],[11.02561394889462,43.89943217375993],[11.025600228639908,43.89925639612065],[11.025498706946506,43.898812634768596],[11.025366024141064,43.898234021186035],[11.025197817865214,43.89784406248704],[11.02510256641769,43.89762443026405],[11.025041138341509,43.89748325400746],[11.025013455656584,43.89741986440331],[11.024939176272166,43.8973464552708],[11.024512912359,43.896925979770906]]]},"properties":{"name":"Montale","op_id":"4593","minint_elettorale":"2090630100","minint_finloc":"3090630100","prov_name":"Pistoia","prov_istat_code":"047","prov_istat_code_num":47,"prov_acr":"PT","reg_name":"Toscana","reg_istat_code":"09","reg_istat_code_num":9,"opdm_id":"4488","com_catasto_code":"F410","com_istat_code":"047010","com_istat_code_num":47010}},
{"type":"Feature","geometry":{"type":"Polygon","coordinates":[[[10.767752058749652,43.85412698780856],[10.767738299091612,43.85616153550017],[10.767329680647318,43.86118685091394],[10.764308495165018,43.87551054614758],[10.762151089367416,43.87979192853294],[10.757417270432294,43.88980194767864],[10.760878987144059,43.89322667954176],[10.761028587314172,43.8978791502],[10.760835725345622,43.8977661084135],[10.76053445859837,43.89758965244112],[10.76043785272779,43.89770391453077],[10.76023366316212,43.897945421391334],[10.759438570146294,43.900964814828285],[10.759413223401028,43.90113589619071],[10.759303543470605,43.90187623935164],[10.761825726512342,43.90759979572888],[10.762849332999735,43.909366441922074],[10.763424106333714,43.90985275899082],[10.765827550241193,43.911178750620735],[10.767414108715407,43.91200788859642],[10.769425881343444,43.91486488690825],[10.77015099402427,43.919157278699664],[10.776693237036797,43.921351581361044],[10.783428538395178,43.925962332680314],[10.783497747602809,43.92605335663484],[10.784283641135024,43.92667715854388],[10.78436493411207,43.92674153746531],[10.785145015973985,43.927147227215336],[10.785546330261127,43.927355787530786],[10.785694092361139,43.927432575895004],[10.790284822172376,43.92847714075864],[10.794902283937045,43.924586682657406],[10.7964414961276,43.92318553405193],[10.796837191110237,43.922675120683074],[10.796995714857887,43.92228394779026],[10.797077542003779,43.92208182580236],[10.797126930271885,43.921959758742055],[10.79711165853636,43.92191432714242],[10.797079172254946,43.921817971776726],[10.796867458367146,43.92119808890169],[10.796513141053929,43.92079726785259],[10.798715941935821,43.919710448276255],[10.803114033162547,43.918101532301066],[10.80455634888112,43.91820501754353],[10.805406779760208,43.91895665586916],[10.811100497786388,43.924340646436065],[10.815553326503679,43.922073166506465],[10.81418146359334,43.916692868402976],[10.81279690938568,43.91580550636334],[10.811432732861812,43.914930658476706],[10.809868449478502,43.91370013138388],[10.809491624604833,43.91335150014567],[10.809150879777745,43.913036243831264],[10.808116130036495,43.910945830215454],[10.807892809953108,43.90932875277264],[10.807893808194189,43.90928094202422],[10.807906171923113,43.90872502390359],[10.807907251375479,43.90869227558182],[10.807909746548077,43.90862636845954],[10.80861118964862,43.90673337545828],[10.806773731839352,43.90491446720998],[10.803534294213447,43.90119503958089],[10.797137880056676,43.89211285349715],[10.796141270483181,43.892092513999934],[10.794007128049428,43.89150481192691],[10.787372096704706,43.88903379921721],[10.786354350930893,43.88788827429023],[10.784404796434732,43.88472582383264],[10.782301886823396,43.87640014535492],[10.778491156944229,43.86619688902876],[10.776018974103659,43.86392016999757],[10.773445122092626,43.861061016926556],[10.772269622024911,43.8516081047402],[10.767752058749652,43.85412698780856]]]},"properties":{"name":"Montecatini-Terme","op_id":"4594","minint_elettorale":"2090630110","minint_finloc":"3090630110","prov_name":"Pistoia","prov_istat_code":"047","prov_istat_code_num":47,"prov_acr":"PT","reg_name":"Toscana","reg_istat_code":"09","reg_istat_code_num":9,"opdm_id":"4489","com_catasto_code":"A561","com_istat_code":"047011","com_istat_code_num":47011}},
{"type":"Feature","geometry":{"type":"Polygon","coordinates":[[[10.675019559453695,43.98497487679652],[10.676773744079593,43.984390908418504],[10.677799090270842,43.984898427941495],[10.680465033885199,43.98705566750108],[10.681193814497945,43.98769318249646],[10.690033593609032,43.99598983468699],[10.695961594812728,44.00313162090052],[10.69598560352486,44.00353641208639],[10.69607582500553,44.0049666454206],[10.696189855000362,44.005451080468674],[10.696542366018084,44.00642780742176],[10.696716151996702,44.0068477762034],[10.696940695732172,44.007285601495425],[10.697068791284217,44.00746136888526],[10.69727790143024,44.00774807997284],[10.699639728701623,44.01050466110436],[10.705506807130883,44.014558716964515],[10.707220008863425,44.01556851524706],[10.711033151519816,44.01758221096141],[10.714314780441216,44.018028185466406],[10.718344682606485,44.01759848399253],[10.721358874739698,44.01748140262218],[10.723741930232945,44.017427130430335],[10.727501051174574,44.018477735962385],[10.734743931042598,44.02249146524978],[10.737797612558657,44.02493902918413],[10.7381215662914,44.02534829078802],[10.738749549785819,44.02591494130952],[10.739437276131099,44.02639064624373],[10.740354183910387,44.02640236163104],[10.740401568808993,44.02640296674088],[10.741083145052222,44.02592215983469],[10.74290513748021,44.02241686671952],[10.744070229300009,44.02007261800511],[10.744059397164005,44.018910485949775],[10.742079051983035,44.00752456299966],[10.740390493262991,44.001543587085166],[10.735497741072574,43.99664774655077],[10.729327661748865,43.98251129090968],[10.729812884000115,43.98109498258784],[10.731190339944948,43.97861733437428],[10.73334179991494,43.975650382939186],[10.73474500254062,43.9741661276014],[10.737013297693856,43.972644138454264],[10.738074283060756,43.972049494794014],[10.735339913210948,43.96805749288164],[10.734859899558039,43.966984384233186],[10.734885176208525,43.96689420847396],[10.735064316680486,43.96629674148526],[10.735133172651738,43.966248872493715],[10.735528571915884,43.965974856034194],[10.737605562793917,43.96538507372755],[10.73856679382394,43.965150702032844],[10.740369370899261,43.96483881132436],[10.74700710832409,43.95952455427388],[10.753919130772092,43.951711767791366],[10.754105193861784,43.951470321886646],[10.75433923031365,43.951165115849314],[10.754741353881625,43.94789072030287],[10.75473500722288,43.947251579595154],[10.75447716249085,43.94653527087326],[10.753690649155821,43.94521485056279],[10.750691980638017,43.94324409232792],[10.747520292476079,43.942176560572506],[10.746379900742154,43.94151842517563],[10.745844947526114,43.941121450810826],[10.74544937174968,43.940803374461844],[10.745262852226812,43.94061781548508],[10.745128527899112,43.94048415509305],[10.74470576207795,43.939694099705534],[10.73902003296033,43.93396883253098],[10.738128383300625,43.934153467357085],[10.73702554691875,43.93435931353202],[10.732779751407428,43.934450805497015],[10.730412570556481,43.93445067429298],[10.729824392661628,43.93436054517819],[10.729215531715035,43.93399165142214],[10.728133551019049,43.93502087611086],[10.720234268879652,43.93749448568137],[10.719160107367466,43.93740261539557],[10.71796401264262,43.936970440271544],[10.716984852478243,43.93628289822576],[10.716309263818951,43.93575284848107],[10.715345058261905,43.92345068832044],[10.715609803388974,43.921393935907226],[10.715852931259084,43.92031887971517],[10.716210978161266,43.9189089695415],[10.717935221449993,43.916583389668325],[10.713813938576461,43.91524455257622],[10.706772180174042,43.91202771578605],[10.702721185310281,43.90666810716369],[10.69811533112883,43.89833105041505],[10.696358973145689,43.893810449095454],[10.69573433413264,43.892168490275516],[10.694943137305454,43.889972903273716],[10.693368981869892,43.88272119165057],[10.693371577216,43.882534026393905],[10.693378904223353,43.88208294956519],[10.693380542903935,43.88198284016152],[10.693391305466124,43.88193376622014],[10.693515514247656,43.881375538891255],[10.693554085215379,43.88122929348945],[10.693674547030561,43.88085464599934],[10.693775581142763,43.88059001792277],[10.693802511381206,43.88051954951849],[10.693830432629014,43.88044654182193],[10.693846739007165,43.88040437237852],[10.693928502720336,43.88031402595396],[10.694057132700669,43.88017330390736],[10.695266020358273,43.87953476689003],[10.695554878473702,43.87944540937241],[10.696813758973216,43.87920896567284],[10.69819466834101,43.87899622381049],[10.708177830649884,43.869726585235135],[10.708828773783925,43.86835073085101],[10.70887738619955,43.86825729413592],[10.709318130303862,43.86742927947204],[10.709395344448954,43.86728542145354],[10.710111981655617,43.865978524064985],[10.710149701236915,43.86590993667959],[10.710172696239177,43.86586815449784],[10.710187087868464,43.8658432432113],[10.710308482278194,43.86563415148093],[10.71034148656689,43.865577325737114],[10.710419048000425,43.86544390411657],[10.710458069420207,43.86537691147202],[10.710496692979259,43.86531063064916],[10.710535352639429,43.86524430965649],[10.710577841635862,43.865171428045215],[10.71061531298413,43.865107249656006],[10.7106596716931,43.86504596631217],[10.710704503045543,43.864984155467695],[10.710985874412474,43.864596780215784],[10.711263218837855,43.86435409053659],[10.711362158154303,43.86430384884706],[10.7114159627942,43.864277121623076],[10.711464087838747,43.86425339570899],[10.711745813867667,43.86413052160023],[10.711791506798498,43.86411061258228],[10.711856541327993,43.864095469235366],[10.711927950634097,43.86407887799463],[10.712046934417849,43.864051294429906],[10.712135080139852,43.86403114794921],[10.712262751445294,43.86400262184495],[10.712813003372588,43.863815270395925],[10.713198471186212,43.863633822298496],[10.713893518916151,43.863228131390755],[10.714636561193267,43.86275125497604],[10.714820456406338,43.86261868877288],[10.714869100413102,43.8625563886798],[10.714926628612615,43.862482130831886],[10.714955990292804,43.862401463861005],[10.714968950929219,43.86236476077004],[10.714997105931591,43.862283937231595],[10.715011326811513,43.8622253095531],[10.715027593603082,43.862155621797534],[10.71504401851273,43.862085026807414],[10.715058143995343,43.86202376971276],[10.715254047120299,43.861153398509956],[10.71526837901147,43.861088288358395],[10.715277046660653,43.86104882616129],[10.715283926049961,43.86101743099344],[10.715299421448863,43.86094668334405],[10.71531474667298,43.860875904033236],[10.7153294219091,43.86080745379651],[10.716679616713613,43.853824756130486],[10.713608035787942,43.85301919644265],[10.704797533518079,43.85299532740702],[10.700407997599028,43.85307566159619],[10.699547156727089,43.85314240825641],[10.695009117947809,43.85386802161139],[10.688822032117303,43.854087566986266],[10.687705947546544,43.854243387023914],[10.687218621283135,43.85909871976941],[10.687093293522034,43.86281761088357],[10.686775512967483,43.865416656580926],[10.68072258684297,43.87369009050409],[10.680413871186156,43.87393124952001],[10.678687405192182,43.87527921228405],[10.678372155052283,43.87552533897519],[10.674894585920686,43.87556557258192],[10.67356609240763,43.87501963602656],[10.670958157533041,43.873340219335],[10.671599500279124,43.87234736837807],[10.67348978392753,43.8709601700992],[10.674987479257302,43.86935329175635],[10.675062622165619,43.86926280723416],[10.676179541815412,43.86790457410526],[10.67078464357998,43.86655035187118],[10.669095482233653,43.8666374492095],[10.667644921467854,43.86681517850481],[10.66611075739105,43.86709707156449],[10.663907714175132,43.8676481377615],[10.658467239754978,43.867280000711396],[10.652861829550908,43.867934388080755],[10.65062326629461,43.86956058797034],[10.650055279856815,43.88089851817243],[10.656319534689878,43.88729961628596],[10.658209545469093,43.89002275659897],[10.658308529645339,43.89079078953282],[10.658309224499781,43.89125928534215],[10.65824133791313,43.89195353257365],[10.658211983401324,43.892129524752164],[10.658166202598746,43.89238677988402],[10.657962879128172,43.89268684538454],[10.655520863170675,43.89455987573249],[10.654379667663816,43.895259758418355],[10.653396459343204,43.896717723269155],[10.651960997060417,43.89903854460937],[10.649406790522512,43.904782468591144],[10.648090791599081,43.908070316511754],[10.647748706418557,43.90931657610425],[10.648505290279465,43.91086427230059],[10.648692671398209,43.91154682395727],[10.649197702128593,43.91241903433934],[10.650865753047432,43.913839671765835],[10.652635341418536,43.91432728141821],[10.654603405979374,43.91478497866632],[10.654935149735495,43.91488527755728],[10.655256531715743,43.91498259599861],[10.657510028986362,43.91585026420034],[10.657927625100799,43.916087297171636],[10.65855849435355,43.917388137390404],[10.660418423523778,43.921453173012246],[10.666434258101452,43.938832176460316],[10.671112329572873,43.95099279204375],[10.672768195112207,43.95853789198355],[10.671507724789867,43.96736182200913],[10.671083308459986,43.97578615513687],[10.673687009273621,43.983632363706455],[10.675019559453695,43.98497487679652]]]},"properties":{"name":"Pescia","op_id":"4595","minint_elettorale":"2090630120","minint_finloc":"3090630120","prov_name":"Pistoia","prov_istat_code":"047","prov_istat_code_num":47,"prov_acr":"PT","reg_name":"Toscana","reg_istat_code":"09","reg_istat_code_num":9,"opdm_id":"4490","com_catasto_code":"G491","com_istat_code":"047012","com_istat_code_num":47012}},
{"type":"Feature","geometry":{"type":"Polygon","coordinates":[[[10.816017282161152,43.88941935301729],[10.814986390229999,43.888679436396906],[10.81079470155601,43.88427940245056],[10.808600370677445,43.881953937335744],[10.808081251896082,43.881000960006325],[10.807405752252865,43.87883281674548],[10.807055542594851,43.87754185987078],[10.806721987913432,43.876286651433055],[10.806312787662963,43.87441865143523],[10.80548625740427,43.87060700094448],[10.799764307984807,43.856129683950044],[10.79530533488391,43.846632878710246],[10.791240722814493,43.839490132484464],[10.791147412659786,43.83921854838734],[10.791049962357505,43.838934905786324],[10.790986496803818,43.83847672174829],[10.79108385191282,43.83798900579462],[10.79134869414826,43.83771431660717],[10.796956547125744,43.83224257103799],[10.796884361051768,43.83219932500967],[10.79648793671267,43.83196183030713],[10.790943852243053,43.830815392085384],[10.789842895631553,43.83059855450234],[10.789161591386238,43.830690257324896],[10.788551583916208,43.831086960268365],[10.788337934798534,43.831328383973705],[10.788036344793706,43.831669338956225],[10.787953659994864,43.831787522985906],[10.787824276141373,43.832025719095675],[10.78774849365759,43.832165865459615],[10.787733325042659,43.832194698215936],[10.78769110866398,43.832275524960146],[10.787631204369356,43.83243557102093],[10.78751840006505,43.832737385107365],[10.783671810451478,43.84056742733937],[10.776072611303722,43.847967965414355],[10.772269622024911,43.8516081047402],[10.773445122092626,43.861061016926556],[10.776018974103659,43.86392016999757],[10.778491156944229,43.86619688902876],[10.782301886823396,43.87640014535492],[10.784404796434732,43.88472582383264],[10.786354350930893,43.88788827429023],[10.787372096704706,43.88903379921721],[10.794007128049428,43.89150481192691],[10.796141270483181,43.892092513999934],[10.797137880056676,43.89211285349715],[10.803534294213447,43.90119503958089],[10.806773731839352,43.90491446720998],[10.80861118964862,43.90673337545828],[10.813517393246997,43.905651260143976],[10.814666241733269,43.90455251318264],[10.813175910173573,43.90080880735303],[10.811498514727093,43.89736468502169],[10.811574256301013,43.89603538231591],[10.812579288896432,43.89304831006736],[10.812605913165953,43.892980787259404],[10.812879898911508,43.892287252461124],[10.813319295617188,43.891587013799686],[10.813740027865485,43.89109413852315],[10.814320275069257,43.89062272632901],[10.814712070497224,43.890304417590784],[10.81525921030645,43.889872589991754],[10.815362693545223,43.88981070766831],[10.816017282161152,43.88941935301729]]]},"properties":{"name":"Pieve a Nievole","op_id":"4596","minint_elettorale":"2090630130","minint_finloc":"3090630130","prov_name":"Pistoia","prov_istat_code":"047","prov_istat_code_num":47,"prov_acr":"PT","reg_name":"Toscana","reg_istat_code":"09","reg_istat_code_num":9,"opdm_id":"4491","com_catasto_code":"G636","com_istat_code":"047013","com_istat_code_num":47013}},
{"type":"Feature","geometry":{"type":"Polygon","coordinates":[[[10.856718733631435,44.09907228068446],[10.856796636398757,44.0990914325491],[10.857486517839867,44.09925808359973],[10.857533545011929,44.0992669935915],[10.858454173114948,44.09944049233586],[10.859571445608088,44.09961137267192],[10.864236041329077,44.10008613788899],[10.868642458648463,44.100155664228346],[10.875524784631539,44.09999873375757],[10.875947122650276,44.09995561993048],[10.876260099370075,44.099923633907814],[10.877052600108343,44.09969468465388],[10.8787072794055,44.09861952233308],[10.879780614264309,44.098263178315584],[10.880444268208795,44.09803987066072],[10.88059646475981,44.09798865829175],[10.881152723711606,44.09779961727667],[10.881385505510996,44.097718489562595],[10.88162143921505,44.097611662043775],[10.892349011382084,44.09200552808288],[10.901936064564019,44.086349422843135],[10.904053899558368,44.083968665924665],[10.90521534123648,44.0799345834308],[10.90414655569029,44.07749238798932],[10.899463292415739,44.067227906168426],[10.899181404108186,44.06657414586973],[10.899139510522117,44.06647682425839],[10.899209684011442,44.065935672982974],[10.899334055612226,44.06571758291521],[10.899365416916362,44.06566290690893],[10.899395095196757,44.06561132088381],[10.899517079650577,44.0653992907709],[10.900260767103688,44.064837728611586],[10.900863212931895,44.06448793579793],[10.901092928620745,44.06436868365432],[10.901710063334427,44.06406996301899],[10.901795632832542,44.06402890955033],[10.901831862182489,44.06401853326256],[10.90269874193681,44.063770631121194],[10.904729843393342,44.063250754623816],[10.910063406539177,44.0625404559293],[10.910897469252681,44.06246348156717],[10.912006063444156,44.06238190557903],[10.91230055628258,44.062369885117846],[10.91312828893379,44.06233610255014],[10.915235642255903,44.06225550191441],[10.916148460647767,44.062294482503866],[10.916904911714171,44.06247738974521],[10.91696239082637,44.06249130917383],[10.917012179381766,44.06250841965805],[10.917716630310512,44.06277848222959],[10.918470049887086,44.06187759224334],[10.919031470202354,44.06121325133787],[10.919116428744424,44.061112717044374],[10.919695251318434,44.060734423063955],[10.920195476203107,44.060408089011204],[10.922424065590713,44.05944327163413],[10.927113581750278,44.05813980955779],[10.928118372184281,44.057942722480384],[10.929351431937812,44.05784995457786],[10.930540625338049,44.05794690100248],[10.931904619241589,44.05842801419882],[10.932973915196278,44.059048918024175],[10.933036976679654,44.05906736165017],[10.934044589337846,44.05935063346864],[10.934120191005569,44.05937186131925],[10.93679431302676,44.05944358547541],[10.938017751346335,44.059440837554],[10.943861118602793,44.059071436955044],[10.946102061056163,44.05850194211834],[10.947076599072782,44.05814321200205],[10.953682067414924,44.05551852511522],[10.968396477201443,44.05124145254174],[10.97063465623557,44.05059964252263],[10.975416232974164,44.04686174845976],[10.976024429708264,44.046383062018606],[10.977603546422502,44.043573746922824],[10.978218632147577,44.04189750538886],[10.977509220516431,44.0396139778832],[10.97717466499212,44.03716105951641],[10.977524272952927,44.0357935575752],[10.979327378274728,44.03424338189362],[10.979395777735133,44.034191372161224],[10.979626298000085,44.03401668030906],[10.979729039204585,44.03393950701911],[10.979807031816373,44.03389924657756],[10.980428228125248,44.033585695192116],[10.98214384939685,44.03300628974554],[10.983332649074955,44.03279821404873],[10.984617559159666,44.032342110336174],[10.985026393755824,44.03215944357686],[10.98515010121996,44.031846682507236],[10.985959402034863,44.028429403682715],[10.986936419871391,44.02191209491735],[10.985704848922742,44.017819009338126],[10.987054780146764,44.01640003285946],[10.987115946365854,44.01633748163466],[10.987238350889104,44.01621230760549],[10.987645899899842,44.01579553466203],[10.989264021250275,44.01419179923961],[10.992771772573548,44.0114828682437],[10.994293615691275,44.010529808029084],[10.999537750898911,44.00785055212998],[11.006144721501823,44.00554061814135],[11.007467571701522,44.005359053003424],[11.009147173044862,44.005245684533655],[11.009896054624011,44.00525951848273],[11.01169909637454,44.005479679532435],[11.014333101862455,43.99573846920509],[11.009426758648706,43.995427175847674],[11.00818627592888,43.99229785646676],[11.008661227443516,43.98937245213664],[11.007578194428302,43.98425063441585],[11.003435590819285,43.9719348761207],[11.0000510375739,43.969896428097094],[10.99830748619315,43.96957581718378],[10.996686127394382,43.96918101858022],[10.995623318205196,43.96871341507461],[10.995312558811762,43.968367716903465],[10.994738370979876,43.96060927909541],[10.994758361466003,43.95777222714863],[10.994865268935081,43.95686931716483],[10.994921077505033,43.95648581262438],[10.995007129028853,43.955894483469564],[10.995451145773552,43.95426613277422],[10.996163563423693,43.95271878023074],[10.99789542877686,43.949861189781956],[11.003009894367974,43.94395674496692],[11.001499149843058,43.935714413482074],[10.998643474572052,43.92509548512199],[10.996756393964505,43.919561715847784],[10.99454922680392,43.9209695769667],[10.993160558319214,43.92153401722329],[10.991900991147844,43.921862102234016],[10.990794234189808,43.92196899629567],[10.99009894867911,43.91845021424463],[10.987535416893227,43.910837005478676],[10.98586323365691,43.910924613635906],[10.983644615664684,43.91091203757998],[10.980762132216535,43.910882707063465],[10.98038750160087,43.91051334871035],[10.980085069781822,43.9101805493483],[10.979873894509526,43.90925949163244],[10.979690133156737,43.908214999175776],[10.981046521014173,43.89843509028559],[10.980636275281375,43.894942040651536],[10.981129455860195,43.89276148248403],[10.982890845567521,43.891731546343],[10.980547022437218,43.889474091712486],[10.97084522036478,43.88187431690313],[10.958890486316623,43.87358971810728],[10.95204521376297,43.878636812097945],[10.942875334006725,43.88554967005338],[10.937768811086668,43.88316937004873],[10.93404785991709,43.88853570281237],[10.929978974342935,43.89014938881639],[10.924934377162732,43.8913367302079],[10.923598598021382,43.891505508997774],[10.917704819290035,43.89216028917481],[10.91761947329518,43.892159096470714],[10.91755842589018,43.89215820890054],[10.91677033528587,43.89213988521632],[10.916011217323323,43.890287535886685],[10.915906351296831,43.88995602366406],[10.91582912647426,43.88940311762335],[10.91583941222636,43.888995921099536],[10.91586578328823,43.88872642415207],[10.915973225285514,43.88846512557559],[10.910462615070317,43.888167765759924],[10.899472928721949,43.893913960834325],[10.893063206418786,43.8960793054984],[10.88952275337104,43.89609919873317],[10.888361988879817,43.89586314491754],[10.88722870870533,43.89521502486106],[10.887213399344093,43.89405099809813],[10.887119546731604,43.89258931788861],[10.887044931958673,43.8923851512929],[10.886736058422422,43.89207804560352],[10.88589963404056,43.892117177552485],[10.882504475904522,43.892906853986325],[10.872953895912502,43.89515360666229],[10.870080287133332,43.896425167303995],[10.869898124688318,43.89652066269214],[10.86962327675834,43.89666477736104],[10.869061504246039,43.89695964699266],[10.868451011887997,43.89728009280994],[10.868243941579397,43.89765332174752],[10.867897069066508,43.89827952649857],[10.86751286455844,43.89952763625818],[10.867528276190239,43.89956376466118],[10.867833696855467,43.90023431110898],[10.86815324299242,43.90056837014745],[10.868828662215483,43.90570620316841],[10.866515591785666,43.91073942861728],[10.866097202150176,43.91160697879139],[10.858527975406941,43.91649440758518],[10.852860068211308,43.916468255801625],[10.850178083661154,43.91690525336091],[10.848344476471103,43.91970173415918],[10.846480737687607,43.923639206799955],[10.846579244170519,43.92561826552391],[10.846141651069258,43.92999206531229],[10.83328153696861,43.9298750584955],[10.826217670360544,43.93068143706903],[10.826512299601664,43.93430608031354],[10.826595628105345,43.938285433302575],[10.827470174333984,43.93948009768745],[10.830836519583563,43.94316713045251],[10.836220409162175,43.94845574601097],[10.83900566362707,43.95067978174196],[10.839901106825062,43.950620345285984],[10.841320270289373,43.95541422691625],[10.836497977613279,43.968461960240695],[10.834268359033343,43.97292225752172],[10.834181272629005,43.973049411539435],[10.834039879244855,43.97325414355295],[10.833564981540079,43.97394155780865],[10.833087275728456,43.97446667428239],[10.832915956254373,43.97465499387235],[10.832708648228193,43.97488284913838],[10.828600965264922,43.97793778361793],[10.828573237981468,43.977956109988774],[10.828503205239043,43.978002371286955],[10.827879811035919,43.97840850071695],[10.826233977769968,43.97881297111055],[10.818254796590365,43.98337282318279],[10.808680041190364,43.99195641860325],[10.807743038427605,43.995628148802446],[10.807993660198491,43.99648849674853],[10.80864828114956,43.99709936002747],[10.80889902323314,43.99728903894392],[10.80932484268846,43.99761083509609],[10.810203131649283,43.99824418477962],[10.810811270414302,43.99973018251164],[10.81305986199632,44.00735380627865],[10.810009215226668,44.00936222743313],[10.807079311162337,44.01182388197587],[10.805562711122917,44.01325850696141],[10.805369567810974,44.013609364726044],[10.80607428419574,44.015418740706664],[10.80609814473905,44.01547599550728],[10.806225997727001,44.015776479216875],[10.806643895721072,44.01649929693198],[10.807376778591475,44.01764710639855],[10.807566789382008,44.017790843878046],[10.808181280015173,44.01825559834221],[10.810771178923028,44.020052448921994],[10.81196689670205,44.02058359582823],[10.820744075245955,44.02403636808523],[10.825072084542635,44.02530202415349],[10.825963379721033,44.02547684681653],[10.82659693448752,44.025588259734036],[10.828025567743929,44.0256869481094],[10.829463226716374,44.02569865965497],[10.832586937493879,44.024800140147875],[10.83503549370959,44.023782850676646],[10.838790329084741,44.022038858808216],[10.83946225949407,44.021172731565365],[10.846130706869443,44.02055639424319],[10.852749636184788,44.02365888430702],[10.857513390968723,44.028267691811415],[10.8681120672054,44.03466493324231],[10.878878387325587,44.03661983257147],[10.88093520845185,44.0371351748811],[10.881957679901072,44.03740193279319],[10.884453528576403,44.03897637102354],[10.889972120156518,44.042621900124054],[10.890252741814553,44.04354244761862],[10.890177251619406,44.04401411417498],[10.889689349607174,44.04515659032998],[10.88948447844421,44.04558312968887],[10.888250399576181,44.04720610821392],[10.887815839364906,44.047770364187116],[10.882794932712459,44.05308120904401],[10.878094729380564,44.06078193680818],[10.87318599439759,44.06327134373218],[10.870117304842474,44.06393520475247],[10.870043348026568,44.06397114389416],[10.86998934865701,44.06399771967718],[10.869875990031176,44.06405437744856],[10.86977910743822,44.06410305230314],[10.869677579332427,44.06415424840311],[10.86868911163548,44.064711246513454],[10.86860260258918,44.0647642315564],[10.868137756368215,44.065052202128754],[10.867927200576657,44.06518332176779],[10.8675461959343,44.065478823801854],[10.866729224824123,44.066223578484355],[10.866277345208449,44.066744144329675],[10.865951090558902,44.06748773525987],[10.865536232290697,44.06849161286201],[10.86545364780439,44.06914340070782],[10.86544865222317,44.06919313695875],[10.865480355260978,44.069240492068005],[10.865694864277202,44.069560253995554],[10.873022529807296,44.07216615252531],[10.87940685831504,44.07512459787097],[10.881099642075029,44.07603080752976],[10.883294398731651,44.07735674431294],[10.884126236786612,44.078375138871856],[10.880737355655212,44.08127859015613],[10.874545114228393,44.084423346269375],[10.868741046772007,44.08848609058062],[10.859678545516648,44.095456199309154],[10.858722395821152,44.096281526435384],[10.858108023238428,44.096862432497424],[10.857343745685425,44.0976336987],[10.857232886508971,44.09781898937638],[10.856718733631435,44.09907228068446]]]},"properties":{"name":"Pistoia","op_id":"4597","minint_elettorale":"2090630140","minint_finloc":"3090630140","prov_name":"Pistoia","prov_istat_code":"047","prov_istat_code_num":47,"prov_acr":"PT","reg_name":"Toscana","reg_istat_code":"09","reg_istat_code_num":9,"opdm_id":"4492","com_catasto_code":"G713","com_istat_code":"047014","com_istat_code_num":47014}},
{"type":"Feature","geometry":{"type":"Polygon","coordinates":[[[10.726033447949,43.86073935768688],[10.726255894266687,43.86065098694895],[10.726875330050275,43.86040598268034],[10.72732998290455,43.86026953571985],[10.72788692189637,43.860102575548204],[10.728275500722962,43.86000897807171],[10.728565758482492,43.85993907150364],[10.729283276331778,43.859766308407245],[10.73109258302462,43.85953182585759],[10.731623116983783,43.85947694574401],[10.733437957318479,43.85928920300506],[10.734178612235919,43.859218617672454],[10.735460597428892,43.859096432017886],[10.736661116121974,43.85900777965093],[10.737149239545765,43.858971730943594],[10.7373066234378,43.858977901965375],[10.737903884523604,43.859003582641996],[10.73825579930542,43.859018921715005],[10.738454204835996,43.859027616452],[10.738544392935301,43.859031720921436],[10.738651806319389,43.85904623330017],[10.744763415239081,43.859500304468796],[10.755245139154109,43.85920348833377],[10.756067973438114,43.859028401386254],[10.757183105811134,43.858615637194944],[10.758408708318044,43.85807682812636],[10.767752058749652,43.85412698780856],[10.772269622024911,43.8516081047402],[10.776072611303722,43.847967965414355],[10.783671810451478,43.84056742733937],[10.78751840006505,43.832737385107365],[10.787631204369356,43.83243557102093],[10.78769110866398,43.832275524960146],[10.787733325042659,43.832194698215936],[10.78774849365759,43.832165865459615],[10.787824276141373,43.832025719095675],[10.787953659994864,43.831787522985906],[10.788036344793706,43.831669338956225],[10.788337934798534,43.831328383973705],[10.788551583916208,43.831086960268365],[10.789161591386238,43.830690257324896],[10.789842895631553,43.83059855450234],[10.790943852243053,43.830815392085384],[10.79648793671267,43.83196183030713],[10.796884361051768,43.83219932500967],[10.796956547125744,43.83224257103799],[10.8092215480999,43.817859677594235],[10.81567034576998,43.80870858004706],[10.812871432545238,43.8077799372882],[10.806424765813329,43.80563142609939],[10.802886864878847,43.80432821409766],[10.798234689973174,43.80260103125157],[10.795285035702904,43.80150819398612],[10.787744871865483,43.79877625076863],[10.786474774341055,43.79874354215392],[10.769996985958713,43.800007569582554],[10.7675048873851,43.80064938863667],[10.766925542113365,43.800815912370474],[10.76682693967642,43.80084445081693],[10.766617434116938,43.800906214967576],[10.747651755280602,43.80746061434915],[10.743469292707747,43.809130125927254],[10.736225928575907,43.812140408264064],[10.736026939820952,43.812566625025056],[10.735746420520346,43.81319208243634],[10.735456521208514,43.81387203377538],[10.735417138647621,43.813991757152934],[10.735401022918808,43.8140409825646],[10.735360906782429,43.81416436263041],[10.735227276827297,43.81457756260321],[10.73489739568519,43.815653623621685],[10.733208751918372,43.82130684312551],[10.732929255089967,43.82239150852397],[10.732910270216674,43.82296890475761],[10.732909461144514,43.82299522468913],[10.73442235500585,43.82319791388812],[10.735332912714226,43.82575193990831],[10.735767736164542,43.82844953762197],[10.73550757439743,43.83196827773081],[10.732694103513541,43.839601329580425],[10.728787102344132,43.846034667620906],[10.727491769860222,43.851587305325594],[10.7280207676169,43.85339473445527],[10.728187995210158,43.85409574941125],[10.72819809520687,43.85417691957909],[10.72822557275465,43.8544784206411],[10.728215115399127,43.85462840452983],[10.728203735187588,43.854756436365854],[10.728193613133525,43.85478898972418],[10.72814927050908,43.85493071489022],[10.728126811945204,43.85500238267816],[10.728082427273515,43.85514352411823],[10.727226327826216,43.857721441356894],[10.726033447949,43.86073935768688]]]},"properties":{"name":"Ponte Buggianese","op_id":"4599","minint_elettorale":"2090630160","minint_finloc":"3090630160","prov_name":"Pistoia","prov_istat_code":"047","prov_istat_code_num":47,"prov_acr":"PT","reg_name":"Toscana","reg_istat_code":"09","reg_istat_code_num":9,"opdm_id":"4493","com_catasto_code":"G833","com_istat_code":"047016","com_istat_code_num":47016}},
{"type":"Feature","geometry":{"type":"Polygon","coordinates":[[[10.982890845567521,43.891731546343],[10.985176329631779,43.88818951952563],[10.992777318647045,43.88161350243504],[11.000525448472294,43.87563210971298],[11.006109828455894,43.871707758699365],[11.013332502310924,43.869516550516785],[11.017529487373567,43.86663703409182],[11.0230821344248,43.86030863342235],[11.025351528311889,43.857134748837645],[11.02570400972598,43.8563224179172],[11.025741881956263,43.85556230792701],[11.024558346018715,43.85086316696027],[11.028212622590933,43.841992163220446],[11.032208889587166,43.83879877415911],[11.032820795619172,43.838137420942324],[11.032400452967364,43.83850838777807],[11.028864162478746,43.83953298358076],[11.028821546933964,43.83954401075383],[11.027421076489025,43.839900452475916],[11.024432737718904,43.84056483340745],[11.023477148823163,43.840714806135544],[11.021362888261494,43.84096058971231],[11.021065162768457,43.84073587313655],[11.020940319530315,43.84063652649606],[11.018643017461324,43.83871464164017],[11.015214546046495,43.83572274961839],[11.013115904475436,43.83372930886073],[11.004811688791948,43.83076469589865],[10.998349558380339,43.830914048687994],[10.989291018593988,43.828164059781734],[10.988346262156583,43.82780236152146],[10.9842251075951,43.82578520792627],[10.984187830864876,43.82562689218725],[10.984065474376504,43.82510430259322],[10.98406774431508,43.824917849924724],[10.984076140901813,43.82429318133073],[10.9843318425717,43.82358474652951],[10.980030344512086,43.818948639332326],[10.973059294830406,43.8154655965937],[10.964114436947819,43.81248327474456],[10.956007603874536,43.819625850927544],[10.952906722833326,43.819554226060596],[10.948116086745308,43.82062267706449],[10.944993907722576,43.82200761816233],[10.943079258223156,43.82288202649567],[10.941989738838195,43.82341375015138],[10.938188351834553,43.82852927008582],[10.934276794385218,43.83662227057528],[10.918026710481149,43.84516584945346],[10.914892930408593,43.847145164113435],[10.917167578389215,43.84902475275912],[10.926396480866075,43.8603002772233],[10.927320641950125,43.86151693451226],[10.930465508201001,43.867816464689234],[10.931036769525091,43.87044501643454],[10.931036308509677,43.870658045358695],[10.931036764560382,43.870973332284045],[10.931037207928242,43.871207654496665],[10.93103731673141,43.87126411993473],[10.931183759918826,43.87175431431868],[10.931232682189394,43.871918067711114],[10.931717575165823,43.873540144208164],[10.932652634860586,43.87566387250257],[10.937045815446716,43.88237129384649],[10.937768811086668,43.88316937004873],[10.942875334006725,43.88554967005338],[10.95204521376297,43.878636812097945],[10.958890486316623,43.87358971810728],[10.97084522036478,43.88187431690313],[10.980547022437218,43.889474091712486],[10.982890845567521,43.891731546343]]]},"properties":{"name":"Quarrata","op_id":"4600","minint_elettorale":"2090630161","minint_finloc":"3090630161","prov_name":"Pistoia","prov_istat_code":"047","prov_istat_code_num":47,"prov_acr":"PT","reg_name":"Toscana","reg_istat_code":"09","reg_istat_code_num":9,"opdm_id":"4494","com_catasto_code":"H109","com_istat_code":"047017","com_istat_code_num":47017}},
{"type":"Feature","geometry":{"type":"Polygon","coordinates":[[[11.032199004581118,44.0960075340399],[11.0363628743831,44.096420427180156],[11.040922487422273,44.09634502311669],[11.047130732449851,44.094949401934564],[11.048624455312195,44.093232137154494],[11.049427124629327,44.0902460680692],[11.04776299028959,44.086506617353834],[11.051648731046868,44.07791075752262],[11.054160555004202,44.072301845058206],[11.049458281879993,44.061297196457595],[11.044574616210275,44.05081649784548],[11.04016732626429,44.04503993972585],[11.039135184364268,44.03519951762292],[11.039742863699283,44.033198506752704],[11.038025166038146,44.0289287605821],[11.033200338749264,44.02205507269851],[11.029862449452176,44.017950818547675],[11.020988842457404,44.00904319092141],[11.016822262976358,44.00719915564249],[11.01169909637454,44.005479679532435],[11.009896054624011,44.00525951848273],[11.009147173044862,44.005245684533655],[11.007467571701522,44.005359053003424],[11.006144721501823,44.00554061814135],[10.999537750898911,44.00785055212998],[10.994293615691275,44.010529808029084],[10.992771772573548,44.0114828682437],[10.989264021250275,44.01419179923961],[10.987645899899842,44.01579553466203],[10.987238350889104,44.01621230760549],[10.987115946365854,44.01633748163466],[10.987054780146764,44.01640003285946],[10.985704848922742,44.017819009338126],[10.986936419871391,44.02191209491735],[10.985959402034863,44.028429403682715],[10.98515010121996,44.031846682507236],[10.985026393755824,44.03215944357686],[10.984617559159666,44.032342110336174],[10.983332649074955,44.03279821404873],[10.98214384939685,44.03300628974554],[10.980428228125248,44.033585695192116],[10.979807031816373,44.03389924657756],[10.979729039204585,44.03393950701911],[10.979626298000085,44.03401668030906],[10.979395777735133,44.034191372161224],[10.979327378274728,44.03424338189362],[10.977524272952927,44.0357935575752],[10.97717466499212,44.03716105951641],[10.977509220516431,44.0396139778832],[10.978218632147577,44.04189750538886],[10.977603546422502,44.043573746922824],[10.976024429708264,44.046383062018606],[10.975416232974164,44.04686174845976],[10.97063465623557,44.05059964252263],[10.968396477201443,44.05124145254174],[10.953682067414924,44.05551852511522],[10.947076599072782,44.05814321200205],[10.946102061056163,44.05850194211834],[10.943861118602793,44.059071436955044],[10.938017751346335,44.059440837554],[10.93679431302676,44.05944358547541],[10.934120191005569,44.05937186131925],[10.934044589337846,44.05935063346864],[10.933036976679654,44.05906736165017],[10.932973915196278,44.059048918024175],[10.931904619241589,44.05842801419882],[10.930540625338049,44.05794690100248],[10.929351431937812,44.05784995457786],[10.928118372184281,44.057942722480384],[10.927113581750278,44.05813980955779],[10.922424065590713,44.05944327163413],[10.920195476203107,44.060408089011204],[10.919695251318434,44.060734423063955],[10.919116428744424,44.061112717044374],[10.919031470202354,44.06121325133787],[10.918470049887086,44.06187759224334],[10.917716630310512,44.06277848222959],[10.920880609777933,44.066343160831245],[10.92670745556618,44.074877171126914],[10.929006476166705,44.07614716630286],[10.932867780028085,44.07740973472065],[10.939081941545084,44.07940336578101],[10.941826862719118,44.08028591936793],[10.941916269069901,44.0803172339175],[10.942635476498205,44.080569284854725],[10.942960677411916,44.08069894958187],[10.943457768651172,44.08089729642347],[10.944143299704788,44.081227872346744],[10.944732538092424,44.08167699676251],[10.964278657203108,44.10195604617382],[10.969610850428746,44.111746708970934],[10.971373316063618,44.116269236098546],[10.982250366495652,44.124255664931994],[10.985051231067605,44.12540508348971],[10.993466112849926,44.12921927631176],[10.993650146130898,44.12932864339269],[10.994040081866816,44.12956037255905],[10.99454182452841,44.12998375283236],[10.994817169468012,44.130366051147234],[10.994906072015926,44.13063952220407],[10.994955431230352,44.13079539544769],[10.99496025578416,44.13090347476155],[10.994968561531696,44.13115000729736],[10.994975111745195,44.13134462874194],[10.994875409070568,44.131724500882136],[10.994630023678049,44.1322329513723],[10.994466159831628,44.132459331227],[10.994429516900249,44.13250974225823],[10.994264659443129,44.1327353549959],[10.994211524060988,44.13280726082225],[10.99355902241167,44.13346705827238],[10.993181613336494,44.1337851099477],[10.99306106785054,44.1338857331969],[10.992871488281734,44.13404296535333],[10.996163119616908,44.13617651488724],[11.006391387009621,44.138833232618275],[11.006952946567477,44.13854579635464],[11.012381195763897,44.13816931703235],[11.01430919893906,44.1374874349853],[11.014424335942849,44.13728051025463],[11.01454462719102,44.13706030041043],[11.015145036507056,44.13254035321601],[11.015183100683824,44.12929848163431],[11.015012354012788,44.12618522763692],[11.014979693368518,44.1258032284065],[11.01492934422946,44.12521435483017],[11.01485856100421,44.124905063999755],[11.014755889833973,44.12445662234639],[11.01473838906372,44.124380345932586],[11.014537999680874,44.12399673452685],[11.01420270579594,44.12369655560891],[11.0140062395769,44.12356944630025],[11.013732217824963,44.123392159473575],[11.013525393344175,44.1232583472791],[11.013170348359585,44.12313404317621],[11.012766462448555,44.12299263752502],[11.011945393674162,44.122737008870665],[11.009382060156765,44.12196292792527],[11.008678538782934,44.12178282794209],[11.008296840470434,44.12168511173707],[11.007422990163533,44.12161390222961],[11.007295189851128,44.121603487501176],[11.006167439977743,44.121515270938964],[11.002110623795222,44.112351704096184],[11.011460024078445,44.1043794375796],[11.012695242970235,44.10359242054696],[11.013623190507133,44.1033238247906],[11.014481730975373,44.103218801668504],[11.023992680858159,44.09745057442705],[11.027674641491489,44.09611772873589],[11.028337899125823,44.09593304841242],[11.0291073343004,44.09581157881059],[11.029690024943722,44.095794941069165],[11.029976020757694,44.095787023629114],[11.030030744160971,44.09578696022313],[11.03148120066379,44.09582333251758],[11.032199004581118,44.0960075340399]]]},"properties":{"name":"Sambuca Pistoiese","op_id":"4601","minint_elettorale":"2090630170","minint_finloc":"3090630170","prov_name":"Pistoia","prov_istat_code":"047","prov_istat_code_num":47,"prov_acr":"PT","reg_name":"Toscana","reg_istat_code":"09","reg_istat_code_num":9,"opdm_id":"4495","com_catasto_code":"H744","com_istat_code":"047018","com_istat_code_num":47018}},
{"type":"Feature","geometry":{"type":"Polygon","coordinates":[[[10.914892930408593,43.847145164113435],[10.906159246385922,43.8467420130384],[10.906112417250919,43.84802091755976],[10.906100990015528,43.84810729282869],[10.905971679310825,43.84904925615018],[10.905891222471476,43.84913422873291],[10.905806138860653,43.84922405392137],[10.905249238321373,43.84980937055148],[10.898142438808447,43.85285382375132],[10.896793563111189,43.853083307255126],[10.890369992461455,43.85375700013558],[10.88884974024798,43.85368310880174],[10.887592849942425,43.853280720440125],[10.886157626125666,43.85274621046856],[10.884468337727828,43.85204480808681],[10.881963432570139,43.85091866753207],[10.879238260906046,43.85744300795688],[10.88009670515189,43.859814800822775],[10.881613534201783,43.864751786966934],[10.874097405528344,43.86690906324505],[10.873052209240223,43.86713769396523],[10.872540043063147,43.86724972251849],[10.871059265509116,43.86748412517681],[10.871016879232121,43.867490762610004],[10.870426178003347,43.86755614395068],[10.870300661516433,43.86757000885525],[10.870247921731925,43.86757535963731],[10.863997249164557,43.87104404238447],[10.859793154551829,43.87363696299951],[10.858687148972779,43.87561702527037],[10.85816886539186,43.876541829649376],[10.857545781836487,43.8772389937388],[10.857393637425666,43.8774091822321],[10.857278039094064,43.8775378292991],[10.857186106710065,43.87760777577313],[10.856184079643231,43.87836604152799],[10.855758598835928,43.87868781488939],[10.849920578325989,43.88269901296259],[10.848640646224789,43.883566246332045],[10.847661697417536,43.88412209950371],[10.84049797728329,43.88679350269728],[10.834827802195935,43.888092463583675],[10.832353860190507,43.888568193184895],[10.829597820078863,43.88770391718594],[10.82468206782676,43.88738154626676],[10.818436652079653,43.88710298658929],[10.817062396353936,43.887745973692006],[10.816017282161152,43.88941935301729],[10.815362693545223,43.88981070766831],[10.81525921030645,43.889872589991754],[10.814712070497224,43.890304417590784],[10.814320275069257,43.89062272632901],[10.813740027865485,43.89109413852315],[10.813319295617188,43.891587013799686],[10.812879898911508,43.892287252461124],[10.812605913165953,43.892980787259404],[10.812579288896432,43.89304831006736],[10.811574256301013,43.89603538231591],[10.811498514727093,43.89736468502169],[10.813175910173573,43.90080880735303],[10.814666241733269,43.90455251318264],[10.813517393246997,43.905651260143976],[10.80861118964862,43.90673337545828],[10.807909746548077,43.90862636845954],[10.807907251375479,43.90869227558182],[10.807906171923113,43.90872502390359],[10.807893808194189,43.90928094202422],[10.807892809953108,43.90932875277264],[10.808116130036495,43.910945830215454],[10.809150879777745,43.913036243831264],[10.809491624604833,43.91335150014567],[10.809868449478502,43.91370013138388],[10.811432732861812,43.914930658476706],[10.81279690938568,43.91580550636334],[10.81418146359334,43.916692868402976],[10.815553326503679,43.922073166506465],[10.811100497786388,43.924340646436065],[10.811630954204821,43.924989511610775],[10.811695449733053,43.9250512572352],[10.81309354992604,43.92638884071204],[10.814154344917116,43.92729083177195],[10.817742920498008,43.929754241394164],[10.823845424753014,43.93061132716484],[10.826217670360544,43.93068143706903],[10.83328153696861,43.9298750584955],[10.846141651069258,43.92999206531229],[10.846579244170519,43.92561826552391],[10.846480737687607,43.923639206799955],[10.848344476471103,43.91970173415918],[10.850178083661154,43.91690525336091],[10.852860068211308,43.916468255801625],[10.858527975406941,43.91649440758518],[10.866097202150176,43.91160697879139],[10.866515591785666,43.91073942861728],[10.868828662215483,43.90570620316841],[10.86815324299242,43.90056837014745],[10.867833696855467,43.90023431110898],[10.867528276190239,43.89956376466118],[10.86751286455844,43.89952763625818],[10.867897069066508,43.89827952649857],[10.868243941579397,43.89765332174752],[10.868451011887997,43.89728009280994],[10.869061504246039,43.89695964699266],[10.86962327675834,43.89666477736104],[10.869898124688318,43.89652066269214],[10.870080287133332,43.896425167303995],[10.872953895912502,43.89515360666229],[10.882504475904522,43.892906853986325],[10.88589963404056,43.892117177552485],[10.886736058422422,43.89207804560352],[10.887044931958673,43.8923851512929],[10.887119546731604,43.89258931788861],[10.887213399344093,43.89405099809813],[10.88722870870533,43.89521502486106],[10.888361988879817,43.89586314491754],[10.88952275337104,43.89609919873317],[10.893063206418786,43.8960793054984],[10.899472928721949,43.893913960834325],[10.910462615070317,43.888167765759924],[10.915973225285514,43.88846512557559],[10.91586578328823,43.88872642415207],[10.91583941222636,43.888995921099536],[10.91582912647426,43.88940311762335],[10.915906351296831,43.88995602366406],[10.916011217323323,43.890287535886685],[10.91677033528587,43.89213988521632],[10.91755842589018,43.89215820890054],[10.91761947329518,43.892159096470714],[10.917704819290035,43.89216028917481],[10.923598598021382,43.891505508997774],[10.924934377162732,43.8913367302079],[10.929978974342935,43.89014938881639],[10.93404785991709,43.88853570281237],[10.937768811086668,43.88316937004873],[10.937045815446716,43.88237129384649],[10.932652634860586,43.87566387250257],[10.931717575165823,43.873540144208164],[10.931232682189394,43.871918067711114],[10.931183759918826,43.87175431431868],[10.93103731673141,43.87126411993473],[10.931037207928242,43.871207654496665],[10.931036764560382,43.870973332284045],[10.931036308509677,43.870658045358695],[10.931036769525091,43.87044501643454],[10.930465508201001,43.867816464689234],[10.927320641950125,43.86151693451226],[10.926396480866075,43.8603002772233],[10.917167578389215,43.84902475275912],[10.914892930408593,43.847145164113435]]]},"properties":{"name":"Serravalle Pistoiese","op_id":"4603","minint_elettorale":"2090630190","minint_finloc":"3090630190","prov_name":"Pistoia","prov_istat_code":"047","prov_istat_code_num":47,"prov_acr":"PT","reg_name":"Toscana","reg_istat_code":"09","reg_istat_code_num":9,"opdm_id":"4496","com_catasto_code":"I660","com_istat_code":"047020","com_istat_code_num":47020}},
{"type":"Feature","geometry":{"type":"Polygon","coordinates":[[[10.717935221449993,43.916583389668325],[10.716464018678078,43.91154225775291],[10.716296767936953,43.90253912960347],[10.716327692791321,43.90087336339311],[10.716532020708465,43.900172998954],[10.718050126708404,43.89700896360173],[10.718192762898429,43.886926020857395],[10.717568803124212,43.88644021394065],[10.716976752523639,43.885764850842094],[10.71637142512714,43.885062475389944],[10.71619416179378,43.884785221419236],[10.716076448594121,43.88460038523548],[10.716058881177414,43.884572161051615],[10.714963513014238,43.88277987932093],[10.714403579533236,43.881841978754544],[10.714232980108754,43.88140618459021],[10.713902920462232,43.87891293824397],[10.71387967947641,43.878537927620094],[10.713929194199075,43.87849206897168],[10.714156637372835,43.87828175438679],[10.714865060378315,43.87771841543994],[10.715191265865021,43.877608694794816],[10.715571486176872,43.87751591709041],[10.71564921122648,43.8774972065028],[10.717976883896373,43.87713018417073],[10.721053006176383,43.870567039419775],[10.72444639405749,43.86120027553768],[10.712262751445294,43.86400262184495],[10.712135080139852,43.86403114794921],[10.712046934417849,43.864051294429906],[10.711927950634097,43.86407887799463],[10.711856541327993,43.864095469235366],[10.711791506798498,43.86411061258228],[10.711745813867667,43.86413052160023],[10.711464087838747,43.86425339570899],[10.7114159627942,43.864277121623076],[10.711362158154303,43.86430384884706],[10.711263218837855,43.86435409053659],[10.710985874412474,43.864596780215784],[10.710704503045543,43.864984155467695],[10.7106596716931,43.86504596631217],[10.71061531298413,43.865107249656006],[10.710577841635862,43.865171428045215],[10.710535352639429,43.86524430965649],[10.710496692979259,43.86531063064916],[10.710458069420207,43.86537691147202],[10.710419048000425,43.86544390411657],[10.71034148656689,43.865577325737114],[10.710308482278194,43.86563415148093],[10.710187087868464,43.8658432432113],[10.710172696239177,43.86586815449784],[10.710149701236915,43.86590993667959],[10.710111981655617,43.865978524064985],[10.709395344448954,43.86728542145354],[10.709318130303862,43.86742927947204],[10.70887738619955,43.86825729413592],[10.708828773783925,43.86835073085101],[10.708177830649884,43.869726585235135],[10.69819466834101,43.87899622381049],[10.696813758973216,43.87920896567284],[10.695554878473702,43.87944540937241],[10.695266020358273,43.87953476689003],[10.694057132700669,43.88017330390736],[10.693928502720336,43.88031402595396],[10.693846739007165,43.88040437237852],[10.693830432629014,43.88044654182193],[10.693802511381206,43.88051954951849],[10.693775581142763,43.88059001792277],[10.693674547030561,43.88085464599934],[10.693554085215379,43.88122929348945],[10.693515514247656,43.881375538891255],[10.693391305466124,43.88193376622014],[10.693380542903935,43.88198284016152],[10.693378904223353,43.88208294956519],[10.693371577216,43.882534026393905],[10.693368981869892,43.88272119165057],[10.694943137305454,43.889972903273716],[10.69573433413264,43.892168490275516],[10.696358973145689,43.893810449095454],[10.69811533112883,43.89833105041505],[10.702721185310281,43.90666810716369],[10.706772180174042,43.91202771578605],[10.713813938576461,43.91524455257622],[10.717935221449993,43.916583389668325]]]},"properties":{"name":"Uzzano","op_id":"4604","minint_elettorale":"2090630210","minint_finloc":"3090630210","prov_name":"Pistoia","prov_istat_code":"047","prov_istat_code_num":47,"prov_acr":"PT","reg_name":"Toscana","reg_istat_code":"09","reg_istat_code_num":9,"opdm_id":"4497","com_catasto_code":"L522","com_istat_code":"047021","com_istat_code_num":47021}},
{"type":"Feature","geometry":{"type":"Polygon","coordinates":[[[10.727755195216652,43.814168617994895],[10.726346876803708,43.81923188705636],[10.723977790298367,43.824624730290424],[10.721117155711797,43.831096392124216],[10.721030753136287,43.83123316372009],[10.72093435817802,43.83138556475726],[10.720871208501306,43.831485316094586],[10.720783587095196,43.831623555434845],[10.720679205314624,43.83178012996335],[10.720437793215725,43.83214194684318],[10.720388708677108,43.83220697619413],[10.720167923582888,43.83249944315502],[10.720114439336767,43.83256997320166],[10.717843499905062,43.834490979715994],[10.716500030912307,43.83559910376047],[10.706474483080369,43.842750154236015],[10.705973401535799,43.842827588117835],[10.705355064165511,43.842693403875835],[10.695009117947809,43.85386802161139],[10.699547156727089,43.85314240825641],[10.700407997599028,43.85307566159619],[10.704797533518079,43.85299532740702],[10.713608035787942,43.85301919644265],[10.716679616713613,43.853824756130486],[10.7153294219091,43.86080745379651],[10.71531474667298,43.860875904033236],[10.715299421448863,43.86094668334405],[10.715283926049961,43.86101743099344],[10.715277046660653,43.86104882616129],[10.71526837901147,43.861088288358395],[10.715254047120299,43.861153398509956],[10.715058143995343,43.86202376971276],[10.71504401851273,43.862085026807414],[10.715027593603082,43.862155621797534],[10.715011326811513,43.8622253095531],[10.714997105931591,43.862283937231595],[10.714968950929219,43.86236476077004],[10.714955990292804,43.862401463861005],[10.714926628612615,43.862482130831886],[10.714869100413102,43.8625563886798],[10.714820456406338,43.86261868877288],[10.714636561193267,43.86275125497604],[10.713893518916151,43.863228131390755],[10.713198471186212,43.863633822298496],[10.712813003372588,43.863815270395925],[10.712262751445294,43.86400262184495],[10.72444639405749,43.86120027553768],[10.726033447949,43.86073935768688],[10.727226327826216,43.857721441356894],[10.728082427273515,43.85514352411823],[10.728126811945204,43.85500238267816],[10.72814927050908,43.85493071489022],[10.728193613133525,43.85478898972418],[10.728203735187588,43.854756436365854],[10.728215115399127,43.85462840452983],[10.72822557275465,43.8544784206411],[10.72819809520687,43.85417691957909],[10.728187995210158,43.85409574941125],[10.7280207676169,43.85339473445527],[10.727491769860222,43.851587305325594],[10.728787102344132,43.846034667620906],[10.732694103513541,43.839601329580425],[10.73550757439743,43.83196827773081],[10.735767736164542,43.82844953762197],[10.735332912714226,43.82575193990831],[10.73442235500585,43.82319791388812],[10.732909461144514,43.82299522468913],[10.732910270216674,43.82296890475761],[10.732929255089967,43.82239150852397],[10.733208751918372,43.82130684312551],[10.73489739568519,43.815653623621685],[10.735227276827297,43.81457756260321],[10.735360906782429,43.81416436263041],[10.735401022918808,43.8140409825646],[10.735417138647621,43.813991757152934],[10.735456521208514,43.81387203377538],[10.735746420520346,43.81319208243634],[10.736026939820952,43.812566625025056],[10.736225928575907,43.812140408264064],[10.727755195216652,43.814168617994895]]]},"properties":{"name":"Chiesina Uzzanese","op_id":"4586","minint_elettorale":"2090630031","minint_finloc":"3090630031","prov_name":"Pistoia","prov_istat_code":"047","prov_istat_code_num":47,"prov_acr":"PT","reg_name":"Toscana","reg_istat_code":"09","reg_istat_code_num":9,"opdm_id":"4498","com_catasto_code":"C631","com_istat_code":"047022","com_istat_code_num":47022}},
{"type":"Feature","geometry":{"type":"Polygon","coordinates":[[[10.712396364709534,44.157212914518155],[10.713053703202428,44.156664365956715],[10.713791466402888,44.156230154857646],[10.71496826706689,44.155843359830236],[10.717248449580923,44.15555701126388],[10.722633566297288,44.15592401973672],[10.73590686286903,44.15642732446815],[10.741611896805939,44.1563994364019],[10.751924521727023,44.15467033072571],[10.75415945805076,44.154170908604904],[10.754260013953166,44.15414837059621],[10.756147016906414,44.153318364315595],[10.756791366927342,44.15302445248704],[10.757137942630866,44.15286616028013],[10.757678499688419,44.152619255685686],[10.758966845428011,44.15177086121744],[10.759781197917484,44.15101120977225],[10.760010758441075,44.150757494071705],[10.76050787370211,44.15020786848757],[10.764170812283014,44.14514563162289],[10.767368599408579,44.140009959372904],[10.773259236534747,44.13466038436828],[10.774369677413054,44.13406020229959],[10.774422330647772,44.13403176977559],[10.774477321135548,44.134002115197354],[10.779336464304032,44.131387853759215],[10.779801080919137,44.13116777146225],[10.780034126178961,44.13105738004835],[10.780790777130624,44.13069895571282],[10.780854769776816,44.130672155742865],[10.78230914450894,44.13006306210377],[10.78371590293936,44.129529344221574],[10.781328968965092,44.1246988515685],[10.774445072559942,44.11604618656078],[10.770392886008775,44.1106934967266],[10.768062322870742,44.106370751433516],[10.76526698714186,44.09492477414242],[10.756460043520157,44.08928308186887],[10.745381511120893,44.08189393437764],[10.74180238334223,44.0806704589076],[10.730586507972081,44.0828310544467],[10.722322293679365,44.08297397066855],[10.720545915682669,44.08373900453116],[10.716671023489715,44.08579601282773],[10.712517762217454,44.08860432729792],[10.688277638066065,44.098418780608775],[10.687761718576848,44.09919148855691],[10.687297142517194,44.09978962300377],[10.687110907185433,44.10002939378365],[10.686909923836808,44.10028040381476],[10.686483520793525,44.10081293089588],[10.685570667708564,44.10166369926062],[10.682425168852932,44.104411020723006],[10.68149205791664,44.10499195980171],[10.678669941616448,44.10593378698233],[10.66699218978636,44.108778679496076],[10.663110856393384,44.109393457602614],[10.657929052131522,44.10943776655866],[10.654281510597004,44.10912554318427],[10.649055134944073,44.1072114252559],[10.641857987840353,44.10856654799366],[10.631582567470161,44.115759236335634],[10.628687381218318,44.117554828058964],[10.624055891542973,44.12036613364534],[10.62524444937509,44.127062517522184],[10.622310192150536,44.13829060242899],[10.622564351306668,44.141177052561446],[10.62773418910144,44.143232688805234],[10.633156900210185,44.14619365350029],[10.634332582141198,44.14809016320752],[10.634795229644562,44.15038372409948],[10.635652195390444,44.15332460852391],[10.6361103379507,44.15406530012022],[10.640993598748471,44.15951994435189],[10.64255479646018,44.15988312619865],[10.643980907498497,44.1600913541236],[10.644172635933112,44.15998341772017],[10.644584041057849,44.15975053071483],[10.64472493752479,44.15964496118238],[10.644782357648703,44.159601937460685],[10.64490256607487,44.15951186653982],[10.645284883441434,44.158867173495494],[10.645382088559705,44.1586818632585],[10.661620110696376,44.15401563939102],[10.67166373647463,44.1542191307814],[10.672503206294744,44.154627486757526],[10.672782726210679,44.15470107232856],[10.672908143742847,44.154734088343076],[10.673410400533585,44.154866285574435],[10.67792106343097,44.156011009586926],[10.689221596550206,44.15719050147381],[10.696589807042992,44.156352145793605],[10.700591608969285,44.15510416554112],[10.707864473073037,44.1549504713257],[10.708730779290544,44.15496051038056],[10.708938187405419,44.154962914345084],[10.709681647023803,44.15509678761956],[10.709909042945785,44.155137768868975],[10.710084214096304,44.15516934368688],[10.710723769381351,44.15566393891636],[10.712396364709534,44.157212914518155]]]},"properties":{"name":"Abetone Cutigliano","op_id":"8304","minint_elettorale":"2090630012","minint_finloc":null,"prov_name":"Pistoia","prov_istat_code":"047","prov_istat_code_num":47,"prov_acr":"PT","reg_name":"Toscana","reg_istat_code":"09","reg_istat_code_num":9,"opdm_id":"4499","com_catasto_code":"M376","com_istat_code":"047023","com_istat_code_num":47023}},
{"type":"Feature","geometry":{"type":"Polygon","coordinates":[[[10.78371590293936,44.129529344221574],[10.784620544965106,44.12919863743518],[10.784690483668115,44.12918406233246],[10.78518171328686,44.12908169437625],[10.788968051512887,44.12829315456575],[10.790298916146657,44.12807429651617],[10.79130765609086,44.12795055417474],[10.792430721162358,44.12788792197508],[10.794260470727592,44.12784118020636],[10.798093848017292,44.12627279410696],[10.801396734646989,44.1229932138463],[10.803159048466128,44.119310144871186],[10.803349447796709,44.11907306058764],[10.8041105111552,44.118619887238616],[10.805197979287763,44.118215570138844],[10.80620099521848,44.117911612340876],[10.813114766538217,44.116132009873645],[10.814762165206737,44.11618506156943],[10.814798982618855,44.116109213568805],[10.81503691726906,44.11562143330363],[10.815995467886905,44.11487463625022],[10.819149806281972,44.11245072682146],[10.821377761882577,44.11299778007461],[10.829172262478627,44.116665732970546],[10.83424250660385,44.11433754439639],[10.842804301753228,44.10962878571709],[10.84601767802112,44.10255018485635],[10.845979929839137,44.102465266439246],[10.846098849845779,44.102098716714934],[10.846173722962005,44.10186793308283],[10.846300953999704,44.101645293594785],[10.846741656524944,44.100874105977134],[10.84821549624197,44.09861021466181],[10.849214631348804,44.09814259714273],[10.852810776366672,44.09836656411233],[10.853086231431028,44.0983848489464],[10.853899927151584,44.09843887154536],[10.855000330855644,44.09856235175947],[10.855496070449098,44.0986791688037],[10.855780707162584,44.098746263655656],[10.855886418051655,44.09877982407194],[10.856718733631435,44.09907228068446],[10.857232886508971,44.09781898937638],[10.857343745685425,44.0976336987],[10.858108023238428,44.096862432497424],[10.858722395821152,44.096281526435384],[10.859678545516648,44.095456199309154],[10.868741046772007,44.08848609058062],[10.874545114228393,44.084423346269375],[10.880737355655212,44.08127859015613],[10.884126236786612,44.078375138871856],[10.883294398731651,44.07735674431294],[10.881099642075029,44.07603080752976],[10.87940685831504,44.07512459787097],[10.873022529807296,44.07216615252531],[10.865694864277202,44.069560253995554],[10.865480355260978,44.069240492068005],[10.86544865222317,44.06919313695875],[10.86545364780439,44.06914340070782],[10.865536232290697,44.06849161286201],[10.865951090558902,44.06748773525987],[10.866277345208449,44.066744144329675],[10.866729224824123,44.066223578484355],[10.8675461959343,44.065478823801854],[10.867927200576657,44.06518332176779],[10.868137756368215,44.065052202128754],[10.86860260258918,44.0647642315564],[10.86868911163548,44.064711246513454],[10.869677579332427,44.06415424840311],[10.86977910743822,44.06410305230314],[10.869875990031176,44.06405437744856],[10.86998934865701,44.06399771967718],[10.870043348026568,44.06397114389416],[10.870117304842474,44.06393520475247],[10.87318599439759,44.06327134373218],[10.878094729380564,44.06078193680818],[10.882794932712459,44.05308120904401],[10.887815839364906,44.047770364187116],[10.888250399576181,44.04720610821392],[10.88948447844421,44.04558312968887],[10.889689349607174,44.04515659032998],[10.890177251619406,44.04401411417498],[10.890252741814553,44.04354244761862],[10.889972120156518,44.042621900124054],[10.884453528576403,44.03897637102354],[10.881957679901072,44.03740193279319],[10.88093520845185,44.0371351748811],[10.878878387325587,44.03661983257147],[10.8681120672054,44.03466493324231],[10.857513390968723,44.028267691811415],[10.852749636184788,44.02365888430702],[10.846130706869443,44.02055639424319],[10.83946225949407,44.021172731565365],[10.838790329084741,44.022038858808216],[10.83503549370959,44.023782850676646],[10.832586937493879,44.024800140147875],[10.829463226716374,44.02569865965497],[10.828025567743929,44.0256869481094],[10.82659693448752,44.025588259734036],[10.825963379721033,44.02547684681653],[10.825072084542635,44.02530202415349],[10.820744075245955,44.02403636808523],[10.81196689670205,44.02058359582823],[10.810771178923028,44.020052448921994],[10.808181280015173,44.01825559834221],[10.807566789382008,44.017790843878046],[10.807376778591475,44.01764710639855],[10.806643895721072,44.01649929693198],[10.806225997727001,44.015776479216875],[10.80609814473905,44.01547599550728],[10.80607428419574,44.015418740706664],[10.805369567810974,44.013609364726044],[10.805562711122917,44.01325850696141],[10.807079311162337,44.01182388197587],[10.810009215226668,44.00936222743313],[10.81305986199632,44.00735380627865],[10.810811270414302,43.99973018251164],[10.810203131649283,43.99824418477962],[10.809779703037242,43.998517570844015],[10.803481649035135,44.00142531035553],[10.801066172126156,44.001759176962956],[10.795847685675712,44.0023230185216],[10.793313397135606,44.00183389244195],[10.792603616316038,44.00073425468957],[10.79271115544823,43.99509088558016],[10.795511233821408,43.989929661804354],[10.796440711823779,43.98922066959672],[10.798611662441376,43.98729693965916],[10.798898528601686,43.98554465622536],[10.79492174813124,43.9787111958798],[10.787300030197583,43.971469390456186],[10.783347899156388,43.971262288460835],[10.775025178976652,43.975383137391155],[10.770676116807977,43.97954151777747],[10.770314879533728,43.97990021052481],[10.769969143016958,43.98024347862915],[10.768918377040091,43.98086297737698],[10.765442013250738,43.982782695493405],[10.763968936915745,43.98261863454255],[10.75035263723365,43.9787383398008],[10.741410700283655,43.97444762659827],[10.738074283060756,43.972049494794014],[10.737013297693856,43.972644138454264],[10.73474500254062,43.9741661276014],[10.73334179991494,43.975650382939186],[10.731190339944948,43.97861733437428],[10.729812884000115,43.98109498258784],[10.729327661748865,43.98251129090968],[10.735497741072574,43.99664774655077],[10.740390493262991,44.001543587085166],[10.742079051983035,44.00752456299966],[10.744059397164005,44.018910485949775],[10.744070229300009,44.02007261800511],[10.74290513748021,44.02241686671952],[10.741083145052222,44.02592215983469],[10.740401568808993,44.02640296674088],[10.740354183910387,44.02640236163104],[10.739437276131099,44.02639064624373],[10.738749549785819,44.02591494130952],[10.7381215662914,44.02534829078802],[10.737797612558657,44.02493902918413],[10.73709913247478,44.025652237802845],[10.736534732932965,44.02698400895356],[10.735936858840853,44.02873072383294],[10.734980510250603,44.032733691103694],[10.730670616329476,44.03865025499374],[10.726797148226716,44.03928601214533],[10.724559539376912,44.04045422593314],[10.722249854861579,44.041722517926196],[10.720181139096276,44.04311092791235],[10.719034720236209,44.04427585106463],[10.718597930187292,44.04837678942129],[10.718451389636776,44.05021565115428],[10.718473253760155,44.050971593100925],[10.718699192414668,44.05187751851238],[10.719116998903727,44.05294261310507],[10.72133738408878,44.056330393737724],[10.723847770719601,44.0606680781678],[10.724165165925923,44.06125495383908],[10.724324236695978,44.06154907713844],[10.724388695376602,44.06166826169823],[10.724552642733531,44.06199140600884],[10.724732679433146,44.062346869248586],[10.724991175170562,44.06307222699327],[10.725006230364894,44.06318226267324],[10.725086879025959,44.063782483769394],[10.722587289834376,44.08094392865814],[10.722322293679365,44.08297397066855],[10.730586507972081,44.0828310544467],[10.74180238334223,44.0806704589076],[10.745381511120893,44.08189393437764],[10.756460043520157,44.08928308186887],[10.76526698714186,44.09492477414242],[10.768062322870742,44.106370751433516],[10.770392886008775,44.1106934967266],[10.774445072559942,44.11604618656078],[10.781328968965092,44.1246988515685],[10.78371590293936,44.129529344221574]]]},"properties":{"name":"San Marcello Piteglio","op_id":"8305","minint_elettorale":"2090630185","minint_finloc":null,"prov_name":"Pistoia","prov_istat_code":"047","prov_istat_code_num":47,"prov_acr":"PT","reg_name":"Toscana","reg_istat_code":"09","reg_istat_code_num":9,"opdm_id":"4500","com_catasto_code":"M377","com_istat_code":"047024","com_istat_code_num":47024}}
]}