{"type":"FeatureCollection","bbox":[9.051805152663079,45.53665133661365,9.495852141866335,45.74264906739531], "features": [
{"type":"Feature","geometry":{"type":"Polygon","coordinates":[[[9.403120094909427,45.573241706377445],[9.40085627573727,45.572097544173076],[9.400088005395101,45.57408764288711],[9.395899405350438,45.575115975923396],[9.393317672992833,45.57535516090941],[9.384073707543118,45.574909493516245],[9.374667501083955,45.57509373935923],[9.372004985039183,45.57513783459149],[9.37060506556455,45.57516098451091],[9.366137170697195,45.573978272329484],[9.364831796560347,45.56832985904651],[9.359558170478936,45.56041182978095],[9.356918666133357,45.559245931834475],[9.351674829779403,45.55872211299774],[9.339119890668227,45.56150133442449],[9.330322236621434,45.56203517988173],[9.329104633335934,45.56198470057926],[9.326978641775087,45.56189629473781],[9.326373259551993,45.56163247004056],[9.319500814860948,45.56553006447202],[9.323154725796476,45.572652574527936],[9.324295669167197,45.572457541180285],[9.32623009542582,45.57231702335116],[9.329152916191239,45.57265283013735],[9.332399952002524,45.573226327216865],[9.352081722259937,45.58719536115429],[9.353172477465847,45.59020674365859],[9.356372145695989,45.590208690877354],[9.362300997750662,45.58926520796914],[9.363819252707847,45.588135270524454],[9.365835138477062,45.58665268106249],[9.36720395458972,45.58621623491747],[9.370048146482786,45.58596404263951],[9.372833950729449,45.586576042086605],[9.375573003162641,45.58906926691677],[9.378681016893452,45.58679980408176],[9.384161962600272,45.5859624081826],[9.38774069954518,45.58628336256091],[9.393819900269705,45.58669460239789],[9.39665308169495,45.58671180495582],[9.397523930616186,45.58659174953537],[9.39728633204878,45.58562944441526],[9.397181330045521,45.58346058150686],[9.40114969018334,45.57729909473851],[9.403120094909427,45.573241706377445]]]},"properties":{"name":"Agrate Brianza","op_id":"1868","minint_elettorale":"1031040010","minint_finloc":"1030490030","prov_name":"Monza e della Brianza","prov_istat_code":"108","prov_istat_code_num":108,"prov_acr":"MB","prov_iso_3166_2":"IT-MB","reg_name":"Lombardia","reg_istat_code":"03","reg_istat_code_num":3,"reg_iso_3166_2":"IT-25","opdm_id":"2733","com_catasto_code":"A087","com_istat_code":"108001","com_istat_code_num":108001}},
{"type":"Feature","geometry":{"type":"Polygon","coordinates":[[[9.422636443755923,45.65651950266404],[9.429840238288362,45.653576406436294],[9.427473655920712,45.6478428148507],[9.422248973676663,45.63739422684511],[9.418130680487105,45.63519510354549],[9.413518067686788,45.63312363615713],[9.405130970541501,45.635394982847984],[9.401064603292506,45.63551733122428],[9.400250443663573,45.637603996809105],[9.405128493252292,45.64239317043923],[9.407681599014012,45.643846877846414],[9.40801528867714,45.64385470007776],[9.408842688071227,45.643815741079806],[9.409669901636388,45.643776620139306],[9.414224270797327,45.64537133280486],[9.418114033798304,45.64729233589165],[9.418567207562331,45.64783072816213],[9.421448431174067,45.65213154212482],[9.421761585933226,45.652814443115254],[9.422636443755923,45.65651950266404]]]},"properties":{"name":"Aicurzio","op_id":"1869","minint_elettorale":"1031040020","minint_finloc":"1030490040","prov_name":"Monza e della Brianza","prov_istat_code":"108","prov_istat_code_num":108,"prov_acr":"MB","prov_iso_3166_2":"IT-MB","reg_name":"Lombardia","reg_istat_code":"03","reg_istat_code_num":3,"reg_iso_3166_2":"IT-25","opdm_id":"2734","com_catasto_code":"A096","com_istat_code":"108002","com_istat_code_num":108002}},
{"type":"Feature","geometry":{"type":"Polygon","coordinates":[[[9.265495403515919,45.657105183184605],[9.265780182472001,45.65593798587586],[9.265247806215546,45.65434000944086],[9.260600506935699,45.65344442098892],[9.254671048470057,45.65246426573266],[9.245958848074268,45.64476323575363],[9.242767915944022,45.641566326374466],[9.237066926924037,45.64238170763406],[9.24007889384206,45.64563434285753],[9.240980745740226,45.64686628106912],[9.240983006761269,45.64694345635874],[9.240994387673547,45.64739127955307],[9.240897043758073,45.64760085488222],[9.239217435939311,45.65062304167879],[9.237143183437762,45.65185399232446],[9.236855193057664,45.65201322876565],[9.238094515640997,45.65262263977835],[9.243035982312977,45.657964992753534],[9.252511866620841,45.665525999280796],[9.254032529462291,45.667792786209695],[9.265495403515919,45.657105183184605]]]},"properties":{"name":"Albiate","op_id":"1871","minint_elettorale":"1031040030","minint_finloc":"1030490060","prov_name":"Monza e della Brianza","prov_istat_code":"108","prov_istat_code_num":108,"prov_acr":"MB","prov_iso_3166_2":"IT-MB","reg_name":"Lombardia","reg_istat_code":"03","reg_istat_code_num":3,"reg_iso_3166_2":"IT-25","opdm_id":"2735","com_catasto_code":"A159","com_istat_code":"108003","com_istat_code_num":108003}},
{"type":"Feature","geometry":{"type":"Polygon","coordinates":[[[9.329924062550846,45.64718493058045],[9.336432268620475,45.645503919950976],[9.337912383337715,45.644342075128215],[9.34208957725744,45.640821520188304],[9.340622944714003,45.63806269617315],[9.342307670111794,45.636590518467166],[9.34417599484992,45.6378809964023],[9.345727321082403,45.636465200765954],[9.346126889922303,45.63521541687817],[9.344870824483309,45.63115071948937],[9.344354924226995,45.629527623563085],[9.339698530209812,45.62512198255695],[9.33170686269064,45.61655886953242],[9.331883712330983,45.609591582471595],[9.331199719019715,45.60520697066124],[9.328921375012245,45.606939836844944],[9.32960736564114,45.608422392041234],[9.329615891832619,45.609878069347964],[9.328447487988168,45.61014085407312],[9.327442247260276,45.6102302318602],[9.327092737051913,45.61013034491149],[9.325619552618264,45.60738167989066],[9.325499770980416,45.60696583624459],[9.323315399767507,45.60876558739018],[9.31900650621508,45.61502084066331],[9.312138285378648,45.618459142215684],[9.30245916777054,45.62102103451423],[9.298650261082104,45.6217505783425],[9.298733934413205,45.62505663630434],[9.30055754284459,45.63234253988067],[9.299950349826421,45.63388328443163],[9.299816329502246,45.63414474949879],[9.301251311832292,45.63233633809564],[9.303132889576128,45.63106678612197],[9.304808526754151,45.6308823036227],[9.307041691840615,45.63103833754593],[9.307619332666192,45.631171811054344],[9.309841608033645,45.631687797364826],[9.311027869751207,45.632755690748105],[9.310765353878592,45.633863518328276],[9.310602884634529,45.63437636759106],[9.31483316423001,45.642866728496145],[9.321927883127872,45.64921943513821],[9.323868071748034,45.649627974888865],[9.329924062550846,45.64718493058045]]]},"properties":{"name":"Arcore","op_id":"1873","minint_elettorale":"1031040040","minint_finloc":"1030490080","prov_name":"Monza e della Brianza","prov_istat_code":"108","prov_istat_code_num":108,"prov_acr":"MB","prov_iso_3166_2":"IT-MB","reg_name":"Lombardia","reg_istat_code":"03","reg_istat_code_num":3,"reg_iso_3166_2":"IT-25","opdm_id":"2736","com_catasto_code":"A376","com_istat_code":"108004","com_istat_code_num":108004}},
{"type":"Feature","geometry":{"type":"Polygon","coordinates":[[[9.143558417888798,45.65745400424551],[9.141339406795339,45.65688280426401],[9.139114669289206,45.655682501342675],[9.135730404615252,45.651655127107226],[9.12596781383208,45.64828494184242],[9.122166473765944,45.6470649616949],[9.120484735784313,45.64679668906266],[9.112347534380204,45.64566186876768],[9.107636968568642,45.64448735458056],[9.107176845859982,45.645441917468254],[9.106960629183748,45.64624319436701],[9.106223189518538,45.649448185530986],[9.107366632022725,45.65010418677675],[9.10884392459753,45.65082284540349],[9.110127895410116,45.6513346624415],[9.110237350051433,45.65134252717261],[9.110872393059536,45.65138795222614],[9.112845244319104,45.651875918649466],[9.1169958310972,45.65343169394036],[9.119747526996814,45.6549433356527],[9.120904482355611,45.65580617197465],[9.120752176864626,45.656427383599],[9.122259969049228,45.65871193050858],[9.128659582759207,45.66263827460105],[9.134913076713016,45.6639811917628],[9.139315056354956,45.66327908504497],[9.143558417888798,45.65745400424551]]]},"properties":{"name":"Barlassina","op_id":"1879","minint_elettorale":"1031040050","minint_finloc":"1030490130","prov_name":"Monza e della Brianza","prov_istat_code":"108","prov_istat_code_num":108,"prov_acr":"MB","prov_iso_3166_2":"IT-MB","reg_name":"Lombardia","reg_istat_code":"03","reg_istat_code_num":3,"reg_iso_3166_2":"IT-25","opdm_id":"2737","com_catasto_code":"A668","com_istat_code":"108005","com_istat_code_num":108005}},
{"type":"Feature","geometry":{"type":"Polygon","coordinates":[[[9.431410518607176,45.62446532906984],[9.430998823565314,45.62406263622921],[9.430933860906944,45.62395487356413],[9.430815612219922,45.62337927347352],[9.431115770135317,45.62134397028577],[9.43799026453179,45.61683106180233],[9.438794898136816,45.61657924159867],[9.442812658168563,45.61598137763103],[9.44398422865689,45.61581005254653],[9.445496398505712,45.615876433356924],[9.44294242845103,45.60850114059253],[9.446804919301291,45.59990248829527],[9.44550814259049,45.59964677189953],[9.444327509073734,45.59943246796844],[9.442996192653613,45.59980054631944],[9.442191472826345,45.600190701821866],[9.441328505600323,45.60074734729784],[9.43999914076476,45.605149675266276],[9.437118112865662,45.605700791236345],[9.434163007643104,45.605829954208204],[9.42801972662098,45.604483241446864],[9.42223140166536,45.604557264993836],[9.416101790091775,45.605959054380115],[9.41652298196826,45.607388862945754],[9.416508274544844,45.60886506292104],[9.413679070795542,45.610198851499014],[9.408147161544528,45.6106864127437],[9.405479172782496,45.61062391132838],[9.400642059264781,45.61036170390435],[9.400566258115637,45.61321665847117],[9.401818634697813,45.620263011948694],[9.39949813413461,45.62758893307473],[9.39985604480906,45.62970728444885],[9.403163822628878,45.62937182961491],[9.40864944061081,45.62865924868849],[9.410989377924565,45.62759775115208],[9.428423963233087,45.62261915305633],[9.431410518607176,45.62446532906984]]]},"properties":{"name":"Bellusco","op_id":"1883","minint_elettorale":"1031040060","minint_finloc":"1030490170","prov_name":"Monza e della Brianza","prov_istat_code":"108","prov_istat_code_num":108,"prov_acr":"MB","prov_iso_3166_2":"IT-MB","reg_name":"Lombardia","reg_istat_code":"03","reg_istat_code_num":3,"reg_iso_3166_2":"IT-25","opdm_id":"2738","com_catasto_code":"A759","com_istat_code":"108006","com_istat_code_num":108006}},
{"type":"Feature","geometry":{"type":"Polygon","coordinates":[[[9.420808198083506,45.66604910032276],[9.419672095644778,45.66217148827378],[9.42096762670086,45.66163806117164],[9.423074325664217,45.66013614982514],[9.423550486233097,45.65859524611335],[9.423547624482936,45.65850850434486],[9.423533857144893,45.65809125700368],[9.423130263819047,45.657336694757625],[9.422636443755923,45.65651950266404],[9.421761585933226,45.652814443115254],[9.421448431174067,45.65213154212482],[9.418567207562331,45.64783072816213],[9.418114033798304,45.64729233589165],[9.414224270797327,45.64537133280486],[9.409669901636388,45.643776620139306],[9.408842688071227,45.643815741079806],[9.40801528867714,45.64385470007776],[9.407681599014012,45.643846877846414],[9.405128493252292,45.64239317043923],[9.400250443663573,45.637603996809105],[9.401064603292506,45.63551733122428],[9.399716877551315,45.631849629025275],[9.394796122867204,45.63268576190663],[9.39624725012591,45.63467904031315],[9.394692273269383,45.63603454945699],[9.391605378448688,45.63690259076116],[9.386943397265396,45.63625911092019],[9.38545808134994,45.63855942764235],[9.381770689212374,45.64212774993749],[9.388017898825527,45.649171555012174],[9.388629176837908,45.65367005794095],[9.38918330779843,45.655846371106215],[9.39035613358767,45.65838961391994],[9.390758991792358,45.65910825200601],[9.392161547908932,45.6596074850347],[9.39281784722596,45.65983926866847],[9.398434102906128,45.65719161840301],[9.402312777651883,45.65730352480158],[9.41246418765357,45.662578289082795],[9.418029474393684,45.665258267585074],[9.420808198083506,45.66604910032276]]]},"properties":{"name":"Bernareggio","op_id":"1884","minint_elettorale":"1031040070","minint_finloc":"1030490180","prov_name":"Monza e della Brianza","prov_istat_code":"108","prov_istat_code_num":108,"prov_acr":"MB","prov_iso_3166_2":"IT-MB","reg_name":"Lombardia","reg_istat_code":"03","reg_istat_code_num":3,"reg_iso_3166_2":"IT-25","opdm_id":"2739","com_catasto_code":"A802","com_istat_code":"108007","com_istat_code_num":108007}},
{"type":"Feature","geometry":{"type":"Polygon","coordinates":[[[9.298870061698608,45.700636130122255],[9.295843481578197,45.699122925181605],[9.29516463118983,45.69707240383599],[9.294256452988245,45.692898384003996],[9.294804870752088,45.68970175545238],[9.295211384822256,45.688854641315096],[9.299484344374983,45.68336205044128],[9.301187595796382,45.68246661845811],[9.301735670994006,45.68168218739539],[9.302603676045473,45.68043138345643],[9.303756153366088,45.67776195770499],[9.3023690080891,45.6721725794407],[9.29767359585564,45.67171070571019],[9.296342345090268,45.67171989474268],[9.297371399625526,45.678840267285466],[9.294276262529705,45.68191439696408],[9.290427871400576,45.684847921837246],[9.280906175430607,45.68381575619092],[9.278545988775543,45.683430126771675],[9.279671410345989,45.68146344422615],[9.280684573199244,45.67935041715008],[9.28080027502487,45.67745095497238],[9.279568019368943,45.67527577815278],[9.276112703326998,45.67105381752187],[9.274117182702495,45.66998726939012],[9.27144693367779,45.66881498206945],[9.26961153251343,45.668072268502286],[9.267590071505014,45.66839185449765],[9.260591130330454,45.671567519958955],[9.258374627697844,45.67274940923646],[9.259320319751765,45.677113828117044],[9.256907115344314,45.68542797276263],[9.252091608025461,45.68723890257474],[9.251084622543287,45.6876733323613],[9.24979353327042,45.68862228039027],[9.247737840925856,45.690178955468255],[9.246294383883962,45.69187791022836],[9.245430350141174,45.69692025417136],[9.245952168975291,45.69867455201681],[9.247369159303995,45.699562676814864],[9.249095854047143,45.702586469605414],[9.250889682666958,45.70750182011504],[9.251347909316506,45.71027400572135],[9.253579892453189,45.71234824388925],[9.258773740253238,45.71587373476513],[9.261931422742727,45.7179547216715],[9.265828772005708,45.71882769162094],[9.266835276605843,45.71709693206787],[9.273386645408026,45.71398641317501],[9.28264368932753,45.71236663129173],[9.287087249890467,45.71232794833097],[9.287572373390933,45.71328144871056],[9.28674474960764,45.716290394986295],[9.289775060481507,45.71979067898124],[9.291378206954523,45.72013759290407],[9.292695052360415,45.71856355014516],[9.296817342033433,45.710917653667586],[9.298822474110189,45.708592876670764],[9.300217006855547,45.702684803462226],[9.299646856122653,45.701206100272216],[9.298870061698608,45.700636130122255]]]},"properties":{"name":"Besana in Brianza","op_id":"1886","minint_elettorale":"1031040080","minint_finloc":"1030490210","prov_name":"Monza e della Brianza","prov_istat_code":"108","prov_istat_code_num":108,"prov_acr":"MB","prov_iso_3166_2":"IT-MB","reg_name":"Lombardia","reg_istat_code":"03","reg_istat_code_num":3,"reg_iso_3166_2":"IT-25","opdm_id":"2740","com_catasto_code":"A818","com_istat_code":"108008","com_istat_code_num":108008}},
{"type":"Feature","geometry":{"type":"Polygon","coordinates":[[[9.299816329502246,45.63414474949879],[9.299950349826421,45.63388328443163],[9.30055754284459,45.63234253988067],[9.298733934413205,45.62505663630434],[9.298650261082104,45.6217505783425],[9.298045034052185,45.611576015770346],[9.297954444758997,45.611608574529114],[9.29776181714161,45.61170597121693],[9.29757064428422,45.61181035843575],[9.297276827208279,45.61202713114994],[9.295491823358283,45.61337088714526],[9.295235460435617,45.613815565433896],[9.294467214389348,45.61531107521049],[9.294356351131066,45.616098516930116],[9.29430215099179,45.616724318271594],[9.294311683617728,45.61741061276247],[9.294406400824654,45.61768550440909],[9.294840373449158,45.61860150381241],[9.295667782163603,45.61980471492178],[9.29617730467564,45.62087773559336],[9.297879274306908,45.62511824269387],[9.298127030173704,45.62608712179508],[9.297489764640842,45.629677445327324],[9.296948930889268,45.63268049711898],[9.279608129569187,45.62987685928511],[9.278218824863393,45.62618868591621],[9.279351005616263,45.62271130423133],[9.276793117586054,45.62215893084919],[9.26736674047168,45.61861469268299],[9.261544345821001,45.61711421275846],[9.25339578664485,45.62889264504913],[9.255220425197168,45.62953664779008],[9.260351255845135,45.631433074890104],[9.271157892806698,45.63655621893502],[9.284291346017403,45.64222660929152],[9.288044453171754,45.64346870482247],[9.299816329502246,45.63414474949879]]]},"properties":{"name":"Biassono","op_id":"1888","minint_elettorale":"1031040090","minint_finloc":"1030490230","prov_name":"Monza e della Brianza","prov_istat_code":"108","prov_istat_code_num":108,"prov_acr":"MB","prov_iso_3166_2":"IT-MB","reg_name":"Lombardia","reg_istat_code":"03","reg_istat_code_num":3,"reg_iso_3166_2":"IT-25","opdm_id":"2741","com_catasto_code":"A849","com_istat_code":"108009","com_istat_code_num":108009}},
{"type":"Feature","geometry":{"type":"Polygon","coordinates":[[[9.109378105689895,45.620822572239746],[9.107782802495558,45.62271857012659],[9.110475408359523,45.628215582513846],[9.115461942518118,45.626518087954274],[9.122130659078929,45.62324780285699],[9.129167889810986,45.61970903405364],[9.132480666178642,45.617461075327675],[9.134380793037844,45.61678252818711],[9.138222901525074,45.616607424719774],[9.155306935465584,45.616354355923605],[9.157246090792881,45.61679274989127],[9.159464665086722,45.61723070322112],[9.165006949279087,45.61793614884483],[9.17016173549968,45.618421642022945],[9.17667718324698,45.619034940283306],[9.17595676082368,45.60931557432873],[9.174839736425632,45.608542030005935],[9.170121726397108,45.60694523786439],[9.167202863810754,45.60793516744736],[9.165911031383011,45.607824640518515],[9.161334108136927,45.607290572665924],[9.157533038445601,45.60605424977281],[9.153179369790015,45.604069043284696],[9.151109554226855,45.60176492148284],[9.150336703006715,45.6004608049938],[9.147384167007225,45.59915952485892],[9.14568067793717,45.598797179213754],[9.145524339095,45.5987640802485],[9.145152255406266,45.59868531079509],[9.14415307469932,45.59889361562054],[9.142104822503024,45.59873918675581],[9.141922065909323,45.598725407519424],[9.139934330695276,45.602168240151684],[9.139500333519237,45.603634397628014],[9.139843571512833,45.60483719451024],[9.140454225430373,45.60590097651982],[9.140514863287112,45.607198172705466],[9.140549505976788,45.60793957116047],[9.140328901821384,45.608742736512525],[9.138420565979015,45.61242466123938],[9.132200302687655,45.61624324467329],[9.121889391697971,45.622317370351],[9.11670113998199,45.624843045135144],[9.114798409712035,45.622783762194416],[9.113780474815794,45.62067865791111],[9.109378105689895,45.620822572239746]]]},"properties":{"name":"Bovisio-Masciago","op_id":"1892","minint_elettorale":"1031040100","minint_finloc":"1030490300","prov_name":"Monza e della Brianza","prov_istat_code":"108","prov_istat_code_num":108,"prov_acr":"MB","prov_iso_3166_2":"IT-MB","reg_name":"Lombardia","reg_istat_code":"03","reg_istat_code_num":3,"reg_iso_3166_2":"IT-25","opdm_id":"2742","com_catasto_code":"B105","com_istat_code":"108010","com_istat_code_num":108010}},
{"type":"Feature","geometry":{"type":"Polygon","coordinates":[[[9.23155382452603,45.71745538092628],[9.232657541701178,45.72030417435398],[9.233597321353544,45.72381252641149],[9.235159077348682,45.726968244737236],[9.238521822793713,45.72785285494872],[9.24009656494387,45.72804612271988],[9.242491349994518,45.72930625463358],[9.242947463799338,45.72990853915469],[9.243447920175166,45.73148709146642],[9.243492604987974,45.73284627726125],[9.245740842036973,45.733216639223166],[9.253680782335536,45.731798586855305],[9.259445527892542,45.7296374722797],[9.265887546512335,45.725758263725275],[9.26878058427099,45.726111409536955],[9.265828772005708,45.71882769162094],[9.261931422742727,45.7179547216715],[9.258773740253238,45.71587373476513],[9.253579892453189,45.71234824388925],[9.251347909316506,45.71027400572135],[9.250889682666958,45.70750182011504],[9.249095854047143,45.702586469605414],[9.247369159303995,45.699562676814864],[9.245952168975291,45.69867455201681],[9.237334212572376,45.69588447965982],[9.2349758046043,45.699010251964616],[9.235219839507677,45.70084148798367],[9.23529894583352,45.70379994862141],[9.232547956500788,45.70842315215262],[9.230782183199413,45.71431691200514],[9.23155382452603,45.71745538092628]]]},"properties":{"name":"Briosco","op_id":"1894","minint_elettorale":"1031040110","minint_finloc":"1030490330","prov_name":"Monza e della Brianza","prov_istat_code":"108","prov_istat_code_num":108,"prov_acr":"MB","prov_iso_3166_2":"IT-MB","reg_name":"Lombardia","reg_istat_code":"03","reg_istat_code_num":3,"reg_iso_3166_2":"IT-25","opdm_id":"2743","com_catasto_code":"B187","com_istat_code":"108011","com_istat_code_num":108011}},
{"type":"Feature","geometry":{"type":"Polygon","coordinates":[[[9.326373259551993,45.56163247004056],[9.324939243225412,45.55986644823281],[9.322770256863755,45.554062887017714],[9.323557715084162,45.55105539787652],[9.323770262014792,45.55014568428671],[9.323849365394311,45.54975263133432],[9.322536173444183,45.548093632896034],[9.321224880270668,45.54769879223651],[9.321825814448369,45.54436435468807],[9.325249353979984,45.543844061960506],[9.325251415641937,45.543815285974134],[9.325355753415975,45.5423586130227],[9.325525100980274,45.53999417155704],[9.32421610540431,45.53904302954308],[9.312851334437141,45.536851168142064],[9.305242470788807,45.53665133661365],[9.304412091577841,45.537904783429234],[9.29413939520131,45.54139645874694],[9.286530133936242,45.54344326161545],[9.273283089034559,45.54853160806257],[9.268714714216815,45.55127821206625],[9.271780413690415,45.55659239676959],[9.269974211293226,45.55917553063654],[9.269735497831125,45.55963111979284],[9.26979794902586,45.56009657825237],[9.270198370705078,45.56061508197557],[9.27033723605305,45.56075550362076],[9.270479330094847,45.560899186627196],[9.270917948769235,45.56131084767069],[9.27158576415429,45.56190661596166],[9.272295086542103,45.562397912513944],[9.27251148188311,45.56234911222976],[9.272639207898825,45.56231203192009],[9.276476168640233,45.55959727978616],[9.276514251674406,45.55930540168375],[9.276580449361918,45.558005540075406],[9.280157551164994,45.55853810121812],[9.28646613939318,45.560060356666746],[9.292116455506568,45.562204470325874],[9.297325350593177,45.56425656370212],[9.297409262663725,45.56625692332122],[9.297419107252983,45.56649131338908],[9.298725188007118,45.56842667986818],[9.301695464438232,45.57115336457119],[9.30516348946351,45.57118495277711],[9.309308235995813,45.570543824639685],[9.311584598483703,45.569990684716004],[9.309543670808248,45.568427908416936],[9.31257707881447,45.565333074855715],[9.315672701404356,45.56307999471971],[9.317828256360142,45.56191762099197],[9.318856231237536,45.562358187130656],[9.318429062464551,45.563561800394076],[9.318143655686963,45.564353634637094],[9.319500814860948,45.56553006447202],[9.326373259551993,45.56163247004056]]]},"properties":{"name":"Brugherio","op_id":"1895","minint_elettorale":"1031040120","minint_finloc":"1030490340","prov_name":"Monza e della Brianza","prov_istat_code":"108","prov_istat_code_num":108,"prov_acr":"MB","prov_iso_3166_2":"IT-MB","reg_name":"Lombardia","reg_istat_code":"03","reg_istat_code_num":3,"reg_iso_3166_2":"IT-25","opdm_id":"2744","com_catasto_code":"B212","com_istat_code":"108012","com_istat_code_num":108012}},
{"type":"Feature","geometry":{"type":"Polygon","coordinates":[[[9.397523930616186,45.58659174953537],[9.39665308169495,45.58671180495582],[9.393819900269705,45.58669460239789],[9.38774069954518,45.58628336256091],[9.384161962600272,45.5859624081826],[9.378681016893452,45.58679980408176],[9.375573003162641,45.58906926691677],[9.372745438870059,45.59064468528862],[9.372593058956474,45.592796440691885],[9.372951151271531,45.59558794553036],[9.37369445769295,45.60119069900129],[9.376132324901652,45.60538105951538],[9.379521148847857,45.606373963033874],[9.381781551486489,45.605812892159236],[9.38212836111493,45.60176582210304],[9.395532155026496,45.59868691510664],[9.400193360214862,45.59601552094299],[9.401904329050522,45.58962787777962],[9.397523930616186,45.58659174953537]]]},"properties":{"name":"Burago di Molgora","op_id":"1898","minint_elettorale":"1031040130","minint_finloc":"1030490370","prov_name":"Monza e della Brianza","prov_istat_code":"108","prov_istat_code_num":108,"prov_acr":"MB","prov_iso_3166_2":"IT-MB","reg_name":"Lombardia","reg_istat_code":"03","reg_istat_code_num":3,"reg_iso_3166_2":"IT-25","opdm_id":"2745","com_catasto_code":"B272","com_istat_code":"108013","com_istat_code_num":108013}},
{"type":"Feature","geometry":{"type":"Polygon","coordinates":[[[9.314061112098903,45.660699889642565],[9.317872015716457,45.660254075150405],[9.321341927881386,45.66094011462076],[9.325071652813785,45.66408901011538],[9.326290321318494,45.662585023570834],[9.334180735461391,45.65513843023806],[9.334212462428011,45.655121620068215],[9.335958962945583,45.65417902192399],[9.33692419276781,45.65245708918586],[9.336548993554253,45.65194519700966],[9.334918978377342,45.64979871447744],[9.333581901827381,45.648552525271235],[9.329924062550846,45.64718493058045],[9.323868071748034,45.649627974888865],[9.317704619139443,45.65387367300629],[9.313789089164615,45.65857353154919],[9.314061112098903,45.660699889642565]]]},"properties":{"name":"Camparada","op_id":"1905","minint_elettorale":"1031040140","minint_finloc":"1030490450","prov_name":"Monza e della Brianza","prov_istat_code":"108","prov_istat_code_num":108,"prov_acr":"MB","prov_iso_3166_2":"IT-MB","reg_name":"Lombardia","reg_istat_code":"03","reg_istat_code_num":3,"reg_iso_3166_2":"IT-25","opdm_id":"2746","com_catasto_code":"B501","com_istat_code":"108014","com_istat_code_num":108014}},
{"type":"Feature","geometry":{"type":"Polygon","coordinates":[[[9.254032529462291,45.667792786209695],[9.252511866620841,45.665525999280796],[9.243035982312977,45.657964992753534],[9.238094515640997,45.65262263977835],[9.236855193057664,45.65201322876565],[9.23524007767716,45.652090559530144],[9.232905122959822,45.65230629847137],[9.228523760526455,45.653080822128906],[9.226974437373627,45.65388498313008],[9.224047310109743,45.65562575865772],[9.219169381857244,45.6595437328684],[9.218105492177436,45.66072526538846],[9.218079248908603,45.66191535626989],[9.21828186758484,45.662466703485535],[9.218361328292112,45.66307239363531],[9.21840949126696,45.663559133892434],[9.214129263170866,45.664846722840025],[9.212782855135625,45.66489673608161],[9.211561435620515,45.66492556873108],[9.211620269528291,45.66995918034433],[9.212756968643127,45.67011360956006],[9.21777412346428,45.67172640932024],[9.219416536208149,45.67351009399399],[9.22983287952239,45.68311373155121],[9.23313002772405,45.6841283699594],[9.234343866817339,45.68422541074728],[9.236762028657527,45.68620603740033],[9.237860143863838,45.69277785027323],[9.237334212572376,45.69588447965982],[9.245952168975291,45.69867455201681],[9.245430350141174,45.69692025417136],[9.246294383883962,45.69187791022836],[9.247737840925856,45.690178955468255],[9.24979353327042,45.68862228039027],[9.251084622543287,45.6876733323613],[9.252091608025461,45.68723890257474],[9.256907115344314,45.68542797276263],[9.259320319751765,45.677113828117044],[9.258374627697844,45.67274940923646],[9.254032529462291,45.667792786209695]]]},"properties":{"name":"Carate Brianza","op_id":"1908","minint_elettorale":"1031040150","minint_finloc":"1030490480","prov_name":"Monza e della Brianza","prov_istat_code":"108","prov_istat_code_num":108,"prov_acr":"MB","prov_iso_3166_2":"IT-MB","reg_name":"Lombardia","reg_istat_code":"03","reg_istat_code_num":3,"reg_iso_3166_2":"IT-25","opdm_id":"2747","com_catasto_code":"B729","com_istat_code":"108015","com_istat_code_num":108015}},
{"type":"Feature","geometry":{"type":"Polygon","coordinates":[[[9.372287234931624,45.65509253649798],[9.38143322653201,45.66000370309226],[9.38527085647938,45.66368124575128],[9.39281784722596,45.65983926866847],[9.392161547908932,45.6596074850347],[9.390758991792358,45.65910825200601],[9.39035613358767,45.65838961391994],[9.38918330779843,45.655846371106215],[9.388629176837908,45.65367005794095],[9.388017898825527,45.649171555012174],[9.381770689212374,45.64212774993749],[9.38545808134994,45.63855942764235],[9.386943397265396,45.63625911092019],[9.382466898134453,45.634581971791086],[9.37423327398385,45.63123392599119],[9.370452002562912,45.633712436536044],[9.370147130089308,45.63417246304634],[9.369946340263187,45.63485717216108],[9.370128746662925,45.635279635645766],[9.371661997146928,45.636255734310005],[9.371910503675785,45.63644722491169],[9.372255323582644,45.63671292971648],[9.37265611628854,45.63717066020259],[9.373341577460053,45.63798750696999],[9.372952908653247,45.641292085712706],[9.372527782012492,45.64296766721881],[9.371229173736038,45.64649109652854],[9.370549781385954,45.648232081076685],[9.371630755906471,45.65259305569778],[9.372287234931624,45.65509253649798]]]},"properties":{"name":"Carnate","op_id":"1909","minint_elettorale":"1031040160","minint_finloc":"1030490490","prov_name":"Monza e della Brianza","prov_istat_code":"108","prov_istat_code_num":108,"prov_acr":"MB","prov_iso_3166_2":"IT-MB","reg_name":"Lombardia","reg_istat_code":"03","reg_istat_code_num":3,"reg_iso_3166_2":"IT-25","opdm_id":"2748","com_catasto_code":"B798","com_istat_code":"108016","com_istat_code_num":108016}},
{"type":"Feature","geometry":{"type":"Polygon","coordinates":[[[9.444613067344424,45.59193590537723],[9.442550128774133,45.585580118557424],[9.440647503486277,45.584885430123855],[9.42149418052948,45.580012681072844],[9.409549013622659,45.576099158507276],[9.40699604590546,45.57576623944333],[9.404671152121933,45.575063428151196],[9.403120094909427,45.573241706377445],[9.40114969018334,45.57729909473851],[9.397181330045521,45.58346058150686],[9.39728633204878,45.58562944441526],[9.397523930616186,45.58659174953537],[9.401904329050522,45.58962787777962],[9.40380760056727,45.59044926756605],[9.414125457583214,45.591870487526734],[9.415357392602504,45.590477337697195],[9.417676240373249,45.590057469003376],[9.419380716397953,45.5899792028439],[9.426307569880876,45.59020115013643],[9.431218288742269,45.59059217598483],[9.431509941981561,45.59064379262631],[9.432014184694882,45.59073317223324],[9.43422611662717,45.59116757728503],[9.43447604202537,45.592434053570194],[9.4362974238064,45.59254413013132],[9.438553285143263,45.59247248433196],[9.441129600663677,45.59239054339009],[9.444613067344424,45.59193590537723]]]},"properties":{"name":"Cavenago di Brianza","op_id":"1918","minint_elettorale":"1031040170","minint_finloc":"1030490680","prov_name":"Monza e della Brianza","prov_istat_code":"108","prov_istat_code_num":108,"prov_acr":"MB","prov_iso_3166_2":"IT-MB","reg_name":"Lombardia","reg_istat_code":"03","reg_istat_code_num":3,"reg_iso_3166_2":"IT-25","opdm_id":"2749","com_catasto_code":"C395","com_istat_code":"108017","com_istat_code_num":108017}},
{"type":"Feature","geometry":{"type":"Polygon","coordinates":[[[9.05292446071502,45.623190296076174],[9.052270088565743,45.62396197702424],[9.051805152663079,45.63343108114451],[9.057272900691132,45.636598821558906],[9.061705920966414,45.636848143776966],[9.069659874504072,45.636897605963874],[9.087505956725748,45.63692140072696],[9.105082552534725,45.637806692804425],[9.108992451050508,45.63650675767943],[9.108665042219101,45.63348276415414],[9.107938605881932,45.62951411831688],[9.109728204571613,45.62846742956385],[9.110475408359523,45.628215582513846],[9.107782802495558,45.62271857012659],[9.098085714948397,45.62209724054194],[9.08613210896554,45.62176935552553],[9.063740818911773,45.622706697189976],[9.05292446071502,45.623190296076174]]]},"properties":{"name":"Ceriano Laghetto","op_id":"1919","minint_elettorale":"1031040180","minint_finloc":"1030490690","prov_name":"Monza e della Brianza","prov_istat_code":"108","prov_istat_code_num":108,"prov_acr":"MB","prov_iso_3166_2":"IT-MB","reg_name":"Lombardia","reg_istat_code":"03","reg_istat_code_num":3,"reg_iso_3166_2":"IT-25","opdm_id":"2750","com_catasto_code":"C512","com_istat_code":"108018","com_istat_code_num":108018}},
{"type":"Feature","geometry":{"type":"Polygon","coordinates":[[[9.17667718324698,45.619034940283306],[9.17016173549968,45.618421642022945],[9.165006949279087,45.61793614884483],[9.159464665086722,45.61723070322112],[9.157246090792881,45.61679274989127],[9.155306935465584,45.616354355923605],[9.138222901525074,45.616607424719774],[9.134380793037844,45.61678252818711],[9.132480666178642,45.617461075327675],[9.129167889810986,45.61970903405364],[9.122130659078929,45.62324780285699],[9.115461942518118,45.626518087954274],[9.110475408359523,45.628215582513846],[9.109728204571613,45.62846742956385],[9.107938605881932,45.62951411831688],[9.108665042219101,45.63348276415414],[9.108992451050508,45.63650675767943],[9.111758880217689,45.6396343438955],[9.119644335657846,45.638103247945914],[9.12612896964803,45.63673955973903],[9.144623537720712,45.63626763128736],[9.146794960612247,45.637007229770575],[9.148372028972458,45.637526553592444],[9.150726539501418,45.63749976391865],[9.151039417144212,45.6374914496895],[9.159542494647598,45.63700992015345],[9.1620325289111,45.6363546464163],[9.1722821838438,45.63685931573758],[9.176756468069652,45.63713069738998],[9.176780274335442,45.63860817390718],[9.176466024382847,45.641404767885994],[9.176038257659409,45.64358009835072],[9.17937003191508,45.64137695454703],[9.185033597159576,45.642173997785314],[9.188971800025456,45.63545335158921],[9.18816611875151,45.63288936940265],[9.186248675885958,45.63336596108799],[9.17594893027129,45.63292783881163],[9.175631119255018,45.63290088491685],[9.175694112742471,45.631826687627154],[9.17594264129654,45.63089745521128],[9.179771974246025,45.625707531894925],[9.178131177318702,45.62211300584193],[9.17667718324698,45.619034940283306]]]},"properties":{"name":"Cesano Maderno","op_id":"1924","minint_elettorale":"1031040190","minint_finloc":"1030490750","prov_name":"Monza e della Brianza","prov_istat_code":"108","prov_istat_code_num":108,"prov_acr":"MB","prov_iso_3166_2":"IT-MB","reg_name":"Lombardia","reg_istat_code":"03","reg_istat_code_num":3,"reg_iso_3166_2":"IT-25","opdm_id":"2751","com_catasto_code":"C566","com_istat_code":"108019","com_istat_code_num":108019}},
{"type":"Feature","geometry":{"type":"Polygon","coordinates":[[[9.061705920966414,45.636848143776966],[9.0624516016259,45.63824284578544],[9.062545043664134,45.64112306667892],[9.057850595753761,45.642259656049305],[9.054774499699768,45.64510542244557],[9.055738869854354,45.646500070183684],[9.055898367448595,45.65003502956528],[9.062684629738508,45.650042927926634],[9.06635849804461,45.65304702179448],[9.068115637155211,45.65373454067698],[9.08235728621547,45.653378498710325],[9.086943394040476,45.652686857178864],[9.088123605517687,45.652334920724385],[9.089290640493074,45.652036992227096],[9.094346327038771,45.65191591103808],[9.094834021786772,45.65192450364162],[9.099851083572467,45.65204616037446],[9.101418196019024,45.65217210482003],[9.102841509891604,45.65228653714705],[9.103807120828556,45.65360893386176],[9.120752176864626,45.656427383599],[9.120904482355611,45.65580617197465],[9.119747526996814,45.6549433356527],[9.1169958310972,45.65343169394036],[9.112845244319104,45.651875918649466],[9.110872393059536,45.65138795222614],[9.110237350051433,45.65134252717261],[9.110127895410116,45.6513346624415],[9.10884392459753,45.65082284540349],[9.107366632022725,45.65010418677675],[9.106223189518538,45.649448185530986],[9.106960629183748,45.64624319436701],[9.107176845859982,45.645441917468254],[9.107636968568642,45.64448735458056],[9.111758880217689,45.6396343438955],[9.108992451050508,45.63650675767943],[9.105082552534725,45.637806692804425],[9.087505956725748,45.63692140072696],[9.069659874504072,45.636897605963874],[9.061705920966414,45.636848143776966]]]},"properties":{"name":"Cogliate","op_id":"1928","minint_elettorale":"1031040200","minint_finloc":"1030490800","prov_name":"Monza e della Brianza","prov_istat_code":"108","prov_istat_code_num":108,"prov_acr":"MB","prov_iso_3166_2":"IT-MB","reg_name":"Lombardia","reg_istat_code":"03","reg_istat_code_num":3,"reg_iso_3166_2":"IT-25","opdm_id":"2752","com_catasto_code":"C820","com_istat_code":"108020","com_istat_code_num":108020}},
{"type":"Feature","geometry":{"type":"Polygon","coordinates":[[[9.356372145695989,45.590208690877354],[9.353172477465847,45.59020674365859],[9.352081722259937,45.58719536115429],[9.332399952002524,45.573226327216865],[9.329152916191239,45.57265283013735],[9.32623009542582,45.57231702335116],[9.324295669167197,45.572457541180285],[9.323154725796476,45.572652574527936],[9.32281068237276,45.57297781360839],[9.321240025454685,45.574747093073746],[9.316720880751898,45.583423567649845],[9.315133282127626,45.588237601547526],[9.316377632228438,45.5919841956553],[9.317093085734925,45.59393271958376],[9.31279930824241,45.59517651353102],[9.312356138206656,45.59618581955165],[9.312417050119407,45.596842341487076],[9.31962499444372,45.60265539465668],[9.324664163197804,45.606480751259646],[9.325499770980416,45.60696583624459],[9.325619552618264,45.60738167989066],[9.327092737051913,45.61013034491149],[9.327442247260276,45.6102302318602],[9.328447487988168,45.61014085407312],[9.329615891832619,45.609878069347964],[9.32960736564114,45.608422392041234],[9.328921375012245,45.606939836844944],[9.331199719019715,45.60520697066124],[9.335816126924714,45.60449461844795],[9.347012308103055,45.6047221992785],[9.349309040688793,45.6049312274819],[9.351097597699754,45.603854644919274],[9.35416390185023,45.600019821071825],[9.356570336947328,45.59329760774581],[9.356372145695989,45.590208690877354]]]},"properties":{"name":"Concorezzo","op_id":"1931","minint_elettorale":"1031040210","minint_finloc":"1030490840","prov_name":"Monza e della Brianza","prov_istat_code":"108","prov_istat_code_num":108,"prov_acr":"MB","prov_iso_3166_2":"IT-MB","reg_name":"Lombardia","reg_istat_code":"03","reg_istat_code_num":3,"reg_iso_3166_2":"IT-25","opdm_id":"2753","com_catasto_code":"C952","com_istat_code":"108021","com_istat_code_num":108021}},
{"type":"Feature","geometry":{"type":"Polygon","coordinates":[[[9.301187595796382,45.68246661845811],[9.30396387947543,45.68293634128369],[9.304925736100278,45.68270875870891],[9.305103537953823,45.68252634804608],[9.305743001919978,45.681869504450255],[9.306060487697618,45.681220584078844],[9.3097596592255,45.672929892167794],[9.313297178511814,45.66574191755264],[9.314067874533176,45.66213161723006],[9.313149315097366,45.662376074327554],[9.310916552775621,45.66239111676161],[9.309696397684979,45.66234043819707],[9.30906715568707,45.66229710450789],[9.308066405136556,45.660665804273386],[9.307317045003138,45.65923255212702],[9.30376415618057,45.6550479743549],[9.298011085070558,45.65669216800575],[9.296342345090268,45.67171989474268],[9.29767359585564,45.67171070571019],[9.3023690080891,45.6721725794407],[9.303756153366088,45.67776195770499],[9.302603676045473,45.68043138345643],[9.301735670994006,45.68168218739539],[9.301187595796382,45.68246661845811]]]},"properties":{"name":"Correzzana","op_id":"1936","minint_elettorale":"1031040220","minint_finloc":"1030490920","prov_name":"Monza e della Brianza","prov_istat_code":"108","prov_istat_code_num":108,"prov_acr":"MB","prov_iso_3166_2":"IT-MB","reg_name":"Lombardia","reg_istat_code":"03","reg_istat_code_num":3,"reg_iso_3166_2":"IT-25","opdm_id":"2754","com_catasto_code":"D038","com_istat_code":"108022","com_istat_code_num":108022}},
{"type":"Feature","geometry":{"type":"Polygon","coordinates":[[[9.17595676082368,45.60931557432873],[9.17667718324698,45.619034940283306],[9.178131177318702,45.62211300584193],[9.179771974246025,45.625707531894925],[9.17594264129654,45.63089745521128],[9.175694112742471,45.631826687627154],[9.175631119255018,45.63290088491685],[9.17594893027129,45.63292783881163],[9.186248675885958,45.63336596108799],[9.18816611875151,45.63288936940265],[9.189920359373648,45.63347932785691],[9.196095545504305,45.634033023633364],[9.20451601180241,45.6335921622388],[9.215966527084477,45.635069158653096],[9.22085291350374,45.63591556245705],[9.222286390157082,45.63335035693203],[9.228554005126481,45.62995622028306],[9.234566303824122,45.62564581013472],[9.233049643558516,45.62219361848611],[9.229707320987318,45.615760277371315],[9.226950499827948,45.61249699548476],[9.223769728965218,45.608839229679674],[9.222135582960927,45.60834386714516],[9.222864278671725,45.606898471417225],[9.225205006325393,45.6038184934152],[9.22556538158184,45.60335187045455],[9.210304829244576,45.597116809875516],[9.209112067603494,45.59925491792227],[9.207931906904015,45.5991284588806],[9.205119182616032,45.59828746604694],[9.204524986912034,45.59765901443356],[9.201492961661494,45.59807334591378],[9.19808807847548,45.60003349350093],[9.193540081990594,45.6030519814252],[9.191368042226634,45.60263271629612],[9.190145842353047,45.60150371529155],[9.18856230001957,45.599355502418625],[9.188195318713907,45.60030707085771],[9.181516446298213,45.6045604317319],[9.176662638685837,45.60526561697519],[9.17457299773726,45.606227450535904],[9.174764313786886,45.60709955611254],[9.174833554032345,45.60741515907694],[9.17595676082368,45.60931557432873]]]},"properties":{"name":"Desio","op_id":"1942","minint_elettorale":"1031040230","minint_finloc":"1030490990","prov_name":"Monza e della Brianza","prov_istat_code":"108","prov_istat_code_num":108,"prov_acr":"MB","prov_iso_3166_2":"IT-MB","reg_name":"Lombardia","reg_istat_code":"03","reg_istat_code_num":3,"reg_iso_3166_2":"IT-25","opdm_id":"2755","com_catasto_code":"D286","com_istat_code":"108023","com_istat_code_num":108023}},
{"type":"Feature","geometry":{"type":"Polygon","coordinates":[[[9.204162021321311,45.70923781471046],[9.21011003409616,45.71231832905993],[9.214072028226084,45.71501506351968],[9.22735719880259,45.716925917235336],[9.229531797177666,45.717284192231666],[9.23155382452603,45.71745538092628],[9.230782183199413,45.71431691200514],[9.232547956500788,45.70842315215262],[9.23529894583352,45.70379994862141],[9.235219839507677,45.70084148798367],[9.2349758046043,45.699010251964616],[9.228256984407203,45.699282329746836],[9.225214402350906,45.698808943654434],[9.222075674330865,45.69284556627787],[9.215133085287604,45.68555332576754],[9.211430223868385,45.68039534418001],[9.210446083401754,45.67560805993234],[9.211510672373462,45.67379374819605],[9.211620269528291,45.66995918034433],[9.211561435620515,45.66492556873108],[9.204997722803899,45.66568688028771],[9.196388690006751,45.66799550066021],[9.194432438093088,45.667686204137404],[9.192611833271762,45.673934342147156],[9.192345413665873,45.67487983997844],[9.191780713044412,45.67843577867631],[9.193487556421317,45.68224213127227],[9.196119992992438,45.6871046280066],[9.196484029702948,45.69487016745409],[9.195313881399706,45.69834333240596],[9.204162021321311,45.70923781471046]]]},"properties":{"name":"Giussano","op_id":"1947","minint_elettorale":"1031040240","minint_finloc":"1030491060","prov_name":"Monza e della Brianza","prov_istat_code":"108","prov_istat_code_num":108,"prov_acr":"MB","prov_iso_3166_2":"IT-MB","reg_name":"Lombardia","reg_istat_code":"03","reg_istat_code_num":3,"reg_iso_3166_2":"IT-25","opdm_id":"2756","com_catasto_code":"E063","com_istat_code":"108024","com_istat_code_num":108024}},
{"type":"Feature","geometry":{"type":"Polygon","coordinates":[[[9.063819260088136,45.6733115932655],[9.06704624837209,45.68512107826709],[9.08828582397577,45.6855025929881],[9.08956563826183,45.68230075958394],[9.097256951485889,45.674820643922594],[9.099798897256035,45.66445829300185],[9.100477990983086,45.65964986447139],[9.0956505024427,45.66044925149104],[9.094966631168,45.66371550668138],[9.088682676023334,45.66639459393294],[9.088373857792464,45.66647608860931],[9.085853660613068,45.666796381928236],[9.073629178550567,45.66716706800195],[9.065090853598248,45.66723961150792],[9.061627095307184,45.66722500054211],[9.063819260088136,45.6733115932655]]]},"properties":{"name":"Lazzate","op_id":"1955","minint_elettorale":"1031040250","minint_finloc":"1030491160","prov_name":"Monza e della Brianza","prov_istat_code":"108","prov_istat_code_num":108,"prov_acr":"MB","prov_iso_3166_2":"IT-MB","reg_name":"Lombardia","reg_istat_code":"03","reg_istat_code_num":3,"reg_iso_3166_2":"IT-25","opdm_id":"2757","com_catasto_code":"E504","com_istat_code":"108025","com_istat_code_num":108025}},
{"type":"Feature","geometry":{"type":"Polygon","coordinates":[[[9.314067874533176,45.66213161723006],[9.314061112098903,45.660699889642565],[9.313789089164615,45.65857353154919],[9.317704619139443,45.65387367300629],[9.323868071748034,45.649627974888865],[9.321927883127872,45.64921943513821],[9.31483316423001,45.642866728496145],[9.310602884634529,45.63437636759106],[9.310765353878592,45.633863518328276],[9.311027869751207,45.632755690748105],[9.309841608033645,45.631687797364826],[9.307619332666192,45.631171811054344],[9.307041691840615,45.63103833754593],[9.304808526754151,45.6308823036227],[9.303132889576128,45.63106678612197],[9.301251311832292,45.63233633809564],[9.299816329502246,45.63414474949879],[9.288044453171754,45.64346870482247],[9.28805222152669,45.64726675968236],[9.298011085070558,45.65669216800575],[9.30376415618057,45.6550479743549],[9.307317045003138,45.65923255212702],[9.308066405136556,45.660665804273386],[9.30906715568707,45.66229710450789],[9.309696397684979,45.66234043819707],[9.310916552775621,45.66239111676161],[9.313149315097366,45.662376074327554],[9.314067874533176,45.66213161723006]]]},"properties":{"name":"Lesmo","op_id":"1958","minint_elettorale":"1031040260","minint_finloc":"1030491190","prov_name":"Monza e della Brianza","prov_istat_code":"108","prov_istat_code_num":108,"prov_acr":"MB","prov_iso_3166_2":"IT-MB","reg_name":"Lombardia","reg_istat_code":"03","reg_istat_code_num":3,"reg_iso_3166_2":"IT-25","opdm_id":"2758","com_catasto_code":"E550","com_istat_code":"108026","com_istat_code_num":108026}},
{"type":"Feature","geometry":{"type":"Polygon","coordinates":[[[9.095589789832061,45.58793391098938],[9.093984148453645,45.59102954564786],[9.096961851382293,45.59136925588577],[9.100567949852632,45.593607366644996],[9.100772556267948,45.59665350053967],[9.099555220565215,45.600003420421665],[9.09560013267349,45.603725077905004],[9.094641068192802,45.604553036000105],[9.094362622047193,45.60647049972284],[9.098546227688438,45.608519052649335],[9.101135777934795,45.60821976487427],[9.104603770623461,45.61001933698632],[9.105981815826297,45.614029902178224],[9.107927458476716,45.61847008735779],[9.109378105689895,45.620822572239746],[9.113780474815794,45.62067865791111],[9.114798409712035,45.622783762194416],[9.11670113998199,45.624843045135144],[9.121889391697971,45.622317370351],[9.132200302687655,45.61624324467329],[9.138420565979015,45.61242466123938],[9.140328901821384,45.608742736512525],[9.140549505976788,45.60793957116047],[9.140514863287112,45.607198172705466],[9.140454225430373,45.60590097651982],[9.139843571512833,45.60483719451024],[9.139500333519237,45.603634397628014],[9.139934330695276,45.602168240151684],[9.141922065909323,45.598725407519424],[9.142104822503024,45.59873918675581],[9.14415307469932,45.59889361562054],[9.146768240358814,45.58778062842458],[9.144874300401673,45.58370874578713],[9.135875440829722,45.58423841972797],[9.127959495375514,45.58454556052928],[9.126514832856488,45.58450383065232],[9.1244277665887,45.58444341835923],[9.110199707638568,45.58608373087653],[9.103338806638158,45.588343851766695],[9.099528492063406,45.58864285919446],[9.095589789832061,45.58793391098938]]]},"properties":{"name":"Limbiate","op_id":"1959","minint_elettorale":"1031040270","minint_finloc":"1030491200","prov_name":"Monza e della Brianza","prov_istat_code":"108","prov_istat_code_num":108,"prov_acr":"MB","prov_iso_3166_2":"IT-MB","reg_name":"Lombardia","reg_istat_code":"03","reg_istat_code_num":3,"reg_iso_3166_2":"IT-25","opdm_id":"2759","com_catasto_code":"E591","com_istat_code":"108027","com_istat_code_num":108027}},
{"type":"Feature","geometry":{"type":"Polygon","coordinates":[[[9.237066926924037,45.64238170763406],[9.242767915944022,45.641566326374466],[9.241879078494776,45.63517312941946],[9.239057592907395,45.632352764203674],[9.245485490515868,45.62950904941765],[9.246560805277575,45.62975533134659],[9.247245869159059,45.629853271459915],[9.250656892354533,45.630185740485935],[9.252628054691717,45.6296999081343],[9.25339578664485,45.62889264504913],[9.261544345821001,45.61711421275846],[9.26158007735053,45.61704909906852],[9.262965993946645,45.61452155374374],[9.263971652347115,45.61260986934058],[9.263747334864378,45.61047170239571],[9.259893820633822,45.609594040878235],[9.259081258753714,45.60816788522771],[9.259359881626539,45.60624500721893],[9.260143296346003,45.603680752894846],[9.258767899256975,45.605457591974044],[9.257987538091086,45.60606133370992],[9.256664779718507,45.60578644790106],[9.256567975639156,45.60575236535546],[9.255611998405255,45.60498157160773],[9.25470273283336,45.60278156213824],[9.251700301112965,45.60114048459948],[9.244303711099134,45.5976493694367],[9.24153620423483,45.59639221289041],[9.234088055603872,45.59878609693822],[9.231191651379472,45.59933244742522],[9.22556538158184,45.60335187045455],[9.225205006325393,45.6038184934152],[9.222864278671725,45.606898471417225],[9.222135582960927,45.60834386714516],[9.223769728965218,45.608839229679674],[9.226950499827948,45.61249699548476],[9.229707320987318,45.615760277371315],[9.233049643558516,45.62219361848611],[9.234566303824122,45.62564581013472],[9.228554005126481,45.62995622028306],[9.222286390157082,45.63335035693203],[9.22085291350374,45.63591556245705],[9.237066926924037,45.64238170763406]]]},"properties":{"name":"Lissone","op_id":"1961","minint_elettorale":"1031040280","minint_finloc":"1030491220","prov_name":"Monza e della Brianza","prov_istat_code":"108","prov_istat_code_num":108,"prov_acr":"MB","prov_iso_3166_2":"IT-MB","reg_name":"Lombardia","reg_istat_code":"03","reg_istat_code_num":3,"reg_iso_3166_2":"IT-25","opdm_id":"2760","com_catasto_code":"E617","com_istat_code":"108028","com_istat_code_num":108028}},
{"type":"Feature","geometry":{"type":"Polygon","coordinates":[[[9.288044453171754,45.64346870482247],[9.284291346017403,45.64222660929152],[9.271157892806698,45.63655621893502],[9.260351255845135,45.631433074890104],[9.255220425197168,45.62953664779008],[9.25339578664485,45.62889264504913],[9.252628054691717,45.6296999081343],[9.250656892354533,45.630185740485935],[9.247245869159059,45.629853271459915],[9.246560805277575,45.62975533134659],[9.245485490515868,45.62950904941765],[9.239057592907395,45.632352764203674],[9.241879078494776,45.63517312941946],[9.244060358000025,45.637975681412584],[9.24667894275515,45.638304167748984],[9.246907802409904,45.637826626452686],[9.247972171284557,45.636871295606795],[9.250756335219597,45.63683600056155],[9.259363396478363,45.63937092380682],[9.268263464967765,45.64308482379644],[9.279648520598174,45.64779898095213],[9.281458217147645,45.647580097455574],[9.28805222152669,45.64726675968236],[9.288044453171754,45.64346870482247]]]},"properties":{"name":"Macherio","op_id":"1963","minint_elettorale":"1031040290","minint_finloc":"1030491280","prov_name":"Monza e della Brianza","prov_istat_code":"108","prov_istat_code_num":108,"prov_acr":"MB","prov_iso_3166_2":"IT-MB","reg_name":"Lombardia","reg_istat_code":"03","reg_istat_code_num":3,"reg_iso_3166_2":"IT-25","opdm_id":"2761","com_catasto_code":"E786","com_istat_code":"108029","com_istat_code_num":108029}},
{"type":"Feature","geometry":{"type":"Polygon","coordinates":[[[9.15414032564066,45.685999882334926],[9.155113632181545,45.6850354595505],[9.155433501513405,45.68461199325588],[9.159116189180407,45.6790714413093],[9.163750018299442,45.67298813995266],[9.168418070168572,45.669939325164826],[9.17189125196897,45.66804841534917],[9.178156090793513,45.66559852902967],[9.179654475356337,45.66348922240034],[9.179855948967859,45.662792344518465],[9.179993674064875,45.662068753027086],[9.180017176270606,45.66146143738194],[9.179437840709358,45.659426165486074],[9.176879294437684,45.65542027081612],[9.175467493978093,45.65286325290625],[9.175873774515862,45.648715080116716],[9.172592114236679,45.64956428480506],[9.170468893327774,45.64992816572867],[9.170331845980048,45.64994037643994],[9.168658900160342,45.64903544173063],[9.165804954535405,45.64861257071542],[9.16392052643545,45.64863932788614],[9.148590345430936,45.65155365683763],[9.14390915953367,45.65362081473583],[9.143558417888798,45.65745400424551],[9.139315056354956,45.66327908504497],[9.139158431853495,45.66725950322845],[9.141074063196552,45.67845619733684],[9.144240447560522,45.681449493831536],[9.145227686535334,45.68087219328006],[9.14716403431944,45.6798706318083],[9.14774184329862,45.67986089061248],[9.14902831320148,45.68077729214354],[9.151331669824518,45.68258341337516],[9.152567623783293,45.68376087505105],[9.153288985917651,45.68457898725207],[9.153740245943919,45.68523542719113],[9.153869258078727,45.68546027368778],[9.15414032564066,45.685999882334926]]]},"properties":{"name":"Meda","op_id":"1968","minint_elettorale":"1031040300","minint_finloc":"1030491370","prov_name":"Monza e della Brianza","prov_istat_code":"108","prov_istat_code_num":108,"prov_acr":"MB","prov_iso_3166_2":"IT-MB","reg_name":"Lombardia","reg_istat_code":"03","reg_istat_code_num":3,"reg_iso_3166_2":"IT-25","opdm_id":"2762","com_catasto_code":"F078","com_istat_code":"108030","com_istat_code_num":108030}},
{"type":"Feature","geometry":{"type":"Polygon","coordinates":[[[9.445496398505712,45.615876433356924],[9.44398422865689,45.61581005254653],[9.442812658168563,45.61598137763103],[9.438794898136816,45.61657924159867],[9.43799026453179,45.61683106180233],[9.431115770135317,45.62134397028577],[9.430815612219922,45.62337927347352],[9.430933860906944,45.62395487356413],[9.430998823565314,45.62406263622921],[9.431410518607176,45.62446532906984],[9.432435185962447,45.62736046564178],[9.434124124120896,45.63240345514789],[9.439137398353692,45.63735714662814],[9.44889822750064,45.644405020582035],[9.451368189595417,45.64635622616462],[9.45218486370497,45.64478591904446],[9.454050075155864,45.640556709915444],[9.45651919738806,45.630703736903556],[9.456764197822162,45.627190307371656],[9.456375718156458,45.62573014489476],[9.453535094728865,45.623881930957566],[9.449034830335806,45.61650149743516],[9.445496398505712,45.615876433356924]]]},"properties":{"name":"Mezzago","op_id":"1973","minint_elettorale":"1031040310","minint_finloc":"1030491440","prov_name":"Monza e della Brianza","prov_istat_code":"108","prov_istat_code_num":108,"prov_acr":"MB","prov_iso_3166_2":"IT-MB","reg_name":"Lombardia","reg_istat_code":"03","reg_istat_code_num":3,"reg_iso_3166_2":"IT-25","opdm_id":"2763","com_catasto_code":"F165","com_istat_code":"108031","com_istat_code_num":108031}},
{"type":"Feature","geometry":{"type":"Polygon","coordinates":[[[9.052888982766431,45.65744651909915],[9.055235280605798,45.65747709822915],[9.058580140326134,45.65757573077436],[9.058795450335882,45.65758304140074],[9.060895823447847,45.65765474302434],[9.062445755299109,45.66322979606925],[9.061627095307184,45.66722500054211],[9.065090853598248,45.66723961150792],[9.073629178550567,45.66716706800195],[9.085853660613068,45.666796381928236],[9.088373857792464,45.66647608860931],[9.088682676023334,45.66639459393294],[9.094966631168,45.66371550668138],[9.0956505024427,45.66044925149104],[9.100477990983086,45.65964986447139],[9.103807120828556,45.65360893386176],[9.102841509891604,45.65228653714705],[9.101418196019024,45.65217210482003],[9.099851083572467,45.65204616037446],[9.094834021786772,45.65192450364162],[9.094346327038771,45.65191591103808],[9.089290640493074,45.652036992227096],[9.088123605517687,45.652334920724385],[9.086943394040476,45.652686857178864],[9.08235728621547,45.653378498710325],[9.068115637155211,45.65373454067698],[9.06635849804461,45.65304702179448],[9.062684629738508,45.650042927926634],[9.055898367448595,45.65003502956528],[9.052888982766431,45.65744651909915]]]},"properties":{"name":"Misinto","op_id":"1975","minint_elettorale":"1031040320","minint_finloc":"1030491460","prov_name":"Monza e della Brianza","prov_istat_code":"108","prov_istat_code_num":108,"prov_acr":"MB","prov_iso_3166_2":"IT-MB","reg_name":"Lombardia","reg_istat_code":"03","reg_istat_code_num":3,"reg_iso_3166_2":"IT-25","opdm_id":"2764","com_catasto_code":"F247","com_istat_code":"108032","com_istat_code_num":108032}},
{"type":"Feature","geometry":{"type":"Polygon","coordinates":[[[9.250222864888245,45.55322126181652],[9.253329030159781,45.554963221976216],[9.25456115151477,45.5558258240644],[9.255120303552125,45.55637614563029],[9.255164666376924,45.556421905985914],[9.255744097531771,45.557106448661216],[9.242591320704719,45.56343624274051],[9.239322089837389,45.56311382477395],[9.235005336101132,45.563434671779085],[9.227049186963857,45.566006837159335],[9.22700441346054,45.56852654230519],[9.226983279931908,45.571200457105654],[9.227283799383963,45.57355584660913],[9.232158085374206,45.57790004114962],[9.237659840264676,45.58273170047229],[9.238751460121987,45.58389739739618],[9.239715108088538,45.58546217136709],[9.241246616596507,45.59195217918748],[9.24153620423483,45.59639221289041],[9.244303711099134,45.5976493694367],[9.251700301112965,45.60114048459948],[9.25470273283336,45.60278156213824],[9.255611998405255,45.60498157160773],[9.256567975639156,45.60575236535546],[9.256664779718507,45.60578644790106],[9.257987538091086,45.60606133370992],[9.258767899256975,45.605457591974044],[9.260143296346003,45.603680752894846],[9.266893610349417,45.60285248833806],[9.275721123001029,45.60830788538452],[9.277665392468522,45.61296549493024],[9.27837232698798,45.61820672000838],[9.279351005616263,45.62271130423133],[9.278218824863393,45.62618868591621],[9.279608129569187,45.62987685928511],[9.296948930889268,45.63268049711898],[9.297489764640842,45.629677445327324],[9.298127030173704,45.62608712179508],[9.297879274306908,45.62511824269387],[9.29617730467564,45.62087773559336],[9.295667782163603,45.61980471492178],[9.294840373449158,45.61860150381241],[9.294406400824654,45.61768550440909],[9.294311683617728,45.61741061276247],[9.29430215099179,45.616724318271594],[9.294356351131066,45.616098516930116],[9.294467214389348,45.61531107521049],[9.295235460435617,45.613815565433896],[9.295491823358283,45.61337088714526],[9.297276827208279,45.61202713114994],[9.29757064428422,45.61181035843575],[9.29776181714161,45.61170597121693],[9.297954444758997,45.611608574529114],[9.298045034052185,45.611576015770346],[9.298126566115615,45.611547558911795],[9.29855575462003,45.61118314395042],[9.298676476724337,45.6110407031962],[9.298727138297954,45.61098088264986],[9.299635751773689,45.60961320093667],[9.299849142194882,45.60873957440894],[9.299115486948708,45.602926921114886],[9.298058514695045,45.601415962532066],[9.297959784713642,45.601279346717334],[9.295583466490287,45.59799131597921],[9.297517433014578,45.59501760055408],[9.300622294097828,45.594481530932995],[9.301246681092566,45.59437391568875],[9.30554564428862,45.5936459836553],[9.30851755565499,45.593289975619975],[9.31511084558288,45.59380553894645],[9.317093085734925,45.59393271958376],[9.316377632228438,45.5919841956553],[9.315133282127626,45.588237601547526],[9.316720880751898,45.583423567649845],[9.321240025454685,45.574747093073746],[9.32281068237276,45.57297781360839],[9.323154725796476,45.572652574527936],[9.319500814860948,45.56553006447202],[9.318143655686963,45.564353634637094],[9.318429062464551,45.563561800394076],[9.318856231237536,45.562358187130656],[9.317828256360142,45.56191762099197],[9.315672701404356,45.56307999471971],[9.31257707881447,45.565333074855715],[9.309543670808248,45.568427908416936],[9.311584598483703,45.569990684716004],[9.309308235995813,45.570543824639685],[9.30516348946351,45.57118495277711],[9.301695464438232,45.57115336457119],[9.298725188007118,45.56842667986818],[9.297419107252983,45.56649131338908],[9.297409262663725,45.56625692332122],[9.297325350593177,45.56425656370212],[9.292116455506568,45.562204470325874],[9.28646613939318,45.560060356666746],[9.280157551164994,45.55853810121812],[9.276580449361918,45.558005540075406],[9.276514251674406,45.55930540168375],[9.276476168640233,45.55959727978616],[9.272639207898825,45.56231203192009],[9.27251148188311,45.56234911222976],[9.272295086542103,45.562397912513944],[9.27158576415429,45.56190661596166],[9.270917948769235,45.56131084767069],[9.270479330094847,45.560899186627196],[9.27033723605305,45.56075550362076],[9.270198370705078,45.56061508197557],[9.26979794902586,45.56009657825237],[9.269735497831125,45.55963111979284],[9.269974211293226,45.55917553063654],[9.271780413690415,45.55659239676959],[9.250222864888245,45.55322126181652]]]},"properties":{"name":"Monza","op_id":"1976","minint_elettorale":"1031040330","minint_finloc":"1030491480","prov_name":"Monza e della Brianza","prov_istat_code":"108","prov_istat_code_num":108,"prov_acr":"MB","prov_iso_3166_2":"IT-MB","reg_name":"Lombardia","reg_istat_code":"03","reg_istat_code_num":3,"reg_iso_3166_2":"IT-25","opdm_id":"2765","com_catasto_code":"F704","com_istat_code":"108033","com_istat_code_num":108033}},
{"type":"Feature","geometry":{"type":"Polygon","coordinates":[[[9.226983279931908,45.571200457105654],[9.22021369838125,45.570356132065264],[9.223438375593707,45.575835689461655],[9.217781227162767,45.579272952964665],[9.217275233944555,45.57917287651189],[9.214668100293927,45.57865716620351],[9.211693037287189,45.577973030723065],[9.211487264138741,45.5779194570812],[9.212819491075834,45.58339121043279],[9.213783598768902,45.5898559877421],[9.213282179662187,45.591054552206884],[9.211379322511716,45.59525621795019],[9.210304829244576,45.597116809875516],[9.22556538158184,45.60335187045455],[9.231191651379472,45.59933244742522],[9.234088055603872,45.59878609693822],[9.24153620423483,45.59639221289041],[9.241246616596507,45.59195217918748],[9.239715108088538,45.58546217136709],[9.238751460121987,45.58389739739618],[9.237659840264676,45.58273170047229],[9.232158085374206,45.57790004114962],[9.227283799383963,45.57355584660913],[9.226983279931908,45.571200457105654]]]},"properties":{"name":"Muggiò","op_id":"1979","minint_elettorale":"1031040340","minint_finloc":"1030491510","prov_name":"Monza e della Brianza","prov_istat_code":"108","prov_istat_code_num":108,"prov_acr":"MB","prov_iso_3166_2":"IT-MB","reg_name":"Lombardia","reg_istat_code":"03","reg_istat_code_num":3,"reg_iso_3166_2":"IT-25","opdm_id":"2766","com_catasto_code":"F797","com_istat_code":"108034","com_istat_code_num":108034}},
{"type":"Feature","geometry":{"type":"Polygon","coordinates":[[[9.211487264138741,45.5779194570812],[9.203132450093817,45.57600032412388],[9.202671502373384,45.57711771431525],[9.199859603335451,45.57794996957923],[9.193417902900825,45.578833731171855],[9.183596365887334,45.58209115014212],[9.177135417784614,45.58550277645886],[9.174412224156251,45.58879105016216],[9.174168923011578,45.589360844137786],[9.173926027254286,45.590063065845726],[9.173878798974604,45.59024489300756],[9.17691858363209,45.5917724098468],[9.18856230001957,45.599355502418625],[9.190145842353047,45.60150371529155],[9.191368042226634,45.60263271629612],[9.193540081990594,45.6030519814252],[9.19808807847548,45.60003349350093],[9.201492961661494,45.59807334591378],[9.204524986912034,45.59765901443356],[9.205119182616032,45.59828746604694],[9.207931906904015,45.5991284588806],[9.209112067603494,45.59925491792227],[9.210304829244576,45.597116809875516],[9.211379322511716,45.59525621795019],[9.213282179662187,45.591054552206884],[9.213783598768902,45.5898559877421],[9.212819491075834,45.58339121043279],[9.211487264138741,45.5779194570812]]]},"properties":{"name":"Nova Milanese","op_id":"1982","minint_elettorale":"1031040350","minint_finloc":"1030491550","prov_name":"Monza e della Brianza","prov_istat_code":"108","prov_istat_code_num":108,"prov_acr":"MB","prov_iso_3166_2":"IT-MB","reg_name":"Lombardia","reg_istat_code":"03","reg_istat_code_num":3,"reg_iso_3166_2":"IT-25","opdm_id":"2767","com_catasto_code":"F944","com_istat_code":"108035","com_istat_code_num":108035}},
{"type":"Feature","geometry":{"type":"Polygon","coordinates":[[[9.450162086435274,45.59182052457703],[9.444613067344424,45.59193590537723],[9.441129600663677,45.59239054339009],[9.438553285143263,45.59247248433196],[9.4362974238064,45.59254413013132],[9.43447604202537,45.592434053570194],[9.43422611662717,45.59116757728503],[9.432014184694882,45.59073317223324],[9.431509941981561,45.59064379262631],[9.431218288742269,45.59059217598483],[9.426307569880876,45.59020115013643],[9.419380716397953,45.5899792028439],[9.417676240373249,45.590057469003376],[9.415357392602504,45.590477337697195],[9.414125457583214,45.591870487526734],[9.40380760056727,45.59044926756605],[9.401904329050522,45.58962787777962],[9.400193360214862,45.59601552094299],[9.40061954883211,45.60004646381742],[9.398628262545923,45.60675010202162],[9.398293606364147,45.60804740896873],[9.398481843253785,45.60996389288456],[9.400642059264781,45.61036170390435],[9.405479172782496,45.61062391132838],[9.408147161544528,45.6106864127437],[9.413679070795542,45.610198851499014],[9.416508274544844,45.60886506292104],[9.41652298196826,45.607388862945754],[9.416101790091775,45.605959054380115],[9.42223140166536,45.604557264993836],[9.42801972662098,45.604483241446864],[9.434163007643104,45.605829954208204],[9.437118112865662,45.605700791236345],[9.43999914076476,45.605149675266276],[9.441328505600323,45.60074734729784],[9.442191472826345,45.600190701821866],[9.442996192653613,45.59980054631944],[9.444327509073734,45.59943246796844],[9.44550814259049,45.59964677189953],[9.446804919301291,45.59990248829527],[9.447330828903969,45.59834308167983],[9.449555414735242,45.594328933376254],[9.45010903341371,45.59301261924396],[9.450154412050463,45.59227436519946],[9.450162086435274,45.59182052457703]]]},"properties":{"name":"Ornago","op_id":"1986","minint_elettorale":"1031040360","minint_finloc":"1030491600","prov_name":"Monza e della Brianza","prov_istat_code":"108","prov_istat_code_num":108,"prov_acr":"MB","prov_iso_3166_2":"IT-MB","reg_name":"Lombardia","reg_istat_code":"03","reg_istat_code_num":3,"reg_iso_3166_2":"IT-25","opdm_id":"2768","com_catasto_code":"G116","com_istat_code":"108036","com_istat_code_num":108036}},
{"type":"Feature","geometry":{"type":"Polygon","coordinates":[[[9.279391917106674,45.73317822644628],[9.284601684830493,45.73156305422583],[9.286736075556991,45.73063514196287],[9.289034467582626,45.72659416927574],[9.288696317103655,45.72303815705991],[9.291358422353808,45.720583163547644],[9.291378206954523,45.72013759290407],[9.289775060481507,45.71979067898124],[9.28674474960764,45.716290394986295],[9.287572373390933,45.71328144871056],[9.287087249890467,45.71232794833097],[9.28264368932753,45.71236663129173],[9.273386645408026,45.71398641317501],[9.266835276605843,45.71709693206787],[9.265828772005708,45.71882769162094],[9.26878058427099,45.726111409536955],[9.279391917106674,45.73317822644628]]]},"properties":{"name":"Renate","op_id":"2002","minint_elettorale":"1031040370","minint_finloc":"1030491790","prov_name":"Monza e della Brianza","prov_istat_code":"108","prov_istat_code_num":108,"prov_acr":"MB","prov_iso_3166_2":"IT-MB","reg_name":"Lombardia","reg_istat_code":"03","reg_istat_code_num":3,"reg_iso_3166_2":"IT-25","opdm_id":"2769","com_catasto_code":"H233","com_istat_code":"108037","com_istat_code_num":108037}},
{"type":"Feature","geometry":{"type":"Polygon","coordinates":[[[9.4062492602848,45.672978325960536],[9.414440889258552,45.67650423485904],[9.420406081326027,45.66721166333201],[9.420808198083506,45.66604910032276],[9.418029474393684,45.665258267585074],[9.41246418765357,45.662578289082795],[9.402312777651883,45.65730352480158],[9.398434102906128,45.65719161840301],[9.39281784722596,45.65983926866847],[9.38527085647938,45.66368124575128],[9.387197731451867,45.66551522319984],[9.395867998752324,45.67010754816433],[9.397757885447355,45.670625659091215],[9.4062492602848,45.672978325960536]]]},"properties":{"name":"Ronco Briantino","op_id":"2009","minint_elettorale":"1031040380","minint_finloc":"1030491860","prov_name":"Monza e della Brianza","prov_istat_code":"108","prov_istat_code_num":108,"prov_acr":"MB","prov_iso_3166_2":"IT-MB","reg_name":"Lombardia","reg_istat_code":"03","reg_istat_code_num":3,"reg_iso_3166_2":"IT-25","opdm_id":"2770","com_catasto_code":"H537","com_istat_code":"108038","com_istat_code_num":108038}},
{"type":"Feature","geometry":{"type":"Polygon","coordinates":[[[9.179654475356337,45.66348922240034],[9.186574284602258,45.665563189666706],[9.194432438093088,45.667686204137404],[9.196388690006751,45.66799550066021],[9.204997722803899,45.66568688028771],[9.211561435620515,45.66492556873108],[9.212782855135625,45.66489673608161],[9.214129263170866,45.664846722840025],[9.21840949126696,45.663559133892434],[9.218361328292112,45.66307239363531],[9.21828186758484,45.662466703485535],[9.218079248908603,45.66191535626989],[9.218105492177436,45.66072526538846],[9.219169381857244,45.6595437328684],[9.224047310109743,45.65562575865772],[9.226974437373627,45.65388498313008],[9.228523760526455,45.653080822128906],[9.232905122959822,45.65230629847137],[9.23524007767716,45.652090559530144],[9.236855193057664,45.65201322876565],[9.237143183437762,45.65185399232446],[9.239217435939311,45.65062304167879],[9.240897043758073,45.64760085488222],[9.240994387673547,45.64739127955307],[9.240983006761269,45.64694345635874],[9.240980745740226,45.64686628106912],[9.24007889384206,45.64563434285753],[9.237066926924037,45.64238170763406],[9.22085291350374,45.63591556245705],[9.215966527084477,45.635069158653096],[9.20451601180241,45.6335921622388],[9.196095545504305,45.634033023633364],[9.189920359373648,45.63347932785691],[9.18816611875151,45.63288936940265],[9.188971800025456,45.63545335158921],[9.185033597159576,45.642173997785314],[9.17937003191508,45.64137695454703],[9.176038257659409,45.64358009835072],[9.175873774515862,45.648715080116716],[9.175467493978093,45.65286325290625],[9.176879294437684,45.65542027081612],[9.179437840709358,45.659426165486074],[9.180017176270606,45.66146143738194],[9.179993674064875,45.662068753027086],[9.179855948967859,45.662792344518465],[9.179654475356337,45.66348922240034]]]},"properties":{"name":"Seregno","op_id":"2022","minint_elettorale":"1031040390","minint_finloc":"1030492070","prov_name":"Monza e della Brianza","prov_istat_code":"108","prov_istat_code_num":108,"prov_acr":"MB","prov_iso_3166_2":"IT-MB","reg_name":"Lombardia","reg_istat_code":"03","reg_istat_code_num":3,"reg_iso_3166_2":"IT-25","opdm_id":"2771","com_catasto_code":"I625","com_istat_code":"108039","com_istat_code_num":108039}},
{"type":"Feature","geometry":{"type":"Polygon","coordinates":[[[9.107636968568642,45.64448735458056],[9.112347534380204,45.64566186876768],[9.120484735784313,45.64679668906266],[9.122166473765944,45.6470649616949],[9.12596781383208,45.64828494184242],[9.135730404615252,45.651655127107226],[9.139114669289206,45.655682501342675],[9.141339406795339,45.65688280426401],[9.143558417888798,45.65745400424551],[9.14390915953367,45.65362081473583],[9.148590345430936,45.65155365683763],[9.16392052643545,45.64863932788614],[9.165804954535405,45.64861257071542],[9.168658900160342,45.64903544173063],[9.170331845980048,45.64994037643994],[9.170468893327774,45.64992816572867],[9.172592114236679,45.64956428480506],[9.175873774515862,45.648715080116716],[9.176038257659409,45.64358009835072],[9.176466024382847,45.641404767885994],[9.176780274335442,45.63860817390718],[9.176756468069652,45.63713069738998],[9.1722821838438,45.63685931573758],[9.1620325289111,45.6363546464163],[9.159542494647598,45.63700992015345],[9.151039417144212,45.6374914496895],[9.150726539501418,45.63749976391865],[9.148372028972458,45.637526553592444],[9.146794960612247,45.637007229770575],[9.144623537720712,45.63626763128736],[9.12612896964803,45.63673955973903],[9.119644335657846,45.638103247945914],[9.111758880217689,45.6396343438955],[9.107636968568642,45.64448735458056]]]},"properties":{"name":"Seveso","op_id":"2026","minint_elettorale":"1031040400","minint_finloc":"1030492110","prov_name":"Monza e della Brianza","prov_istat_code":"108","prov_istat_code_num":108,"prov_acr":"MB","prov_iso_3166_2":"IT-MB","reg_name":"Lombardia","reg_istat_code":"03","reg_istat_code_num":3,"reg_iso_3166_2":"IT-25","opdm_id":"2772","com_catasto_code":"I709","com_istat_code":"108040","com_istat_code_num":108040}},
{"type":"Feature","geometry":{"type":"Polygon","coordinates":[[[9.242767915944022,45.641566326374466],[9.245958848074268,45.64476323575363],[9.254671048470057,45.65246426573266],[9.260600506935699,45.65344442098892],[9.265247806215546,45.65434000944086],[9.265780182472001,45.65593798587586],[9.265495403515919,45.657105183184605],[9.268006274151539,45.6543078200908],[9.27837108366237,45.648725236092126],[9.281458217147645,45.647580097455574],[9.279648520598174,45.64779898095213],[9.268263464967765,45.64308482379644],[9.259363396478363,45.63937092380682],[9.250756335219597,45.63683600056155],[9.247972171284557,45.636871295606795],[9.246907802409904,45.637826626452686],[9.24667894275515,45.638304167748984],[9.244060358000025,45.637975681412584],[9.241879078494776,45.63517312941946],[9.242767915944022,45.641566326374466]]]},"properties":{"name":"Sovico","op_id":"2028","minint_elettorale":"1031040410","minint_finloc":"1030492150","prov_name":"Monza e della Brianza","prov_istat_code":"108","prov_istat_code_num":108,"prov_acr":"MB","prov_iso_3166_2":"IT-MB","reg_name":"Lombardia","reg_istat_code":"03","reg_istat_code_num":3,"reg_iso_3166_2":"IT-25","opdm_id":"2773","com_catasto_code":"I878","com_istat_code":"108041","com_istat_code_num":108041}},
{"type":"Feature","geometry":{"type":"Polygon","coordinates":[[[9.429840238288362,45.653576406436294],[9.446840876565577,45.649703809470985],[9.451368189595417,45.64635622616462],[9.44889822750064,45.644405020582035],[9.439137398353692,45.63735714662814],[9.434124124120896,45.63240345514789],[9.432435185962447,45.62736046564178],[9.431410518607176,45.62446532906984],[9.428423963233087,45.62261915305633],[9.410989377924565,45.62759775115208],[9.40864944061081,45.62865924868849],[9.403163822628878,45.62937182961491],[9.39985604480906,45.62970728444885],[9.399716877551315,45.631849629025275],[9.401064603292506,45.63551733122428],[9.405130970541501,45.635394982847984],[9.413518067686788,45.63312363615713],[9.418130680487105,45.63519510354549],[9.422248973676663,45.63739422684511],[9.427473655920712,45.6478428148507],[9.429840238288362,45.653576406436294]]]},"properties":{"name":"Sulbiate","op_id":"2029","minint_elettorale":"1031040420","minint_finloc":"1030492160","prov_name":"Monza e della Brianza","prov_istat_code":"108","prov_istat_code_num":108,"prov_acr":"MB","prov_iso_3166_2":"IT-MB","reg_name":"Lombardia","reg_istat_code":"03","reg_istat_code_num":3,"reg_iso_3166_2":"IT-25","opdm_id":"2774","com_catasto_code":"I998","com_istat_code":"108042","com_istat_code_num":108042}},
{"type":"Feature","geometry":{"type":"Polygon","coordinates":[[[9.265495403515919,45.657105183184605],[9.254032529462291,45.667792786209695],[9.258374627697844,45.67274940923646],[9.260591130330454,45.671567519958955],[9.267590071505014,45.66839185449765],[9.26961153251343,45.668072268502286],[9.27144693367779,45.66881498206945],[9.274117182702495,45.66998726939012],[9.276112703326998,45.67105381752187],[9.279568019368943,45.67527577815278],[9.28080027502487,45.67745095497238],[9.280684573199244,45.67935041715008],[9.279671410345989,45.68146344422615],[9.278545988775543,45.683430126771675],[9.280906175430607,45.68381575619092],[9.290427871400576,45.684847921837246],[9.294276262529705,45.68191439696408],[9.297371399625526,45.678840267285466],[9.296342345090268,45.67171989474268],[9.298011085070558,45.65669216800575],[9.28805222152669,45.64726675968236],[9.281458217147645,45.647580097455574],[9.27837108366237,45.648725236092126],[9.268006274151539,45.6543078200908],[9.265495403515919,45.657105183184605]]]},"properties":{"name":"Triuggio","op_id":"2034","minint_elettorale":"1031040430","minint_finloc":"1030492220","prov_name":"Monza e della Brianza","prov_istat_code":"108","prov_istat_code_num":108,"prov_acr":"MB","prov_iso_3166_2":"IT-MB","reg_name":"Lombardia","reg_istat_code":"03","reg_istat_code_num":3,"reg_iso_3166_2":"IT-25","opdm_id":"2775","com_catasto_code":"L434","com_istat_code":"108043","com_istat_code_num":108043}},
{"type":"Feature","geometry":{"type":"Polygon","coordinates":[[[9.325071652813785,45.66408901011538],[9.329661033161905,45.66579036638091],[9.341302814840239,45.669734551051384],[9.349088633076095,45.66858603316001],[9.353731056593423,45.665790383192096],[9.355773236044557,45.665955062104665],[9.35671156540516,45.667410248333255],[9.357040584649548,45.66741372638929],[9.357561990797755,45.66737497068637],[9.357717443370413,45.66733299001646],[9.358094744368556,45.667230843399174],[9.36019473204566,45.6664255086152],[9.369089035288695,45.661096830155245],[9.36920383223324,45.660073660695225],[9.369553482115473,45.65782236756528],[9.37053942357914,45.656682409206546],[9.371304887532965,45.6559778759338],[9.372287234931624,45.65509253649798],[9.371630755906471,45.65259305569778],[9.370549781385954,45.648232081076685],[9.371229173736038,45.64649109652854],[9.372527782012492,45.64296766721881],[9.372952908653247,45.641292085712706],[9.373341577460053,45.63798750696999],[9.37265611628854,45.63717066020259],[9.372255323582644,45.63671292971648],[9.371910503675785,45.63644722491169],[9.371661997146928,45.636255734310005],[9.366486657666167,45.63555237282406],[9.360486595477445,45.63424840561641],[9.356696744989838,45.633486137160126],[9.35571211352875,45.63600956192026],[9.355642967855859,45.6392770855728],[9.347689466178755,45.6391850875457],[9.34488466196419,45.63836492601851],[9.34417599484992,45.6378809964023],[9.342307670111794,45.636590518467166],[9.340622944714003,45.63806269617315],[9.34208957725744,45.640821520188304],[9.337912383337715,45.644342075128215],[9.336432268620475,45.645503919950976],[9.329924062550846,45.64718493058045],[9.333581901827381,45.648552525271235],[9.334918978377342,45.64979871447744],[9.336548993554253,45.65194519700966],[9.33692419276781,45.65245708918586],[9.335958962945583,45.65417902192399],[9.334212462428011,45.655121620068215],[9.334180735461391,45.65513843023806],[9.326290321318494,45.662585023570834],[9.325071652813785,45.66408901011538]]]},"properties":{"name":"Usmate Velate","op_id":"2037","minint_elettorale":"1031040440","minint_finloc":"1030492260","prov_name":"Monza e della Brianza","prov_istat_code":"108","prov_istat_code_num":108,"prov_acr":"MB","prov_iso_3166_2":"IT-MB","reg_name":"Lombardia","reg_istat_code":"03","reg_istat_code_num":3,"reg_iso_3166_2":"IT-25","opdm_id":"2776","com_catasto_code":"L511","com_istat_code":"108044","com_istat_code_num":108044}},
{"type":"Feature","geometry":{"type":"Polygon","coordinates":[[[9.17691858363209,45.5917724098468],[9.170822426402314,45.591745061325845],[9.162948370836622,45.59154154034602],[9.150744386759925,45.58893630216658],[9.146768240358814,45.58778062842458],[9.14415307469932,45.59889361562054],[9.145152255406266,45.59868531079509],[9.145524339095,45.5987640802485],[9.14568067793717,45.598797179213754],[9.147384167007225,45.59915952485892],[9.150336703006715,45.6004608049938],[9.151109554226855,45.60176492148284],[9.153179369790015,45.604069043284696],[9.157533038445601,45.60605424977281],[9.161334108136927,45.607290572665924],[9.165911031383011,45.607824640518515],[9.167202863810754,45.60793516744736],[9.170121726397108,45.60694523786439],[9.174839736425632,45.608542030005935],[9.17595676082368,45.60931557432873],[9.174833554032345,45.60741515907694],[9.174764313786886,45.60709955611254],[9.17457299773726,45.606227450535904],[9.176662638685837,45.60526561697519],[9.181516446298213,45.6045604317319],[9.188195318713907,45.60030707085771],[9.18856230001957,45.599355502418625],[9.17691858363209,45.5917724098468]]]},"properties":{"name":"Varedo","op_id":"2041","minint_elettorale":"1031040450","minint_finloc":"1030492300","prov_name":"Monza e della Brianza","prov_istat_code":"108","prov_istat_code_num":108,"prov_acr":"MB","prov_iso_3166_2":"IT-MB","reg_name":"Lombardia","reg_istat_code":"03","reg_istat_code_num":3,"reg_iso_3166_2":"IT-25","opdm_id":"2777","com_catasto_code":"L677","com_istat_code":"108045","com_istat_code_num":108045}},
{"type":"Feature","geometry":{"type":"Polygon","coordinates":[[[9.261544345821001,45.61711421275846],[9.26736674047168,45.61861469268299],[9.276793117586054,45.62215893084919],[9.279351005616263,45.62271130423133],[9.27837232698798,45.61820672000838],[9.277665392468522,45.61296549493024],[9.275721123001029,45.60830788538452],[9.266893610349417,45.60285248833806],[9.260143296346003,45.603680752894846],[9.259359881626539,45.60624500721893],[9.259081258753714,45.60816788522771],[9.259893820633822,45.609594040878235],[9.263747334864378,45.61047170239571],[9.263971652347115,45.61260986934058],[9.262965993946645,45.61452155374374],[9.26158007735053,45.61704909906852],[9.261544345821001,45.61711421275846]]]},"properties":{"name":"Vedano al Lambro","op_id":"2042","minint_elettorale":"1031040460","minint_finloc":"1030492310","prov_name":"Monza e della Brianza","prov_istat_code":"108","prov_istat_code_num":108,"prov_acr":"MB","prov_iso_3166_2":"IT-MB","reg_name":"Lombardia","reg_istat_code":"03","reg_istat_code_num":3,"reg_iso_3166_2":"IT-25","opdm_id":"2778","com_catasto_code":"L704","com_istat_code":"108046","com_istat_code_num":108046}},
{"type":"Feature","geometry":{"type":"Polygon","coordinates":[[[9.243492604987974,45.73284627726125],[9.247121515972545,45.74264906739531],[9.254154807632437,45.740474454504415],[9.259014785761739,45.739920043899716],[9.260696042990705,45.73974796532627],[9.268480757902966,45.74138604989193],[9.274243687685988,45.74223633780766],[9.276037422192788,45.74100802074688],[9.281416265735372,45.73707934772344],[9.281530467081938,45.7367820294868],[9.280556995542915,45.73489427869777],[9.279844536297373,45.73378895048163],[9.279391917106674,45.73317822644628],[9.26878058427099,45.726111409536955],[9.265887546512335,45.725758263725275],[9.259445527892542,45.7296374722797],[9.253680782335536,45.731798586855305],[9.245740842036973,45.733216639223166],[9.243492604987974,45.73284627726125]]]},"properties":{"name":"Veduggio con Colzano","op_id":"2043","minint_elettorale":"1031040470","minint_finloc":"1030492311","prov_name":"Monza e della Brianza","prov_istat_code":"108","prov_istat_code_num":108,"prov_acr":"MB","prov_iso_3166_2":"IT-MB","reg_name":"Lombardia","reg_istat_code":"03","reg_istat_code_num":3,"reg_iso_3166_2":"IT-25","opdm_id":"2779","com_catasto_code":"L709","com_istat_code":"108047","com_istat_code_num":108047}},
{"type":"Feature","geometry":{"type":"Polygon","coordinates":[[[9.2349758046043,45.699010251964616],[9.237334212572376,45.69588447965982],[9.237860143863838,45.69277785027323],[9.236762028657527,45.68620603740033],[9.234343866817339,45.68422541074728],[9.23313002772405,45.6841283699594],[9.22983287952239,45.68311373155121],[9.219416536208149,45.67351009399399],[9.21777412346428,45.67172640932024],[9.212756968643127,45.67011360956006],[9.211620269528291,45.66995918034433],[9.211510672373462,45.67379374819605],[9.210446083401754,45.67560805993234],[9.211430223868385,45.68039534418001],[9.215133085287604,45.68555332576754],[9.222075674330865,45.69284556627787],[9.225214402350906,45.698808943654434],[9.228256984407203,45.699282329746836],[9.2349758046043,45.699010251964616]]]},"properties":{"name":"Verano Brianza","op_id":"2044","minint_elettorale":"1031040480","minint_finloc":"1030492320","prov_name":"Monza e della Brianza","prov_istat_code":"108","prov_istat_code_num":108,"prov_acr":"MB","prov_iso_3166_2":"IT-MB","reg_name":"Lombardia","reg_istat_code":"03","reg_istat_code_num":3,"reg_iso_3166_2":"IT-25","opdm_id":"2780","com_catasto_code":"L744","com_istat_code":"108048","com_istat_code_num":108048}},
{"type":"Feature","geometry":{"type":"Polygon","coordinates":[[[9.298650261082104,45.6217505783425],[9.30245916777054,45.62102103451423],[9.312138285378648,45.618459142215684],[9.31900650621508,45.61502084066331],[9.323315399767507,45.60876558739018],[9.325499770980416,45.60696583624459],[9.324664163197804,45.606480751259646],[9.31962499444372,45.60265539465668],[9.312417050119407,45.596842341487076],[9.312356138206656,45.59618581955165],[9.31279930824241,45.59517651353102],[9.317093085734925,45.59393271958376],[9.31511084558288,45.59380553894645],[9.30851755565499,45.593289975619975],[9.30554564428862,45.5936459836553],[9.301246681092566,45.59437391568875],[9.300622294097828,45.594481530932995],[9.297517433014578,45.59501760055408],[9.295583466490287,45.59799131597921],[9.297959784713642,45.601279346717334],[9.298058514695045,45.601415962532066],[9.299115486948708,45.602926921114886],[9.299849142194882,45.60873957440894],[9.299635751773689,45.60961320093667],[9.298727138297954,45.61098088264986],[9.298676476724337,45.6110407031962],[9.29855575462003,45.61118314395042],[9.298126566115615,45.611547558911795],[9.298045034052185,45.611576015770346],[9.298650261082104,45.6217505783425]]]},"properties":{"name":"Villasanta","op_id":"2049","minint_elettorale":"1031040490","minint_finloc":"1030492370","prov_name":"Monza e della Brianza","prov_istat_code":"108","prov_istat_code_num":108,"prov_acr":"MB","prov_iso_3166_2":"IT-MB","reg_name":"Lombardia","reg_istat_code":"03","reg_istat_code_num":3,"reg_iso_3166_2":"IT-25","opdm_id":"2781","com_catasto_code":"M017","com_istat_code":"108049","com_istat_code_num":108049}},
{"type":"Feature","geometry":{"type":"Polygon","coordinates":[[[9.375573003162641,45.58906926691677],[9.372833950729449,45.586576042086605],[9.370048146482786,45.58596404263951],[9.36720395458972,45.58621623491747],[9.365835138477062,45.58665268106249],[9.363819252707847,45.588135270524454],[9.362300997750662,45.58926520796914],[9.356372145695989,45.590208690877354],[9.356570336947328,45.59329760774581],[9.35416390185023,45.600019821071825],[9.351097597699754,45.603854644919274],[9.349309040688793,45.6049312274819],[9.347012308103055,45.6047221992785],[9.335816126924714,45.60449461844795],[9.331199719019715,45.60520697066124],[9.331883712330983,45.609591582471595],[9.33170686269064,45.61655886953242],[9.339698530209812,45.62512198255695],[9.344354924226995,45.629527623563085],[9.344870824483309,45.63115071948937],[9.346126889922303,45.63521541687817],[9.345727321082403,45.636465200765954],[9.34417599484992,45.6378809964023],[9.34488466196419,45.63836492601851],[9.347689466178755,45.6391850875457],[9.355642967855859,45.6392770855728],[9.35571211352875,45.63600956192026],[9.356696744989838,45.633486137160126],[9.360486595477445,45.63424840561641],[9.366486657666167,45.63555237282406],[9.371661997146928,45.636255734310005],[9.370128746662925,45.635279635645766],[9.369946340263187,45.63485717216108],[9.370147130089308,45.63417246304634],[9.370452002562912,45.633712436536044],[9.37423327398385,45.63123392599119],[9.382466898134453,45.634581971791086],[9.386943397265396,45.63625911092019],[9.391605378448688,45.63690259076116],[9.394692273269383,45.63603454945699],[9.39624725012591,45.63467904031315],[9.394796122867204,45.63268576190663],[9.399716877551315,45.631849629025275],[9.39985604480906,45.62970728444885],[9.39949813413461,45.62758893307473],[9.401818634697813,45.620263011948694],[9.400566258115637,45.61321665847117],[9.400642059264781,45.61036170390435],[9.398481843253785,45.60996389288456],[9.398293606364147,45.60804740896873],[9.398628262545923,45.60675010202162],[9.40061954883211,45.60004646381742],[9.400193360214862,45.59601552094299],[9.395532155026496,45.59868691510664],[9.38212836111493,45.60176582210304],[9.381781551486489,45.605812892159236],[9.379521148847857,45.606373963033874],[9.376132324901652,45.60538105951538],[9.37369445769295,45.60119069900129],[9.372951151271531,45.59558794553036],[9.372593058956474,45.592796440691885],[9.372745438870059,45.59064468528862],[9.375573003162641,45.58906926691677]]]},"properties":{"name":"Vimercate","op_id":"2050","minint_elettorale":"1031040500","minint_finloc":"1030492390","prov_name":"Monza e della Brianza","prov_istat_code":"108","prov_istat_code_num":108,"prov_acr":"MB","prov_iso_3166_2":"IT-MB","reg_name":"Lombardia","reg_istat_code":"03","reg_istat_code_num":3,"reg_iso_3166_2":"IT-25","opdm_id":"2782","com_catasto_code":"M052","com_istat_code":"108050","com_istat_code_num":108050}},
{"type":"Feature","geometry":{"type":"Polygon","coordinates":[[[9.481654626777745,45.59680818124657],[9.479005118248836,45.59583821196665],[9.476787600718806,45.59590154054311],[9.474305611885027,45.599584214964366],[9.471897831320542,45.60296958064103],[9.471476325346979,45.603169338067204],[9.467671910107274,45.603653030588404],[9.456903981863457,45.60725193805054],[9.44988513050393,45.60835082123684],[9.446072858917958,45.607155345537606],[9.44294242845103,45.60850114059253],[9.445496398505712,45.615876433356924],[9.449034830335806,45.61650149743516],[9.453535094728865,45.623881930957566],[9.456375718156458,45.62573014489476],[9.462927853180911,45.62398731811405],[9.464720207405934,45.6235570046321],[9.470690096866809,45.622632412960996],[9.472419557686784,45.62236425114277],[9.475556755860831,45.62170322395407],[9.479817870206181,45.620461454324655],[9.481214353633035,45.619631833062115],[9.482544347924923,45.618343529405735],[9.483602013130707,45.611552477009205],[9.48308191931592,45.60923243787011],[9.482296213148345,45.60584241656541],[9.480970653125386,45.60528993847428],[9.478954216524578,45.60492038744177],[9.477926937060978,45.60475366046652],[9.47856759104861,45.5988508733947],[9.481654626777745,45.59680818124657]]]},"properties":{"name":"Busnago","op_id":"1900","minint_elettorale":"1031040135","minint_finloc":"1030490390","prov_name":"Monza e della Brianza","prov_istat_code":"108","prov_istat_code_num":108,"prov_acr":"MB","prov_iso_3166_2":"IT-MB","reg_name":"Lombardia","reg_istat_code":"03","reg_istat_code_num":3,"reg_iso_3166_2":"IT-25","opdm_id":"2783","com_catasto_code":"B289","com_istat_code":"108051","com_istat_code_num":108051}},
{"type":"Feature","geometry":{"type":"Polygon","coordinates":[[[9.40085627573727,45.572097544173076],[9.398302025466394,45.57154842037408],[9.393120349227656,45.567290923820146],[9.392273689116271,45.56532261495171],[9.393510975738744,45.56361287531793],[9.395161078529567,45.56224340371986],[9.3880142313457,45.5587673436421],[9.383400620007924,45.55766203172777],[9.3730529216677,45.55770919213083],[9.367646031069388,45.55771772662328],[9.363092216484997,45.55689520315136],[9.362067442959399,45.5558093377743],[9.361327578363786,45.55494308795279],[9.361393531609021,45.554236293101766],[9.351674829779403,45.55872211299774],[9.356918666133357,45.559245931834475],[9.359558170478936,45.56041182978095],[9.364831796560347,45.56832985904651],[9.366137170697195,45.573978272329484],[9.37060506556455,45.57516098451091],[9.372004985039183,45.57513783459149],[9.374667501083955,45.57509373935923],[9.384073707543118,45.574909493516245],[9.393317672992833,45.57535516090941],[9.395899405350438,45.575115975923396],[9.400088005395101,45.57408764288711],[9.40085627573727,45.572097544173076]]]},"properties":{"name":"Caponago","op_id":"1907","minint_elettorale":"1031040145","minint_finloc":"1030490470","prov_name":"Monza e della Brianza","prov_istat_code":"108","prov_istat_code_num":108,"prov_acr":"MB","prov_iso_3166_2":"IT-MB","reg_name":"Lombardia","reg_istat_code":"03","reg_istat_code_num":3,"reg_iso_3166_2":"IT-25","opdm_id":"2784","com_catasto_code":"B671","com_istat_code":"108052","com_istat_code_num":108052}},
{"type":"Feature","geometry":{"type":"Polygon","coordinates":[[[9.495852141866335,45.639659054494594],[9.492902407588435,45.63842541131653],[9.491867822402236,45.63740828984247],[9.49028804319239,45.63465180417458],[9.490446268756113,45.63440359674197],[9.491358161970979,45.63304505345655],[9.491657382164217,45.63269273243494],[9.492047492915495,45.632371521531276],[9.495392599345506,45.62897725116793],[9.490816543260364,45.62482958442043],[9.48700696974491,45.62199710929441],[9.485112571959084,45.62181614955754],[9.481214353633035,45.619631833062115],[9.479817870206181,45.620461454324655],[9.475556755860831,45.62170322395407],[9.472419557686784,45.62236425114277],[9.470690096866809,45.622632412960996],[9.464720207405934,45.6235570046321],[9.462927853180911,45.62398731811405],[9.456375718156458,45.62573014489476],[9.456764197822162,45.627190307371656],[9.45651919738806,45.630703736903556],[9.454050075155864,45.640556709915444],[9.45218486370497,45.64478591904446],[9.451368189595417,45.64635622616462],[9.446840876565577,45.649703809470985],[9.450265655709195,45.65266969643087],[9.455195489152569,45.65760062239504],[9.456023946632039,45.65846139775037],[9.456217127979285,45.65860749760373],[9.457444621061764,45.659535802344045],[9.459586194450884,45.6608593359248],[9.461276113179212,45.661878618078866],[9.463519611019532,45.66308464713936],[9.465014934342227,45.663870452811366],[9.465306161909291,45.66490454847517],[9.472923955863994,45.66745645808495],[9.47657545057398,45.669268308838525],[9.487190539699425,45.66458815200776],[9.487264961066192,45.66281463263559],[9.487905872289236,45.655314243312205],[9.490327782159307,45.650452440890305],[9.495009031443518,45.64864109970513],[9.495852141866335,45.639659054494594]]]},"properties":{"name":"Cornate d'Adda","op_id":"1935","minint_elettorale":"1031040215","minint_finloc":"1030490880","prov_name":"Monza e della Brianza","prov_istat_code":"108","prov_istat_code_num":108,"prov_acr":"MB","prov_iso_3166_2":"IT-MB","reg_name":"Lombardia","reg_istat_code":"03","reg_istat_code_num":3,"reg_iso_3166_2":"IT-25","opdm_id":"2785","com_catasto_code":"D019","com_istat_code":"108053","com_istat_code_num":108053}},
{"type":"Feature","geometry":{"type":"Polygon","coordinates":[[[9.153795030443517,45.68655830714561],[9.15414032564066,45.685999882334926],[9.153869258078727,45.68546027368778],[9.153740245943919,45.68523542719113],[9.153288985917651,45.68457898725207],[9.152567623783293,45.68376087505105],[9.151331669824518,45.68258341337516],[9.14902831320148,45.68077729214354],[9.14774184329862,45.67986089061248],[9.14716403431944,45.6798706318083],[9.145227686535334,45.68087219328006],[9.144240447560522,45.681449493831536],[9.141074063196552,45.67845619733684],[9.139158431853495,45.66725950322845],[9.139315056354956,45.66327908504497],[9.134913076713016,45.6639811917628],[9.128659582759207,45.66263827460105],[9.122259969049228,45.65871193050858],[9.120752176864626,45.656427383599],[9.103807120828556,45.65360893386176],[9.100477990983086,45.65964986447139],[9.099798897256035,45.66445829300185],[9.097256951485889,45.674820643922594],[9.08956563826183,45.68230075958394],[9.08828582397577,45.6855025929881],[9.088353974177254,45.68551927557071],[9.088470684466897,45.68554785833654],[9.089275369371668,45.68574510149126],[9.091088129026724,45.686218180562875],[9.091266722959222,45.68626558677768],[9.091313533313382,45.686288200890765],[9.092847561867908,45.68702937634539],[9.101968093352232,45.69571607471847],[9.103203286782794,45.696894056646975],[9.108524869644294,45.692298737531246],[9.108576631695229,45.69226431777482],[9.1094740725371,45.69167678712196],[9.11015427702903,45.691388165172995],[9.118138163243128,45.68924694379257],[9.12180953841293,45.688505014390955],[9.123904500197527,45.68924082393475],[9.124161622162744,45.68935756106895],[9.12363604109114,45.68980816024819],[9.124705081546054,45.6903919563561],[9.127390389851191,45.691685186710764],[9.129614384546224,45.69257380094402],[9.131567859234583,45.6931115981088],[9.133534143142612,45.69362235876463],[9.138173463900623,45.694741953870846],[9.139120152666415,45.694844309142745],[9.139162723842112,45.694848755010085],[9.139856203458143,45.6948119075934],[9.142446010884589,45.69293660024787],[9.145909430527112,45.69126708817551],[9.146834365039517,45.691355915117086],[9.14732338566707,45.69174228359921],[9.153795030443517,45.68655830714561]]]},"properties":{"name":"Lentate sul Seveso","op_id":"1957","minint_elettorale":"1031040255","minint_finloc":"1030491180","prov_name":"Monza e della Brianza","prov_istat_code":"108","prov_istat_code_num":108,"prov_acr":"MB","prov_iso_3166_2":"IT-MB","reg_name":"Lombardia","reg_istat_code":"03","reg_istat_code_num":3,"reg_iso_3166_2":"IT-25","opdm_id":"2786","com_catasto_code":"E530","com_istat_code":"108054","com_istat_code_num":108054}},
{"type":"Feature","geometry":{"type":"Polygon","coordinates":[[[9.466542228506515,45.59351048245096],[9.450162086435274,45.59182052457703],[9.450154412050463,45.59227436519946],[9.45010903341371,45.59301261924396],[9.449555414735242,45.594328933376254],[9.447330828903969,45.59834308167983],[9.446804919301291,45.59990248829527],[9.44294242845103,45.60850114059253],[9.446072858917958,45.607155345537606],[9.44988513050393,45.60835082123684],[9.456903981863457,45.60725193805054],[9.467671910107274,45.603653030588404],[9.471476325346979,45.603169338067204],[9.471897831320542,45.60296958064103],[9.474305611885027,45.599584214964366],[9.476787600718806,45.59590154054311],[9.466542228506515,45.59351048245096]]]},"properties":{"name":"Roncello","op_id":"2008","minint_elettorale":"1031040375","minint_finloc":"1030491850","prov_name":"Monza e della Brianza","prov_istat_code":"108","prov_istat_code_num":108,"prov_acr":"MB","prov_iso_3166_2":"IT-MB","reg_name":"Lombardia","reg_istat_code":"03","reg_istat_code_num":3,"reg_iso_3166_2":"IT-25","opdm_id":"2787","com_catasto_code":"H529","com_istat_code":"108055","com_istat_code_num":108055}}
]}